{"type":"FeatureCollection","features":[{"type":"Feature","id":154,"geometry":{"type":"Polygon","coordinates":[[[-118.614,34.344],[-118.64,34.353],[-118.659,34.349],[-118.69,34.362],[-118.718,34.354],[-118.763,34.373],[-118.782,34.364],[-118.806,34.367],[-118.826,34.355],[-118.835,34.36],[-118.884,34.356],[-118.913,34.334],[-118.939,34.336],[-118.947,34.345],[-118.965,34.336],[-118.965,34.322],[-118.987,34.319],[-118.996,34.332],[-119.012,34.335],[-119.071,34.318],[-119.08,34.297],[-119.112,34.289],[-119.154,34.239],[-119.159,34.225],[-119.143,34.224],[-119.137,34.157],[-119.148,34.157],[-119.147,34.148],[-119.166,34.147],[-119.166,34.137],[-119.177,34.131],[-119.129,34.1],[-119.087,34.098],[-119.061,34.085],[-119.055,34.093],[-119.065,34.11],[-119.04,34.121],[-119.042,34.126],[-119.009,34.155],[-118.944,34.145],[-118.919,34.166],[-118.836,34.16],[-118.816,34.171],[-118.815,34.188],[-118.808,34.188],[-118.801,34.203],[-118.776,34.205],[-118.769,34.213],[-118.748,34.216],[-118.75,34.221],[-118.702,34.235],[-118.673,34.233],[-118.651,34.257],[-118.635,34.26],[-118.638,34.291],[-118.651,34.311],[-118.614,34.344]]]},"properties":{"SHAPE.AREA":891033564.49739599,"SHAPE.LEN":172729.69647564599,"OBJECTID":154,"HRC":"SC","HBPA":"LA","RBU":4408,"HR":4,"RB":4,"HU":8,"HRNAME":"South Coast","RBNAME":"Los Angeles","HBPANAME":"Los Angeles","HUNAME":"CALLEGUAS","IDNUM":"4408"}},{"type":"Feature","id":186,"geometry":{"type":"Polygon","coordinates":[[[-119.047,33.465],[-119.05,33.464],[-119.047,33.463],[-119.047,33.465]]]},"properties":{"SHAPE.AREA":57557.552527041,"SHAPE.LEN":1333.4879658488201,"OBJECTID":186,"HRC":"SC","HBPA":"LA","RBU":4406,"HR":4,"RB":4,"HU":6,"HRNAME":"South Coast","RBNAME":"Los Angeles","HBPANAME":"Los Angeles","HUNAME":"SAN PEDRO CHANNEL ISLANDS","IDNUM":"4406"}},{"type":"Feature","id":174,"geometry":{"type":"Polygon","coordinates":[[[-117.794,33.965],[-117.826,33.947],[-117.783,33.946],[-117.794,33.954],[-117.794,33.965]]]},"properties":{"SHAPE.AREA":3947671.2749918699,"SHAPE.LEN":10467.452325559101,"OBJECTID":174,"HRC":"SC","HBPA":"LA","RBU":4481,"HR":4,"RB":4,"HU":81,"HRNAME":"South Coast","RBNAME":"Los Angeles","HBPANAME":"Los Angeles","HUNAME":"SANTA ANA RIVER","IDNUM":"4481"}},{"type":"Feature","id":191,"geometry":{"type":"Polygon","coordinates":[[[-119.512,33.276],[-119.535,33.285],[-119.561,33.271],[-119.579,33.279],[-119.566,33.247],[-119.545,33.232],[-119.47,33.215],[-119.421,33.229],[-119.466,33.26],[-119.512,33.276]]]},"properties":{"SHAPE.AREA":58629126.233241297,"SHAPE.LEN":43250.256465355502,"OBJECTID":191,"HRC":"SC","HBPA":"LA","RBU":4406,"HR":4,"RB":4,"HU":6,"HRNAME":"South Coast","RBNAME":"Los Angeles","HBPANAME":"Los Angeles","HUNAME":"SAN PEDRO CHANNEL ISLANDS","IDNUM":"4406"}},{"type":"Feature","id":161,"geometry":{"type":"Polygon","coordinates":[[[-118.722,34.226],[-118.75,34.221],[-118.748,34.216],[-118.769,34.213],[-118.776,34.205],[-118.801,34.203],[-118.808,34.188],[-118.815,34.188],[-118.816,34.171],[-118.837,34.159],[-118.907,34.166],[-118.931,34.16],[-118.928,34.155],[-118.941,34.145],[-118.927,34.132],[-118.95,34.125],[-118.955,34.116],[-118.94,34.108],[-118.945,34.045],[-118.854,34.034],[-118.807,34.0],[-118.785,34.021],[-118.745,34.032],[-118.571,34.042],[-118.526,34.03],[-118.461,33.97],[-118.406,33.871],[-118.4,33.844],[-118.395,33.841],[-118.397,33.851],[-118.391,33.841],[-118.393,33.805],[-118.428,33.774],[-118.411,33.741],[-118.361,33.737],[-118.351,33.727],[-118.291,33.705],[-118.302,33.723],[-118.381,33.77],[-118.384,33.779],[-118.375,33.778],[-118.375,33.792],[-118.366,33.799],[-118.376,33.811],[-118.363,33.82],[-118.374,33.828],[-118.355,33.839],[-118.352,33.857],[-118.358,33.87],[-118.373,33.867],[-118.379,33.874],[-118.382,33.895],[-118.396,33.895],[-118.396,33.916],[-118.389,33.919],[-118.398,33.931],[-118.392,33.959],[-118.371,33.963],[-118.37,33.946],[-118.369,33.961],[-118.349,33.963],[-118.343,33.971],[-118.324,33.966],[-118.319,33.954],[-118.3,33.959],[-118.283,33.983],[-118.283,34.018],[-118.241,34.015],[-118.263,34.04],[-118.264,34.085],[-118.255,34.103],[-118.308,34.137],[-118.333,34.136],[-118.345,34.119],[-118.377,34.131],[-118.391,34.118],[-118.403,34.128],[-118.43,34.133],[-118.553,34.125],[-118.567,34.138],[-118.585,34.14],[-118.604,34.139],[-118.614,34.122],[-118.631,34.128],[-118.651,34.121],[-118.662,34.132],[-118.673,34.127],[-118.686,34.137],[-118.673,34.139],[-118.663,34.152],[-118.68,34.173],[-118.669,34.185],[-118.685,34.199],[-118.703,34.195],[-118.701,34.209],[-118.722,34.226]]]},"properties":{"SHAPE.AREA":1081185067.5224299,"SHAPE.LEN":316437.14119714301,"OBJECTID":161,"HRC":"SC","HBPA":"LA","RBU":4404,"HR":4,"RB":4,"HU":4,"HRNAME":"South Coast","RBNAME":"Los Angeles","HBPANAME":"Los Angeles","HUNAME":"SANTA MONICA BAY","IDNUM":"4404"}},{"type":"Feature","id":172,"geometry":{"type":"Polygon","coordinates":[[[-119.38,34.01],[-119.408,34.006],[-119.392,34.002],[-119.38,34.01]]]},"properties":{"SHAPE.AREA":633291.27427573001,"SHAPE.LEN":8040.0520739924305,"OBJECTID":172,"HRC":"SC","HBPA":"LA","RBU":4406,"HR":4,"RB":4,"HU":6,"HRNAME":"South Coast","RBNAME":"Los Angeles","HBPANAME":"Los Angeles","HUNAME":"SAN PEDRO CHANNEL ISLANDS","IDNUM":"4406"}},{"type":"Feature","id":156,"geometry":{"type":"Polygon","coordinates":[[[-119.215,34.341],[-119.267,34.328],[-119.264,34.305],[-119.282,34.299],[-119.306,34.273],[-119.281,34.27],[-119.266,34.239],[-119.244,34.246],[-119.212,34.291],[-119.208,34.329],[-119.215,34.341]]]},"properties":{"SHAPE.AREA":53524945.256311998,"SHAPE.LEN":35225.452663935903,"OBJECTID":156,"HRC":"SC","HBPA":"LA","RBU":4407,"HR":4,"RB":4,"HU":7,"HRNAME":"South Coast","RBNAME":"Los Angeles","HBPANAME":"Los Angeles","HUNAME":"BUENAVENTURA","IDNUM":"4407"}},{"type":"Feature","id":165,"geometry":{"type":"Polygon","coordinates":[[[-119.061,34.085],[-119.038,34.083],[-118.945,34.045],[-118.94,34.108],[-118.955,34.116],[-118.951,34.125],[-118.927,34.132],[-118.941,34.146],[-119.009,34.155],[-119.042,34.126],[-119.04,34.121],[-119.065,34.11],[-119.055,34.093],[-119.061,34.085]]]},"properties":{"SHAPE.AREA":90961068.791497394,"SHAPE.LEN":47071.479722996104,"OBJECTID":165,"HRC":"SC","HBPA":"LA","RBU":4409,"HR":4,"RB":4,"HU":9,"HRNAME":"South Coast","RBNAME":"Los Angeles","HBPANAME":"Los Angeles","HUNAME":"VENTURA COASTAL STREAMS","IDNUM":"4409"}},{"type":"Feature","id":137,"geometry":{"type":"Polygon","coordinates":[[[-118.819,34.804],[-118.866,34.805],[-118.93,34.784],[-118.959,34.794],[-118.961,34.778],[-119.006,34.776],[-119.043,34.791],[-119.065,34.789],[-119.109,34.824],[-119.171,34.813],[-119.183,34.76],[-119.165,34.759],[-119.165,34.751],[-119.141,34.742],[-119.139,34.729],[-119.129,34.721],[-119.144,34.707],[-119.146,34.689],[-119.165,34.681],[-119.174,34.664],[-119.208,34.656],[-119.21,34.641],[-119.229,34.643],[-119.237,34.624],[-119.343,34.641],[-119.378,34.654],[-119.387,34.651],[-119.386,34.642],[-119.41,34.637],[-119.421,34.644],[-119.44,34.636],[-119.443,34.625],[-119.461,34.622],[-119.461,34.6],[-119.393,34.586],[-119.376,34.573],[-119.356,34.574],[-119.342,34.567],[-119.336,34.547],[-119.306,34.54],[-119.247,34.547],[-119.23,34.539],[-119.241,34.533],[-119.223,34.53],[-119.223,34.515],[-119.174,34.519],[-119.172,34.503],[-119.141,34.499],[-119.139,34.464],[-119.145,34.458],[-119.136,34.449],[-119.139,34.418],[-119.187,34.414],[-119.212,34.391],[-119.212,34.377],[-119.2,34.364],[-119.203,34.348],[-119.215,34.341],[-119.208,34.329],[-119.212,34.291],[-119.244,34.246],[-119.266,34.239],[-119.259,34.218],[-119.159,34.218],[-119.154,34.239],[-119.114,34.287],[-119.097,34.297],[-119.081,34.296],[-119.073,34.317],[-119.012,34.335],[-118.996,34.332],[-118.987,34.319],[-118.965,34.322],[-118.965,34.336],[-118.948,34.345],[-118.939,34.336],[-118.913,34.334],[-118.883,34.357],[-118.835,34.36],[-118.826,34.355],[-118.806,34.367],[-118.782,34.364],[-118.759,34.373],[-118.718,34.354],[-118.69,34.362],[-118.659,34.349],[-118.627,34.35],[-118.6,34.329],[-118.569,34.32],[-118.531,34.328],[-118.534,34.336],[-118.512,34.348],[-118.483,34.34],[-118.454,34.357],[-118.425,34.351],[-118.393,34.361],[-118.367,34.359],[-118.333,34.386],[-118.269,34.399],[-118.258,34.398],[-118.246,34.384],[-118.213,34.377],[-118.195,34.382],[-118.143,34.375],[-118.09,34.4],[-118.082,34.398],[-118.079,34.383],[-118.052,34.388],[-118.073,34.418],[-118.066,34.425],[-118.07,34.455],[-118.065,34.464],[-118.08,34.495],[-118.141,34.502],[-118.181,34.535],[-118.203,34.536],[-118.214,34.548],[-118.243,34.545],[-118.259,34.568],[-118.301,34.569],[-118.303,34.585],[-118.315,34.596],[-118.347,34.603],[-118.348,34.613],[-118.38,34.635],[-118.371,34.647],[-118.334,34.639],[-118.327,34.647],[-118.365,34.666],[-118.444,34.682],[-118.47,34.698],[-118.5,34.704],[-118.523,34.706],[-118.547,34.69],[-118.593,34.71],[-118.613,34.703],[-118.626,34.713],[-118.654,34.713],[-118.701,34.732],[-118.717,34.748],[-118.725,34.744],[-118.755,34.753],[-118.765,34.784],[-118.819,34.804]]]},"properties":{"SHAPE.AREA":4197303080.76618,"SHAPE.LEN":456686.93184270401,"OBJECTID":137,"HRC":"SC","HBPA":"LA","RBU":4403,"HR":4,"RB":4,"HU":3,"HRNAME":"South Coast","RBNAME":"Los Angeles","HBPANAME":"Los Angeles","HUNAME":"SANTA CLARA - CALLEGUAS","IDNUM":"4403"}},{"type":"Feature","id":155,"geometry":{"type":"Polygon","coordinates":[[[-117.698,34.368],[-117.747,34.382],[-117.764,34.359],[-117.794,34.355],[-117.806,34.341],[-117.84,34.345],[-117.86,34.366],[-117.911,34.338],[-117.978,34.34],[-118.008,34.322],[-118.007,34.306],[-117.992,34.288],[-118.014,34.273],[-118.065,34.28],[-118.104,34.271],[-118.106,34.248],[-118.092,34.238],[-118.063,34.223],[-118.052,34.232],[-118.018,34.236],[-118.007,34.226],[-117.969,34.216],[-117.95,34.186],[-117.957,34.173],[-117.974,34.167],[-117.965,34.14],[-117.97,34.112],[-118.003,34.111],[-118.005,34.102],[-117.997,34.099],[-118.009,34.087],[-118.018,34.062],[-118.056,34.021],[-118.088,34.013],[-118.084,34.001],[-118.109,33.983],[-118.103,33.974],[-118.112,33.958],[-118.139,33.942],[-118.16,33.904],[-118.157,33.898],[-118.164,33.897],[-118.155,33.877],[-118.164,33.874],[-118.164,33.838],[-118.177,33.83],[-118.189,33.834],[-118.192,33.827],[-118.184,33.812],[-118.169,33.813],[-118.172,33.804],[-118.148,33.791],[-118.152,33.772],[-118.167,33.762],[-118.115,33.742],[-118.092,33.758],[-118.097,33.78],[-118.085,33.803],[-118.063,33.82],[-118.059,33.846],[-118.029,33.866],[-118.029,33.873],[-118.011,33.873],[-117.994,33.896],[-117.977,33.903],[-117.977,33.946],[-117.826,33.947],[-117.794,33.965],[-117.803,33.976],[-117.785,34.005],[-117.765,34.01],[-117.79,34.02],[-117.788,34.042],[-117.768,34.044],[-117.768,34.054],[-117.75,34.063],[-117.751,34.075],[-117.719,34.09],[-117.72,34.122],[-117.695,34.122],[-117.694,34.149],[-117.685,34.156],[-117.708,34.179],[-117.697,34.192],[-117.695,34.21],[-117.67,34.229],[-117.667,34.24],[-117.675,34.249],[-117.655,34.273],[-117.659,34.28],[-117.636,34.303],[-117.644,34.314],[-117.634,34.334],[-117.665,34.344],[-117.698,34.368]]]},"properties":{"SHAPE.AREA":1532848310.42591,"SHAPE.LEN":283686.96423652803,"OBJECTID":155,"HRC":"SC","HBPA":"LA","RBU":4405,"HR":4,"RB":4,"HU":5,"HRNAME":"South Coast","RBNAME":"Los Angeles","HBPANAME":"Los Angeles","HUNAME":"SAN GABRIEL RIVER","IDNUM":"4405"}},{"type":"Feature","id":152,"geometry":{"type":"Polygon","coordinates":[[[-118.052,34.388],[-118.079,34.383],[-118.082,34.398],[-118.09,34.4],[-118.143,34.375],[-118.195,34.382],[-118.213,34.377],[-118.246,34.384],[-118.258,34.398],[-118.268,34.399],[-118.333,34.386],[-118.367,34.359],[-118.393,34.361],[-118.425,34.351],[-118.454,34.357],[-118.483,34.34],[-118.512,34.348],[-118.534,34.336],[-118.531,34.328],[-118.552,34.322],[-118.6,34.329],[-118.614,34.344],[-118.651,34.311],[-118.638,34.291],[-118.635,34.26],[-118.651,34.257],[-118.673,34.233],[-118.702,34.235],[-118.722,34.226],[-118.701,34.209],[-118.703,34.195],[-118.685,34.199],[-118.669,34.185],[-118.68,34.173],[-118.663,34.152],[-118.673,34.139],[-118.686,34.137],[-118.673,34.127],[-118.662,34.132],[-118.651,34.121],[-118.631,34.128],[-118.614,34.122],[-118.604,34.139],[-118.585,34.14],[-118.567,34.138],[-118.553,34.125],[-118.43,34.133],[-118.403,34.128],[-118.391,34.118],[-118.377,34.131],[-118.345,34.119],[-118.333,34.136],[-118.308,34.137],[-118.255,34.104],[-118.264,34.085],[-118.263,34.04],[-118.241,34.016],[-118.283,34.018],[-118.283,33.983],[-118.3,33.959],[-118.318,33.951],[-118.291,33.926],[-118.27,33.92],[-118.264,33.903],[-118.253,33.902],[-118.243,33.881],[-118.248,33.865],[-118.224,33.858],[-118.218,33.864],[-118.207,33.839],[-118.221,33.818],[-118.215,33.79],[-118.226,33.783],[-118.206,33.777],[-118.205,33.79],[-118.204,33.763],[-118.167,33.762],[-118.152,33.772],[-118.148,33.791],[-118.172,33.804],[-118.169,33.813],[-118.184,33.812],[-118.192,33.827],[-118.189,33.834],[-118.177,33.83],[-118.164,33.838],[-118.164,33.874],[-118.155,33.877],[-118.164,33.897],[-118.157,33.898],[-118.16,33.904],[-118.139,33.942],[-118.112,33.958],[-118.103,33.974],[-118.109,33.983],[-118.084,34.001],[-118.088,34.013],[-118.056,34.021],[-118.018,34.062],[-118.009,34.087],[-117.997,34.099],[-118.005,34.102],[-118.003,34.111],[-117.97,34.112],[-117.965,34.14],[-117.974,34.167],[-117.957,34.173],[-117.95,34.186],[-117.969,34.216],[-118.007,34.226],[-118.013,34.235],[-118.052,34.232],[-118.063,34.223],[-118.106,34.248],[-118.104,34.271],[-118.065,34.28],[-118.023,34.271],[-117.992,34.288],[-118.009,34.319],[-117.978,34.34],[-117.986,34.35],[-117.998,34.345],[-118.013,34.356],[-118.018,34.371],[-118.052,34.388]]]},"properties":{"SHAPE.AREA":2160427986.5370898,"SHAPE.LEN":375018.40805673704,"OBJECTID":152,"HRC":"SC","HBPA":"LA","RBU":4412,"HR":4,"RB":4,"HU":12,"HRNAME":"South Coast","RBNAME":"Los Angeles","HBPANAME":"Los Angeles","HUNAME":"LOS ANGELES RIVER","IDNUM":"4412"}},{"type":"Feature","id":169,"geometry":{"type":"Polygon","coordinates":[[[-119.424,34.015],[-119.444,34.014],[-119.408,34.006],[-119.424,34.015]]]},"properties":{"SHAPE.AREA":1816986.5682211199,"SHAPE.LEN":9904.2876007449504,"OBJECTID":169,"HRC":"SC","HBPA":"LA","RBU":4406,"HR":4,"RB":4,"HU":6,"HRNAME":"South Coast","RBNAME":"Los Angeles","HBPANAME":"Los Angeles","HUNAME":"SAN PEDRO CHANNEL ISLANDS","IDNUM":"4406"}},{"type":"Feature","id":187,"geometry":{"type":"Polygon","coordinates":[[[-118.581,33.452],[-118.563,33.434],[-118.537,33.435],[-118.515,33.422],[-118.501,33.436],[-118.506,33.426],[-118.488,33.42],[-118.473,33.383],[-118.485,33.373],[-118.489,33.356],[-118.465,33.326],[-118.422,33.317],[-118.374,33.32],[-118.326,33.299],[-118.305,33.309],[-118.31,33.336],[-118.368,33.389],[-118.371,33.409],[-118.445,33.429],[-118.477,33.448],[-118.498,33.442],[-118.502,33.453],[-118.538,33.478],[-118.606,33.479],[-118.581,33.452]]]},"properties":{"SHAPE.AREA":193781193.95358899,"SHAPE.LEN":104343.137634952,"OBJECTID":187,"HRC":"SC","HBPA":"LA","RBU":4406,"HR":4,"RB":4,"HU":6,"HRNAME":"South Coast","RBNAME":"Los Angeles","HBPANAME":"Los Angeles","HUNAME":"SAN PEDRO CHANNEL ISLANDS","IDNUM":"4406"}},{"type":"Feature","id":176,"geometry":{"type":"Polygon","coordinates":[[[-118.355,33.839],[-118.374,33.828],[-118.363,33.82],[-118.376,33.811],[-118.366,33.799],[-118.375,33.792],[-118.375,33.778],[-118.384,33.779],[-118.381,33.77],[-118.302,33.723],[-118.291,33.705],[-118.205,33.739],[-118.186,33.739],[-118.188,33.752],[-118.206,33.764],[-118.206,33.777],[-118.226,33.783],[-118.215,33.79],[-118.221,33.818],[-118.207,33.839],[-118.219,33.865],[-118.224,33.858],[-118.248,33.865],[-118.243,33.881],[-118.253,33.902],[-118.264,33.903],[-118.27,33.92],[-118.305,33.935],[-118.322,33.964],[-118.339,33.971],[-118.369,33.961],[-118.37,33.946],[-118.371,33.963],[-118.396,33.957],[-118.398,33.929],[-118.389,33.919],[-118.396,33.916],[-118.396,33.895],[-118.382,33.895],[-118.375,33.868],[-118.353,33.866],[-118.355,33.839]]]},"properties":{"SHAPE.AREA":330886031.57943797,"SHAPE.LEN":110699.849963131,"OBJECTID":176,"HRC":"SC","HBPA":"LA","RBU":4411,"HR":4,"RB":4,"HU":11,"HRNAME":"South Coast","RBNAME":"Los Angeles","HBPANAME":"Los Angeles","HUNAME":"DOMINGUEZ CHANNEL","IDNUM":"4411"}},{"type":"Feature","id":150,"geometry":{"type":"Polygon","coordinates":[[[-119.407,34.405],[-119.423,34.376],[-119.442,34.382],[-119.476,34.373],[-119.46,34.374],[-119.39,34.318],[-119.368,34.319],[-119.319,34.281],[-119.324,34.302],[-119.345,34.312],[-119.346,34.353],[-119.377,34.363],[-119.387,34.402],[-119.407,34.405]]]},"properties":{"SHAPE.AREA":56862153.103122003,"SHAPE.LEN":50363.175571347696,"OBJECTID":150,"HRC":"SC","HBPA":"LA","RBU":4401,"HR":4,"RB":4,"HU":1,"HRNAME":"South Coast","RBNAME":"Los Angeles","HBPANAME":"Los Angeles","HUNAME":"PITAS POINT","IDNUM":"4401"}},{"type":"Feature","id":147,"geometry":{"type":"Polygon","coordinates":[[[-119.459,34.599],[-119.451,34.586],[-119.465,34.576],[-119.461,34.567],[-119.473,34.563],[-119.472,34.549],[-119.456,34.533],[-119.456,34.517],[-119.431,34.502],[-119.437,34.481],[-119.416,34.43],[-119.425,34.41],[-119.387,34.402],[-119.376,34.377],[-119.38,34.366],[-119.346,34.353],[-119.35,34.326],[-119.343,34.308],[-119.324,34.302],[-119.311,34.275],[-119.282,34.3],[-119.264,34.305],[-119.267,34.329],[-119.239,34.331],[-119.232,34.341],[-119.203,34.348],[-119.2,34.364],[-119.214,34.384],[-119.187,34.414],[-119.139,34.418],[-119.136,34.449],[-119.145,34.458],[-119.139,34.464],[-119.141,34.499],[-119.172,34.503],[-119.174,34.519],[-119.221,34.514],[-119.223,34.53],[-119.241,34.533],[-119.23,34.539],[-119.247,34.547],[-119.312,34.54],[-119.336,34.547],[-119.342,34.567],[-119.356,34.574],[-119.376,34.573],[-119.393,34.586],[-119.459,34.599]]]},"properties":{"SHAPE.AREA":585467049.55916297,"SHAPE.LEN":135737.302781095,"OBJECTID":147,"HRC":"SC","HBPA":"LA","RBU":4402,"HR":4,"RB":4,"HU":2,"HRNAME":"South Coast","RBNAME":"Los Angeles","HBPANAME":"Los Angeles","HUNAME":"VENTURA RIVER","IDNUM":"4402"}},{"type":"Feature","id":162,"geometry":{"type":"Polygon","coordinates":[[[-119.259,34.218],[-119.216,34.146],[-119.208,34.154],[-119.204,34.148],[-119.211,34.145],[-119.177,34.131],[-119.166,34.137],[-119.166,34.147],[-119.147,34.148],[-119.148,34.157],[-119.137,34.157],[-119.143,34.224],[-119.259,34.218]]]},"properties":{"SHAPE.AREA":75765158.612830102,"SHAPE.LEN":42502.107386952899,"OBJECTID":162,"HRC":"SC","HBPA":"LA","RBU":4410,"HR":4,"RB":4,"HU":10,"HRNAME":"South Coast","RBNAME":"Los Angeles","HBPANAME":"Los Angeles","HUNAME":"OXNARD","IDNUM":"4410"}},{"type":"Feature","id":159,"geometry":{"type":"Polygon","coordinates":[[[-117.767,34.011],[-117.768,34.023],[-117.73,34.022],[-117.678,34.162],[-117.646,34.289],[-117.659,34.28],[-117.655,34.273],[-117.675,34.249],[-117.667,34.24],[-117.67,34.229],[-117.695,34.21],[-117.697,34.192],[-117.708,34.179],[-117.685,34.156],[-117.694,34.149],[-117.695,34.122],[-117.72,34.122],[-117.719,34.09],[-117.751,34.075],[-117.75,34.063],[-117.768,34.054],[-117.768,34.044],[-117.788,34.042],[-117.79,34.02],[-117.767,34.011]]]},"properties":{"SHAPE.AREA":63576449.229733102,"SHAPE.LEN":82755.627330636795,"OBJECTID":159,"HRC":"SC","HBPA":"LA","RBU":4481,"HR":4,"RB":4,"HU":81,"HRNAME":"South Coast","RBNAME":"Los Angeles","HBPANAME":"Los Angeles","HUNAME":"SANTA ANA RIVER","IDNUM":"4481"}},{"type":"Feature","id":198,"geometry":{"type":"Polygon","coordinates":[[[-118.558,33.005],[-118.575,33.034],[-118.607,33.032],[-118.606,33.015],[-118.588,33.01],[-118.573,32.969],[-118.551,32.945],[-118.547,32.918],[-118.507,32.878],[-118.5,32.851],[-118.433,32.815],[-118.426,32.801],[-118.394,32.824],[-118.356,32.816],[-118.349,32.82],[-118.491,32.928],[-118.558,33.005]]]},"properties":{"SHAPE.AREA":146621178.40944999,"SHAPE.LEN":92400.381956049401,"OBJECTID":198,"HRC":"SC","HBPA":"LA","RBU":4406,"HR":4,"RB":4,"HU":6,"HRNAME":"South Coast","RBNAME":"Los Angeles","HBPANAME":"Los Angeles","HUNAME":"SAN PEDRO CHANNEL ISLANDS","IDNUM":"4406"}},{"type":"Feature","id":168,"geometry":{"type":"Polygon","coordinates":[[[-119.358,34.015],[-119.372,34.016],[-119.378,34.012],[-119.358,34.015]]]},"properties":{"SHAPE.AREA":452667.50718722498,"SHAPE.LEN":5660.1485779638406,"OBJECTID":168,"HRC":"SC","HBPA":"LA","RBU":4406,"HR":4,"RB":4,"HU":6,"HRNAME":"South Coast","RBNAME":"Los Angeles","HBPANAME":"Los Angeles","HUNAME":"SAN PEDRO CHANNEL ISLANDS","IDNUM":"4406"}},{"type":"Feature","id":185,"geometry":{"type":"Polygon","coordinates":[[[-119.028,33.476],[-119.028,33.489],[-119.048,33.484],[-119.036,33.465],[-119.028,33.476]]]},"properties":{"SHAPE.AREA":2589758.5089690499,"SHAPE.LEN":10558.943986600501,"OBJECTID":185,"HRC":"SC","HBPA":"LA","RBU":4406,"HR":4,"RB":4,"HU":6,"HRNAME":"South Coast","RBNAME":"Los Angeles","HBPANAME":"Los Angeles","HUNAME":"SAN PEDRO CHANNEL ISLANDS","IDNUM":"4406"}}]}