{"type":"FeatureCollection","features":[{"type":"Feature","id":164,"geometry":{"type":"Polygon","coordinates":[[[-115.553,34.093],[-115.557,34.034],[-115.594,34.029],[-115.615,34.047],[-115.651,34.042],[-115.699,34.05],[-115.698,34.034],[-115.706,34.026],[-115.721,34.03],[-115.721,34.019],[-115.738,34.006],[-115.762,34.007],[-115.781,33.996],[-115.789,33.978],[-115.802,33.977],[-115.8,33.954],[-115.861,33.967],[-115.87,33.976],[-115.866,33.987],[-115.883,33.994],[-115.888,34.01],[-115.904,33.995],[-115.928,33.993],[-115.917,34.02],[-115.938,34.043],[-115.957,34.024],[-115.981,34.029],[-116.002,34.007],[-115.999,33.998],[-116.007,33.988],[-116.061,33.982],[-116.094,33.992],[-116.132,33.991],[-116.139,33.981],[-116.133,33.972],[-116.138,33.958],[-116.151,33.955],[-116.136,33.931],[-116.153,33.918],[-116.139,33.913],[-116.135,33.902],[-116.114,33.9],[-116.113,33.877],[-116.094,33.861],[-116.076,33.867],[-116.038,33.835],[-116.021,33.795],[-116.009,33.802],[-115.991,33.791],[-115.976,33.792],[-115.956,33.813],[-115.926,33.817],[-115.915,33.81],[-115.931,33.798],[-115.931,33.789],[-115.912,33.787],[-115.905,33.762],[-115.879,33.761],[-115.861,33.747],[-115.796,33.755],[-115.76,33.743],[-115.75,33.75],[-115.714,33.738],[-115.682,33.742],[-115.67,33.725],[-115.666,33.738],[-115.633,33.738],[-115.622,33.75],[-115.599,33.758],[-115.558,33.752],[-115.553,33.742],[-115.577,33.724],[-115.577,33.707],[-115.542,33.646],[-115.504,33.629],[-115.487,33.595],[-115.449,33.593],[-115.441,33.571],[-115.381,33.556],[-115.345,33.562],[-115.335,33.523],[-115.293,33.514],[-115.283,33.5],[-115.259,33.489],[-115.262,33.477],[-115.251,33.47],[-115.262,33.45],[-115.228,33.416],[-115.187,33.4],[-115.166,33.41],[-115.149,33.399],[-115.129,33.405],[-115.045,33.382],[-115.022,33.393],[-115.002,33.384],[-114.997,33.394],[-114.974,33.39],[-114.972,33.397],[-114.95,33.385],[-114.929,33.389],[-114.919,33.414],[-114.906,33.419],[-114.899,33.438],[-114.874,33.455],[-114.868,33.482],[-114.844,33.479],[-114.84,33.493],[-114.847,33.5],[-114.832,33.509],[-114.836,33.519],[-114.811,33.535],[-114.821,33.544],[-114.812,33.597],[-114.824,33.658],[-114.847,33.683],[-114.866,33.728],[-114.905,33.742],[-114.92,33.783],[-114.916,33.8],[-114.906,33.793],[-114.89,33.795],[-114.881,33.821],[-114.86,33.839],[-114.86,33.863],[-114.9,33.897],[-114.913,33.891],[-114.937,33.899],[-114.942,33.911],[-114.991,33.923],[-114.985,33.931],[-114.995,33.939],[-115.057,33.951],[-115.085,33.979],[-115.1,33.98],[-115.111,33.994],[-115.14,33.998],[-115.177,34.028],[-115.199,34.02],[-115.222,34.033],[-115.311,34.0],[-115.336,34.029],[-115.366,34.028],[-115.376,34.011],[-115.404,34.027],[-115.405,34.039],[-115.432,34.069],[-115.466,34.076],[-115.482,34.094],[-115.506,34.089],[-115.52,34.104],[-115.553,34.093]]]},"properties":{"SHAPE.AREA":5134158144.7555799,"SHAPE.LEN":464724.43661399401,"OBJECTID":164,"HRC":"CR","HBPA":"CR","RBU":10717,"HR":10,"RB":7,"HU":17,"HRNAME":"Colorado River","RBNAME":"Colorado River","HBPANAME":"Colorado River","HUNAME":"CHUCKWALLA","IDNUM":"10717"}},{"type":"Feature","id":144,"geometry":{"type":"Polygon","coordinates":[[[-116.363,34.545],[-116.378,34.549],[-116.413,34.535],[-116.441,34.516],[-116.441,34.504],[-116.489,34.512],[-116.522,34.5],[-116.451,34.441],[-116.468,34.402],[-116.466,34.38],[-116.456,34.363],[-116.517,34.312],[-116.553,34.267],[-116.619,34.25],[-116.634,34.234],[-116.649,34.233],[-116.666,34.213],[-116.714,34.21],[-116.709,34.18],[-116.694,34.161],[-116.671,34.167],[-116.605,34.165],[-116.574,34.157],[-116.553,34.137],[-116.498,34.145],[-116.486,34.155],[-116.457,34.146],[-116.466,34.168],[-116.458,34.178],[-116.441,34.181],[-116.415,34.208],[-116.377,34.229],[-116.374,34.237],[-116.348,34.243],[-116.278,34.297],[-116.298,34.323],[-116.286,34.333],[-116.282,34.408],[-116.301,34.42],[-116.362,34.504],[-116.357,34.513],[-116.365,34.52],[-116.363,34.545]]]},"properties":{"SHAPE.AREA":775638438.27295899,"SHAPE.LEN":170993.04541881601,"OBJECTID":144,"HRC":"CR","HBPA":"CR","RBU":10705,"HR":10,"RB":7,"HU":5,"HRNAME":"Colorado River","RBNAME":"Colorado River","HBPANAME":"Colorado River","HUNAME":"EMERSON","IDNUM":"10705"}},{"type":"Feature","id":157,"geometry":{"type":"Polygon","coordinates":[[[-116.552,34.274],[-116.456,34.363],[-116.466,34.38],[-116.468,34.402],[-116.451,34.441],[-116.519,34.494],[-116.54,34.484],[-116.532,34.473],[-116.543,34.436],[-116.528,34.42],[-116.55,34.405],[-116.534,34.344],[-116.521,34.324],[-116.538,34.304],[-116.551,34.301],[-116.552,34.274]]]},"properties":{"SHAPE.AREA":124691094.306021,"SHAPE.LEN":66493.309998110606,"OBJECTID":157,"HRC":"CR","HBPA":"CR","RBU":10704,"HR":10,"RB":7,"HU":4,"HRNAME":"Colorado River","RBNAME":"Colorado River","HBPANAME":"Colorado River","HUNAME":"MEANS","IDNUM":"10704"}},{"type":"Feature","id":182,"geometry":{"type":"Polygon","coordinates":[[[-116.074,33.5],[-116.079,33.479],[-116.046,33.452],[-116.033,33.394],[-116.003,33.37],[-115.965,33.354],[-115.917,33.3],[-115.903,33.301],[-115.883,33.285],[-115.874,33.272],[-115.877,33.26],[-115.882,33.262],[-115.851,33.237],[-115.844,33.209],[-115.831,33.194],[-115.831,33.174],[-115.803,33.165],[-115.806,33.16],[-115.794,33.156],[-115.798,33.153],[-115.778,33.146],[-115.775,33.13],[-115.758,33.112],[-115.736,33.104],[-115.727,33.109],[-115.716,33.098],[-115.689,33.104],[-115.651,33.172],[-115.61,33.191],[-115.616,33.203],[-115.61,33.203],[-115.622,33.204],[-115.622,33.212],[-115.612,33.205],[-115.622,33.212],[-115.61,33.204],[-115.592,33.216],[-115.598,33.253],[-115.631,33.322],[-115.687,33.353],[-115.715,33.355],[-115.732,33.347],[-115.774,33.364],[-115.831,33.414],[-115.848,33.447],[-115.885,33.47],[-115.938,33.52],[-116.048,33.522],[-116.055,33.519],[-116.056,33.508],[-116.072,33.507],[-116.074,33.5]]]},"properties":{"SHAPE.AREA":902084750.99426401,"SHAPE.LEN":190541.20615312402,"OBJECTID":182,"HRC":"CR","HBPA":"CR","RBU":10728,"HR":10,"RB":7,"HU":28,"HRNAME":"Colorado River","RBNAME":"Colorado River","HBPANAME":"Colorado River","HUNAME":"SALTON SEA","IDNUM":"10728"}},{"type":"Feature","id":140,"geometry":{"type":"Polygon","coordinates":[[[-116.64,34.654],[-116.667,34.671],[-116.676,34.688],[-116.707,34.698],[-116.726,34.669],[-116.761,34.667],[-116.819,34.683],[-116.849,34.661],[-116.923,34.666],[-116.951,34.653],[-117.071,34.69],[-117.09,34.671],[-117.076,34.663],[-117.075,34.624],[-117.045,34.609],[-117.058,34.594],[-117.034,34.568],[-117.041,34.561],[-117.031,34.522],[-117.049,34.504],[-117.083,34.511],[-117.074,34.488],[-117.096,34.448],[-117.122,34.434],[-117.147,34.406],[-117.183,34.402],[-117.193,34.386],[-117.183,34.38],[-117.179,34.365],[-117.151,34.357],[-117.143,34.362],[-117.124,34.347],[-117.097,34.35],[-117.091,34.358],[-117.043,34.357],[-117.03,34.364],[-117.007,34.339],[-116.933,34.323],[-116.906,34.33],[-116.859,34.313],[-116.856,34.29],[-116.84,34.29],[-116.824,34.312],[-116.83,34.317],[-116.82,34.335],[-116.795,34.34],[-116.761,34.393],[-116.753,34.391],[-116.759,34.424],[-116.744,34.446],[-116.795,34.473],[-116.796,34.5],[-116.764,34.509],[-116.754,34.531],[-116.709,34.529],[-116.709,34.57],[-116.673,34.587],[-116.676,34.628],[-116.689,34.632],[-116.694,34.655],[-116.67,34.661],[-116.64,34.654]]]},"properties":{"SHAPE.AREA":1220692951.61588,"SHAPE.LEN":217550.645634749,"OBJECTID":140,"HRC":"CR","HBPA":"CR","RBU":10701,"HR":10,"RB":7,"HU":1,"HRNAME":"Colorado River","RBNAME":"Colorado River","HBPANAME":"Colorado River","HUNAME":"LUCERNE LAKE","IDNUM":"10701"}},{"type":"Feature","id":139,"geometry":{"type":"Polygon","coordinates":[[[-114.628,34.625],[-114.67,34.651],[-114.69,34.682],[-114.729,34.695],[-114.744,34.713],[-114.783,34.715],[-114.802,34.724],[-114.834,34.695],[-114.875,34.623],[-114.865,34.605],[-114.873,34.588],[-114.862,34.559],[-114.88,34.554],[-114.883,34.542],[-114.867,34.466],[-114.872,34.45],[-114.867,34.44],[-114.837,34.426],[-114.834,34.41],[-114.824,34.401],[-114.827,34.385],[-114.845,34.374],[-114.85,34.352],[-114.868,34.339],[-114.855,34.321],[-114.813,34.346],[-114.794,34.345],[-114.777,34.326],[-114.781,34.312],[-114.767,34.303],[-114.759,34.285],[-114.712,34.313],[-114.72,34.328],[-114.698,34.33],[-114.644,34.323],[-114.612,34.327],[-114.562,34.311],[-114.539,34.29],[-114.482,34.308],[-114.474,34.3],[-114.428,34.301],[-114.406,34.317],[-114.391,34.299],[-114.335,34.275],[-114.297,34.285],[-114.303,34.291],[-114.295,34.294],[-114.295,34.306],[-114.276,34.309],[-114.268,34.326],[-114.217,34.293],[-114.207,34.298],[-114.204,34.283],[-114.166,34.297],[-114.139,34.296],[-114.181,34.352],[-114.228,34.365],[-114.263,34.4],[-114.289,34.406],[-114.297,34.423],[-114.326,34.437],[-114.336,34.45],[-114.374,34.447],[-114.386,34.457],[-114.381,34.529],[-114.407,34.572],[-114.436,34.594],[-114.425,34.609],[-114.438,34.62],[-114.444,34.646],[-114.458,34.657],[-114.451,34.667],[-114.468,34.7],[-114.518,34.679],[-114.561,34.647],[-114.584,34.642],[-114.585,34.628],[-114.605,34.614],[-114.628,34.625]]]},"properties":{"SHAPE.AREA":1938613029.26017,"SHAPE.LEN":264922.24313028296,"OBJECTID":139,"HRC":"CR","HBPA":"CR","RBU":10714,"HR":10,"RB":7,"HU":14,"HRNAME":"Colorado River","RBNAME":"Colorado River","HBPANAME":"Colorado River","HUNAME":"CHEMEHUEVIS","IDNUM":"10714"}},{"type":"Feature","id":189,"geometry":{"type":"Polygon","coordinates":[[[-116.041,33.426],[-116.058,33.423],[-116.076,33.395],[-116.072,33.387],[-116.087,33.377],[-116.113,33.376],[-116.134,33.358],[-116.17,33.361],[-116.168,33.347],[-116.153,33.335],[-116.141,33.302],[-116.152,33.28],[-116.142,33.242],[-116.106,33.234],[-116.098,33.217],[-116.08,33.214],[-116.076,33.205],[-116.051,33.203],[-116.036,33.188],[-116.016,33.189],[-115.993,33.17],[-115.86,33.179],[-115.832,33.189],[-115.851,33.237],[-115.882,33.262],[-115.877,33.26],[-115.874,33.272],[-115.883,33.285],[-115.903,33.301],[-115.917,33.3],[-115.965,33.354],[-116.003,33.37],[-116.031,33.393],[-116.041,33.426]]]},"properties":{"SHAPE.AREA":488113734.91022599,"SHAPE.LEN":115851.94719261301,"OBJECTID":189,"HRC":"CR","HBPA":"CR","RBU":10721,"HR":10,"RB":7,"HU":21,"HRNAME":"Colorado River","RBNAME":"Colorado River","HBPANAME":"Colorado River","HUNAME":"WEST SALTON","IDNUM":"10721"}},{"type":"Feature","id":193,"geometry":{"type":"Polygon","coordinates":[[[-115.173,33.194],[-115.228,33.196],[-115.245,33.204],[-115.264,33.182],[-115.318,33.146],[-115.315,33.134],[-115.304,33.116],[-115.241,33.058],[-115.11,32.966],[-114.994,32.867],[-114.931,32.795],[-114.921,32.772],[-114.94,32.763],[-114.936,32.754],[-114.915,32.764],[-114.896,32.75],[-114.908,32.734],[-114.902,32.723],[-114.887,32.72],[-114.89,32.707],[-114.748,32.717],[-114.756,32.777],[-114.732,32.813],[-114.76,32.818],[-114.753,32.831],[-114.761,32.851],[-114.753,32.859],[-114.768,32.874],[-114.797,32.878],[-114.804,32.891],[-114.761,32.908],[-114.739,32.958],[-114.713,32.971],[-114.742,32.969],[-114.752,33.017],[-114.775,33.021],[-114.805,33.044],[-114.815,33.042],[-114.814,33.05],[-114.837,33.066],[-114.832,33.073],[-114.822,33.07],[-114.823,33.089],[-114.876,33.099],[-114.88,33.106],[-114.874,33.112],[-114.887,33.122],[-114.946,33.127],[-114.957,33.135],[-114.95,33.144],[-114.959,33.148],[-114.987,33.133],[-115.016,33.134],[-115.02,33.143],[-115.054,33.15],[-115.059,33.16],[-115.079,33.16],[-115.085,33.179],[-115.107,33.177],[-115.108,33.184],[-115.129,33.185],[-115.139,33.193],[-115.173,33.194]]]},"properties":{"SHAPE.AREA":1448446161.73176,"SHAPE.LEN":225207.05789898202,"OBJECTID":193,"HRC":"CR","HBPA":"CR","RBU":10726,"HR":10,"RB":7,"HU":26,"HRNAME":"Colorado River","RBNAME":"Colorado River","HBPANAME":"Colorado River","HUNAME":"AMOS-OGILBY","IDNUM":"10726"}},{"type":"Feature","id":142,"geometry":{"type":"Polygon","coordinates":[[[-116.64,34.654],[-116.67,34.661],[-116.693,34.656],[-116.689,34.632],[-116.676,34.628],[-116.678,34.607],[-116.642,34.587],[-116.609,34.547],[-116.557,34.528],[-116.564,34.512],[-116.545,34.512],[-116.538,34.502],[-116.507,34.502],[-116.489,34.512],[-116.441,34.504],[-116.434,34.523],[-116.377,34.549],[-116.446,34.609],[-116.485,34.661],[-116.6,34.678],[-116.628,34.66],[-116.63,34.642],[-116.64,34.654]]]},"properties":{"SHAPE.AREA":333043080.44894201,"SHAPE.LEN":90367.168554052798,"OBJECTID":142,"HRC":"CR","HBPA":"CR","RBU":10703,"HR":10,"RB":7,"HU":3,"HRNAME":"Colorado River","RBNAME":"Colorado River","HBPANAME":"Colorado River","HUNAME":"BESSEMER","IDNUM":"10703"}},{"type":"Feature","id":160,"geometry":{"type":"Polygon","coordinates":[[[-114.813,34.234],[-114.834,34.222],[-114.839,34.204],[-114.82,34.186],[-114.821,34.171],[-114.808,34.156],[-114.833,34.146],[-114.855,34.151],[-114.906,34.106],[-114.932,34.058],[-114.937,34.031],[-114.96,34.027],[-114.975,34.013],[-114.979,33.996],[-114.969,33.969],[-114.991,33.923],[-114.942,33.911],[-114.938,33.9],[-114.913,33.891],[-114.9,33.897],[-114.873,33.875],[-114.874,33.869],[-114.85,33.859],[-114.83,33.875],[-114.778,33.879],[-114.763,33.887],[-114.711,33.867],[-114.692,33.873],[-114.673,33.865],[-114.667,33.879],[-114.641,33.886],[-114.63,33.918],[-114.62,33.922],[-114.639,33.933],[-114.653,33.966],[-114.65,34.005],[-114.638,34.024],[-114.645,34.05],[-114.656,34.078],[-114.675,34.081],[-114.727,34.142],[-114.76,34.159],[-114.762,34.179],[-114.811,34.206],[-114.804,34.224],[-114.813,34.234]]]},"properties":{"SHAPE.AREA":817268530.30208898,"SHAPE.LEN":145683.711047994,"OBJECTID":160,"HRC":"CR","HBPA":"CR","RBU":10716,"HR":10,"RB":7,"HU":16,"HRNAME":"Colorado River","RBNAME":"Colorado River","HBPANAME":"Colorado River","HUNAME":"RICE","IDNUM":"10716"}},{"type":"Feature","id":151,"geometry":{"type":"Polygon","coordinates":[[[-116.065,34.334],[-116.057,34.282],[-116.07,34.279],[-116.077,34.264],[-116.099,34.257],[-116.124,34.268],[-116.163,34.253],[-116.162,34.238],[-116.178,34.23],[-116.195,34.237],[-116.246,34.226],[-116.217,34.187],[-116.205,34.191],[-116.196,34.183],[-116.193,34.159],[-116.212,34.145],[-116.201,34.12],[-116.211,34.088],[-116.199,34.085],[-116.193,34.074],[-116.173,34.073],[-116.171,34.061],[-116.148,34.043],[-116.111,34.054],[-116.089,34.05],[-116.075,34.006],[-116.075,33.994],[-116.086,33.99],[-116.061,33.982],[-116.007,33.988],[-115.999,33.998],[-116.002,34.007],[-115.981,34.029],[-115.957,34.024],[-115.938,34.043],[-115.917,34.02],[-115.928,33.993],[-115.904,33.995],[-115.888,34.01],[-115.883,33.994],[-115.866,33.987],[-115.87,33.976],[-115.861,33.967],[-115.8,33.954],[-115.802,33.977],[-115.789,33.978],[-115.781,33.996],[-115.762,34.007],[-115.738,34.006],[-115.721,34.019],[-115.721,34.03],[-115.706,34.026],[-115.698,34.034],[-115.699,34.05],[-115.651,34.042],[-115.615,34.047],[-115.594,34.029],[-115.554,34.039],[-115.56,34.046],[-115.553,34.094],[-115.565,34.113],[-115.583,34.125],[-115.582,34.137],[-115.6,34.143],[-115.593,34.151],[-115.609,34.172],[-115.655,34.187],[-115.7,34.239],[-115.737,34.238],[-115.795,34.254],[-115.815,34.271],[-115.832,34.304],[-115.863,34.321],[-115.878,34.356],[-115.89,34.355],[-115.912,34.368],[-115.935,34.35],[-115.97,34.361],[-115.992,34.355],[-115.997,34.347],[-116.018,34.359],[-116.027,34.357],[-116.024,34.343],[-116.065,34.334]]]},"properties":{"SHAPE.AREA":1668770631.3153701,"SHAPE.LEN":245980.94657615799,"OBJECTID":151,"HRC":"CR","HBPA":"CR","RBU":10709,"HR":10,"RB":7,"HU":9,"HRNAME":"Colorado River","RBNAME":"Colorado River","HBPANAME":"Colorado River","HUNAME":"DALE","IDNUM":"10709"}},{"type":"Feature","id":181,"geometry":{"type":"Polygon","coordinates":[[[-116.569,33.552],[-116.584,33.537],[-116.617,33.542],[-116.676,33.497],[-116.67,33.467],[-116.629,33.43],[-116.633,33.416],[-116.608,33.4],[-116.588,33.374],[-116.566,33.379],[-116.547,33.357],[-116.546,33.343],[-116.562,33.335],[-116.554,33.321],[-116.56,33.314],[-116.546,33.298],[-116.531,33.294],[-116.525,33.28],[-116.543,33.253],[-116.533,33.247],[-116.499,33.254],[-116.489,33.235],[-116.502,33.2],[-116.541,33.197],[-116.555,33.185],[-116.586,33.203],[-116.626,33.206],[-116.629,33.187],[-116.614,33.148],[-116.593,33.146],[-116.581,33.124],[-116.582,33.104],[-116.604,33.107],[-116.601,33.076],[-116.579,33.063],[-116.58,33.052],[-116.554,33.04],[-116.558,33.03],[-116.548,33.026],[-116.542,33.001],[-116.531,32.998],[-116.531,32.98],[-116.513,32.97],[-116.505,32.947],[-116.486,32.94],[-116.485,32.925],[-116.46,32.925],[-116.453,32.913],[-116.466,32.901],[-116.445,32.889],[-116.43,32.897],[-116.42,32.892],[-116.411,32.862],[-116.387,32.863],[-116.369,32.831],[-116.358,32.832],[-116.368,32.814],[-116.361,32.803],[-116.368,32.792],[-116.36,32.765],[-116.346,32.748],[-116.348,32.725],[-116.322,32.697],[-116.324,32.684],[-116.314,32.673],[-116.317,32.646],[-116.296,32.625],[-116.289,32.604],[-116.09,32.62],[-116.117,32.632],[-116.12,32.654],[-116.135,32.658],[-116.133,32.665],[-116.175,32.712],[-116.17,32.722],[-116.183,32.763],[-116.172,32.771],[-116.174,32.782],[-116.164,32.789],[-116.158,32.811],[-116.134,32.832],[-116.058,32.804],[-116.051,32.809],[-116.014,32.802],[-116.007,32.815],[-116.022,32.847],[-116.0,32.875],[-115.911,32.896],[-115.862,32.935],[-115.848,32.96],[-115.82,32.956],[-115.797,32.981],[-115.819,33.019],[-115.843,33.03],[-115.799,33.071],[-115.799,33.096],[-115.774,33.141],[-115.798,33.153],[-115.8,33.163],[-115.806,33.16],[-115.803,33.165],[-115.83,33.171],[-115.832,33.189],[-115.86,33.179],[-115.993,33.17],[-116.016,33.189],[-116.036,33.188],[-116.051,33.203],[-116.076,33.205],[-116.08,33.214],[-116.098,33.217],[-116.106,33.234],[-116.137,33.238],[-116.151,33.263],[-116.151,33.286],[-116.141,33.302],[-116.145,33.316],[-116.18,33.368],[-116.186,33.365],[-116.179,33.341],[-116.208,33.297],[-116.202,33.278],[-116.213,33.261],[-116.233,33.258],[-116.237,33.27],[-116.289,33.301],[-116.312,33.306],[-116.329,33.336],[-116.371,33.356],[-116.38,33.373],[-116.421,33.404],[-116.414,33.412],[-116.429,33.428],[-116.451,33.439],[-116.456,33.449],[-116.493,33.464],[-116.496,33.476],[-116.477,33.491],[-116.481,33.501],[-116.455,33.519],[-116.437,33.517],[-116.429,33.524],[-116.481,33.55],[-116.52,33.535],[-116.547,33.55],[-116.569,33.552]]]},"properties":{"SHAPE.AREA":3888847169.6936002,"SHAPE.LEN":464425.073816919,"OBJECTID":181,"HRC":"CR","HBPA":"CR","RBU":10722,"HR":10,"RB":7,"HU":22,"HRNAME":"Colorado River","RBNAME":"Colorado River","HBPANAME":"Colorado River","HUNAME":"ANZA BORREGO","IDNUM":"10722"}},{"type":"Feature","id":129,"geometry":{"type":"Polygon","coordinates":[[[-115.401,35.21],[-115.383,35.198],[-115.384,35.171],[-115.419,35.16],[-115.429,35.15],[-115.431,35.133],[-115.45,35.117],[-115.438,35.091],[-115.469,35.071],[-115.471,35.051],[-115.491,35.041],[-115.514,34.993],[-115.537,34.979],[-115.538,34.938],[-115.547,34.918],[-115.542,34.892],[-115.588,34.846],[-115.588,34.826],[-115.601,34.813],[-115.675,34.791],[-115.719,34.794],[-115.726,34.773],[-115.752,34.753],[-115.795,34.759],[-115.788,34.75],[-115.798,34.739],[-115.792,34.732],[-115.807,34.707],[-115.822,34.722],[-115.832,34.715],[-115.85,34.72],[-115.871,34.742],[-115.944,34.758],[-115.951,34.774],[-115.97,34.778],[-115.99,34.796],[-116.014,34.794],[-116.022,34.783],[-116.043,34.777],[-116.046,34.755],[-116.066,34.742],[-116.061,34.704],[-116.087,34.678],[-116.148,34.688],[-116.2,34.653],[-116.204,34.646],[-116.196,34.623],[-116.217,34.597],[-116.253,34.58],[-116.258,34.569],[-116.252,34.556],[-116.262,34.541],[-116.229,34.503],[-116.171,34.488],[-116.167,34.473],[-116.119,34.428],[-116.105,34.382],[-116.093,34.379],[-116.083,34.366],[-116.089,34.359],[-116.084,34.338],[-116.034,34.338],[-116.023,34.344],[-116.027,34.357],[-116.018,34.359],[-115.997,34.347],[-115.992,34.355],[-115.97,34.361],[-115.935,34.35],[-115.912,34.368],[-115.89,34.355],[-115.878,34.356],[-115.863,34.321],[-115.832,34.304],[-115.815,34.271],[-115.795,34.254],[-115.737,34.238],[-115.7,34.239],[-115.655,34.187],[-115.609,34.172],[-115.593,34.151],[-115.6,34.143],[-115.582,34.137],[-115.583,34.125],[-115.565,34.113],[-115.553,34.093],[-115.52,34.104],[-115.504,34.089],[-115.482,34.104],[-115.491,34.186],[-115.534,34.224],[-115.552,34.263],[-115.542,34.293],[-115.563,34.331],[-115.583,34.341],[-115.577,34.368],[-115.597,34.383],[-115.577,34.395],[-115.568,34.418],[-115.489,34.474],[-115.466,34.48],[-115.451,34.474],[-115.421,34.488],[-115.404,34.48],[-115.387,34.513],[-115.392,34.524],[-115.379,34.534],[-115.345,34.536],[-115.335,34.545],[-115.291,34.542],[-115.254,34.554],[-115.236,34.573],[-115.222,34.575],[-115.205,34.574],[-115.19,34.558],[-115.177,34.556],[-115.169,34.581],[-115.159,34.587],[-115.17,34.596],[-115.168,34.604],[-115.15,34.604],[-115.147,34.614],[-115.137,34.618],[-115.128,34.637],[-115.136,34.656],[-115.115,34.682],[-115.111,34.704],[-115.07,34.757],[-115.067,34.775],[-115.051,34.792],[-115.051,34.827],[-115.027,34.866],[-115.036,34.879],[-115.028,34.9],[-115.055,34.911],[-115.071,34.952],[-115.069,34.967],[-115.081,34.984],[-115.148,35.048],[-115.162,35.052],[-115.126,35.061],[-115.101,35.079],[-115.139,35.096],[-115.161,35.093],[-115.183,35.121],[-115.242,35.145],[-115.281,35.174],[-115.298,35.206],[-115.311,35.207],[-115.315,35.216],[-115.32,35.231],[-115.313,35.26],[-115.366,35.258],[-115.373,35.246],[-115.372,35.225],[-115.401,35.21]]]},"properties":{"SHAPE.AREA":5885652363.6172304,"SHAPE.LEN":511044.81998269202,"OBJECTID":129,"HRC":"CR","HBPA":"CR","RBU":10710,"HR":10,"RB":7,"HU":10,"HRNAME":"Colorado River","RBNAME":"Colorado River","HBPANAME":"Colorado River","HUNAME":"ROUTE SIXTY SIX","IDNUM":"10710"}},{"type":"Feature","id":149,"geometry":{"type":"Polygon","coordinates":[[[-114.501,34.299],[-114.539,34.29],[-114.562,34.311],[-114.612,34.327],[-114.644,34.323],[-114.716,34.33],[-114.722,34.325],[-114.712,34.313],[-114.759,34.285],[-114.767,34.303],[-114.781,34.312],[-114.778,34.326],[-114.799,34.346],[-114.813,34.346],[-114.872,34.311],[-114.81,34.249],[-114.814,34.236],[-114.804,34.223],[-114.811,34.206],[-114.763,34.179],[-114.76,34.159],[-114.727,34.142],[-114.675,34.081],[-114.655,34.076],[-114.638,34.024],[-114.65,34.005],[-114.65,33.951],[-114.639,33.933],[-114.62,33.922],[-114.63,33.918],[-114.641,33.886],[-114.667,33.879],[-114.673,33.865],[-114.692,33.873],[-114.711,33.867],[-114.763,33.887],[-114.778,33.879],[-114.83,33.875],[-114.848,33.859],[-114.86,33.863],[-114.86,33.839],[-114.881,33.821],[-114.89,33.795],[-114.919,33.799],[-114.911,33.75],[-114.899,33.736],[-114.866,33.728],[-114.847,33.683],[-114.824,33.658],[-114.812,33.597],[-114.821,33.544],[-114.811,33.535],[-114.836,33.519],[-114.832,33.509],[-114.847,33.5],[-114.84,33.493],[-114.844,33.479],[-114.868,33.482],[-114.874,33.455],[-114.899,33.438],[-114.906,33.419],[-114.919,33.414],[-114.929,33.389],[-114.95,33.385],[-114.972,33.397],[-114.974,33.39],[-114.997,33.394],[-115.002,33.384],[-115.022,33.393],[-115.045,33.382],[-115.129,33.405],[-115.149,33.399],[-115.166,33.41],[-115.187,33.4],[-115.228,33.416],[-115.253,33.437],[-115.262,33.451],[-115.251,33.47],[-115.262,33.477],[-115.259,33.489],[-115.283,33.5],[-115.287,33.511],[-115.331,33.522],[-115.327,33.506],[-115.336,33.482],[-115.322,33.441],[-115.294,33.41],[-115.279,33.38],[-115.264,33.374],[-115.217,33.31],[-115.209,33.246],[-115.216,33.227],[-115.229,33.222],[-115.182,33.218],[-115.168,33.192],[-115.142,33.194],[-115.129,33.185],[-115.108,33.184],[-115.107,33.177],[-115.085,33.179],[-115.079,33.16],[-115.059,33.16],[-115.054,33.15],[-115.02,33.143],[-115.016,33.134],[-114.987,33.133],[-114.959,33.148],[-114.95,33.144],[-114.957,33.135],[-114.946,33.127],[-114.887,33.122],[-114.874,33.112],[-114.88,33.106],[-114.876,33.099],[-114.823,33.089],[-114.822,33.07],[-114.832,33.073],[-114.837,33.066],[-114.814,33.05],[-114.815,33.042],[-114.805,33.044],[-114.775,33.021],[-114.752,33.017],[-114.741,32.968],[-114.714,32.972],[-114.706,32.961],[-114.652,32.959],[-114.642,32.944],[-114.625,32.943],[-114.626,32.93],[-114.608,32.92],[-114.59,32.893],[-114.57,32.9],[-114.556,32.89],[-114.524,32.905],[-114.481,32.897],[-114.475,32.884],[-114.465,32.883],[-114.463,32.91],[-114.481,32.935],[-114.468,32.97],[-114.493,32.972],[-114.512,33.024],[-114.573,33.037],[-114.589,33.026],[-114.615,33.027],[-114.645,33.049],[-114.662,33.033],[-114.674,33.042],[-114.689,33.084],[-114.707,33.089],[-114.676,33.183],[-114.673,33.224],[-114.689,33.246],[-114.672,33.26],[-114.683,33.275],[-114.722,33.287],[-114.731,33.302],[-114.708,33.324],[-114.698,33.353],[-114.707,33.383],[-114.726,33.405],[-114.688,33.418],[-114.654,33.413],[-114.64,33.419],[-114.623,33.436],[-114.619,33.458],[-114.587,33.503],[-114.568,33.511],[-114.558,33.532],[-114.524,33.553],[-114.54,33.591],[-114.522,33.612],[-114.531,33.625],[-114.524,33.637],[-114.533,33.651],[-114.514,33.66],[-114.532,33.674],[-114.524,33.686],[-114.497,33.697],[-114.494,33.709],[-114.512,33.734],[-114.505,33.762],[-114.528,33.814],[-114.52,33.825],[-114.53,33.857],[-114.503,33.868],[-114.526,33.901],[-114.515,33.898],[-114.508,33.905],[-114.536,33.933],[-114.523,33.954],[-114.5,33.962],[-114.459,33.995],[-114.465,34.011],[-114.438,34.023],[-114.434,34.088],[-114.411,34.11],[-114.39,34.11],[-114.366,34.119],[-114.353,34.133],[-114.324,34.137],[-114.287,34.171],[-114.257,34.173],[-114.23,34.187],[-114.225,34.204],[-114.165,34.251],[-114.165,34.259],[-114.131,34.262],[-114.139,34.296],[-114.166,34.297],[-114.204,34.283],[-114.207,34.298],[-114.217,34.293],[-114.266,34.326],[-114.276,34.309],[-114.295,34.306],[-114.295,34.294],[-114.303,34.291],[-114.297,34.285],[-114.335,34.275],[-114.391,34.299],[-114.406,34.317],[-114.438,34.299],[-114.474,34.3],[-114.482,34.308],[-114.501,34.299]]]},"properties":{"SHAPE.AREA":4966967768.9576397,"SHAPE.LEN":718059.92944585904,"OBJECTID":149,"HRC":"CR","HBPA":"CR","RBU":10715,"HR":10,"RB":7,"HU":15,"HRNAME":"Colorado River","RBNAME":"Colorado River","HBPANAME":"Colorado River","HUNAME":"COLORADO","IDNUM":"10715"}},{"type":"Feature","id":203,"geometry":{"type":"Polygon","coordinates":[[[-116.083,32.62],[-115.958,32.631],[-115.963,32.644],[-115.979,32.637],[-115.986,32.65],[-116.016,32.646],[-116.026,32.66],[-116.041,32.661],[-116.062,32.653],[-116.073,32.627],[-116.083,32.62]]]},"properties":{"SHAPE.AREA":28720311.3388112,"SHAPE.LEN":31579.937381956301,"OBJECTID":203,"HRC":"CR","HBPA":"CR","RBU":10724,"HR":10,"RB":7,"HU":24,"HRNAME":"Colorado River","RBNAME":"Colorado River","HBPANAME":"Colorado River","HUNAME":"DAVIES","IDNUM":"10724"}},{"type":"Feature","id":145,"geometry":{"type":"Polygon","coordinates":[[[-116.262,34.542],[-116.318,34.546],[-116.341,34.561],[-116.363,34.545],[-116.365,34.52],[-116.357,34.513],[-116.362,34.504],[-116.301,34.42],[-116.282,34.408],[-116.286,34.333],[-116.298,34.323],[-116.277,34.297],[-116.348,34.243],[-116.374,34.237],[-116.377,34.229],[-116.422,34.202],[-116.355,34.213],[-116.354,34.221],[-116.294,34.239],[-116.279,34.253],[-116.262,34.249],[-116.245,34.226],[-116.195,34.237],[-116.178,34.23],[-116.162,34.238],[-116.163,34.253],[-116.121,34.268],[-116.099,34.257],[-116.057,34.282],[-116.058,34.311],[-116.066,34.314],[-116.063,34.33],[-116.088,34.344],[-116.083,34.366],[-116.093,34.379],[-116.105,34.382],[-116.119,34.428],[-116.136,34.438],[-116.175,34.492],[-116.229,34.503],[-116.262,34.542]]]},"properties":{"SHAPE.AREA":599312175.88276994,"SHAPE.LEN":152743.15534824401,"OBJECTID":145,"HRC":"CR","HBPA":"CR","RBU":10707,"HR":10,"RB":7,"HU":7,"HRNAME":"Colorado River","RBNAME":"Colorado River","HBPANAME":"Colorado River","HUNAME":"DEADMAN","IDNUM":"10707"}},{"type":"Feature","id":141,"geometry":{"type":"Polygon","coordinates":[[[-116.301,34.791],[-116.371,34.75],[-116.397,34.702],[-116.393,34.687],[-116.422,34.655],[-116.442,34.667],[-116.473,34.652],[-116.479,34.655],[-116.446,34.609],[-116.364,34.545],[-116.341,34.561],[-116.318,34.546],[-116.262,34.542],[-116.252,34.556],[-116.258,34.569],[-116.253,34.58],[-116.217,34.597],[-116.196,34.623],[-116.199,34.64],[-116.222,34.673],[-116.26,34.698],[-116.302,34.703],[-116.308,34.712],[-116.3,34.72],[-116.303,34.744],[-116.313,34.766],[-116.289,34.776],[-116.287,34.786],[-116.301,34.791]]]},"properties":{"SHAPE.AREA":358380797.535128,"SHAPE.LEN":102388.55702608901,"OBJECTID":141,"HRC":"CR","HBPA":"CR","RBU":10706,"HR":10,"RB":7,"HU":6,"HRNAME":"Colorado River","RBNAME":"Colorado River","HBPANAME":"Colorado River","HUNAME":"LAVIC","IDNUM":"10706"}},{"type":"Feature","id":177,"geometry":{"type":"Polygon","coordinates":[[[-115.64,33.74],[-115.666,33.738],[-115.67,33.725],[-115.681,33.741],[-115.709,33.743],[-115.722,33.741],[-115.738,33.724],[-115.734,33.702],[-115.721,33.687],[-115.721,33.653],[-115.695,33.636],[-115.676,33.639],[-115.65,33.62],[-115.626,33.624],[-115.611,33.636],[-115.59,33.633],[-115.584,33.641],[-115.557,33.616],[-115.55,33.626],[-115.515,33.588],[-115.488,33.587],[-115.496,33.62],[-115.543,33.647],[-115.576,33.705],[-115.577,33.723],[-115.554,33.749],[-115.598,33.758],[-115.622,33.75],[-115.633,33.738],[-115.64,33.74]]]},"properties":{"SHAPE.AREA":212897430.59988001,"SHAPE.LEN":88849.406715500707,"OBJECTID":177,"HRC":"CR","HBPA":"CR","RBU":10718,"HR":10,"RB":7,"HU":18,"HRNAME":"Colorado River","RBNAME":"Colorado River","HBPANAME":"Colorado River","HUNAME":"HAYFIELD","IDNUM":"10718"}},{"type":"Feature","id":163,"geometry":{"type":"Polygon","coordinates":[[[-116.694,34.161],[-116.711,34.157],[-116.714,34.145],[-116.739,34.144],[-116.741,34.134],[-116.768,34.13],[-116.769,34.102],[-116.801,34.116],[-116.822,34.112],[-116.839,34.099],[-116.846,34.071],[-116.885,34.06],[-116.906,34.063],[-116.904,34.041],[-116.919,34.008],[-116.933,34.003],[-116.931,33.975],[-116.948,33.958],[-116.942,33.905],[-116.914,33.888],[-116.865,33.891],[-116.858,33.872],[-116.829,33.853],[-116.822,33.84],[-116.774,33.823],[-116.764,33.829],[-116.746,33.826],[-116.739,33.839],[-116.679,33.815],[-116.687,33.795],[-116.674,33.782],[-116.672,33.756],[-116.65,33.757],[-116.647,33.739],[-116.63,33.726],[-116.621,33.7],[-116.573,33.666],[-116.566,33.651],[-116.572,33.641],[-116.559,33.613],[-116.559,33.593],[-116.57,33.583],[-116.574,33.553],[-116.547,33.55],[-116.52,33.535],[-116.481,33.55],[-116.446,33.536],[-116.353,33.48],[-116.337,33.479],[-116.307,33.456],[-116.291,33.458],[-116.274,33.442],[-116.24,33.434],[-116.209,33.374],[-116.191,33.375],[-116.173,33.361],[-116.134,33.358],[-116.113,33.376],[-116.088,33.377],[-116.073,33.385],[-116.076,33.395],[-116.059,33.422],[-116.041,33.426],[-116.048,33.455],[-116.08,33.481],[-116.074,33.505],[-116.056,33.508],[-116.054,33.52],[-115.942,33.521],[-115.919,33.539],[-115.914,33.556],[-115.902,33.558],[-115.894,33.577],[-115.863,33.588],[-115.848,33.605],[-115.811,33.594],[-115.779,33.573],[-115.751,33.589],[-115.734,33.577],[-115.723,33.586],[-115.726,33.593],[-115.693,33.598],[-115.694,33.61],[-115.676,33.627],[-115.683,33.639],[-115.707,33.641],[-115.724,33.659],[-115.722,33.691],[-115.739,33.717],[-115.721,33.74],[-115.75,33.75],[-115.761,33.743],[-115.796,33.755],[-115.842,33.754],[-115.86,33.747],[-115.879,33.761],[-115.904,33.762],[-115.912,33.787],[-115.931,33.789],[-115.931,33.798],[-115.915,33.81],[-115.926,33.817],[-115.956,33.813],[-115.976,33.792],[-115.991,33.791],[-116.009,33.802],[-116.021,33.795],[-116.038,33.835],[-116.076,33.867],[-116.094,33.861],[-116.111,33.875],[-116.114,33.901],[-116.135,33.902],[-116.139,33.913],[-116.187,33.927],[-116.203,33.952],[-116.265,34.008],[-116.277,33.993],[-116.29,33.997],[-116.306,33.99],[-116.33,34.02],[-116.35,34.032],[-116.405,34.047],[-116.425,34.069],[-116.459,34.081],[-116.47,34.11],[-116.54,34.127],[-116.575,34.157],[-116.621,34.167],[-116.694,34.161]]]},"properties":{"SHAPE.AREA":4802212829.9719,"SHAPE.LEN":416230.99469784199,"OBJECTID":163,"HRC":"CR","HBPA":"CR","RBU":10719,"HR":10,"RB":7,"HU":19,"HRNAME":"Colorado River","RBNAME":"Colorado River","HBPANAME":"Colorado River","HUNAME":"WHITEWATER","IDNUM":"10719"}},{"type":"Feature","id":136,"geometry":{"type":"Polygon","coordinates":[[[-114.802,34.724],[-114.804,34.765],[-114.814,34.771],[-114.811,34.783],[-114.822,34.803],[-114.856,34.819],[-114.859,34.837],[-114.88,34.842],[-114.883,34.864],[-114.914,34.864],[-114.986,34.907],[-115.021,34.914],[-115.036,34.879],[-115.027,34.866],[-115.051,34.827],[-115.051,34.792],[-115.067,34.775],[-115.07,34.757],[-115.111,34.704],[-115.115,34.682],[-115.136,34.656],[-115.128,34.637],[-115.137,34.618],[-115.147,34.614],[-115.15,34.604],[-115.17,34.599],[-115.159,34.588],[-115.178,34.564],[-115.164,34.52],[-115.172,34.495],[-115.191,34.48],[-115.166,34.448],[-115.185,34.43],[-115.187,34.41],[-115.2,34.403],[-115.2,34.395],[-115.248,34.392],[-115.272,34.375],[-115.28,34.356],[-115.294,34.357],[-115.306,34.342],[-115.301,34.336],[-115.311,34.32],[-115.308,34.298],[-115.297,34.285],[-115.301,34.278],[-115.294,34.259],[-115.278,34.246],[-115.271,34.248],[-115.265,34.229],[-115.227,34.211],[-115.221,34.188],[-115.184,34.158],[-115.187,34.138],[-115.212,34.112],[-115.199,34.088],[-115.203,34.075],[-115.192,34.043],[-115.14,33.998],[-115.086,33.98],[-115.056,33.951],[-114.985,33.931],[-114.969,33.969],[-114.979,33.996],[-114.975,34.013],[-114.96,34.027],[-114.937,34.031],[-114.932,34.058],[-114.906,34.106],[-114.855,34.151],[-114.833,34.146],[-114.808,34.156],[-114.821,34.171],[-114.82,34.186],[-114.839,34.204],[-114.834,34.222],[-114.813,34.234],[-114.81,34.248],[-114.872,34.311],[-114.854,34.32],[-114.868,34.339],[-114.85,34.352],[-114.845,34.374],[-114.827,34.385],[-114.824,34.401],[-114.837,34.427],[-114.868,34.44],[-114.868,34.477],[-114.883,34.529],[-114.881,34.553],[-114.862,34.559],[-114.873,34.588],[-114.865,34.605],[-114.875,34.623],[-114.834,34.695],[-114.802,34.724]]]},"properties":{"SHAPE.AREA":2908227354.5071702,"SHAPE.LEN":320067.27975143504,"OBJECTID":136,"HRC":"CR","HBPA":"CR","RBU":10712,"HR":10,"RB":7,"HU":12,"HRNAME":"Colorado River","RBNAME":"Colorado River","HBPANAME":"Colorado River","HUNAME":"WARD","IDNUM":"10712"}},{"type":"Feature","id":180,"geometry":{"type":"Polygon","coordinates":[[[-115.487,33.595],[-115.495,33.584],[-115.513,33.587],[-115.537,33.605],[-115.55,33.626],[-115.557,33.616],[-115.584,33.641],[-115.59,33.633],[-115.611,33.636],[-115.648,33.619],[-115.68,33.639],[-115.676,33.627],[-115.694,33.61],[-115.693,33.598],[-115.726,33.593],[-115.723,33.586],[-115.735,33.577],[-115.751,33.589],[-115.779,33.573],[-115.811,33.594],[-115.848,33.605],[-115.863,33.588],[-115.894,33.577],[-115.902,33.558],[-115.914,33.556],[-115.919,33.539],[-115.942,33.521],[-115.914,33.504],[-115.885,33.47],[-115.848,33.447],[-115.843,33.434],[-115.825,33.438],[-115.784,33.416],[-115.765,33.425],[-115.724,33.471],[-115.71,33.5],[-115.685,33.513],[-115.641,33.487],[-115.64,33.471],[-115.634,33.468],[-115.62,33.478],[-115.592,33.466],[-115.568,33.466],[-115.548,33.477],[-115.534,33.47],[-115.503,33.483],[-115.444,33.473],[-115.436,33.484],[-115.396,33.49],[-115.362,33.463],[-115.346,33.469],[-115.333,33.463],[-115.327,33.507],[-115.345,33.562],[-115.382,33.556],[-115.441,33.571],[-115.45,33.594],[-115.487,33.595]]]},"properties":{"SHAPE.AREA":752151968.24384105,"SHAPE.LEN":178343.536246011,"OBJECTID":180,"HRC":"CR","HBPA":"CR","RBU":10725,"HR":10,"RB":7,"HU":25,"HRNAME":"Colorado River","RBNAME":"Colorado River","HBPANAME":"Colorado River","HUNAME":"EAST SALTON","IDNUM":"10725"}},{"type":"Feature","id":183,"geometry":{"type":"Polygon","coordinates":[[[-115.626,33.469],[-115.64,33.471],[-115.641,33.487],[-115.687,33.513],[-115.71,33.5],[-115.718,33.478],[-115.766,33.424],[-115.786,33.416],[-115.825,33.438],[-115.843,33.434],[-115.807,33.39],[-115.762,33.357],[-115.732,33.347],[-115.715,33.355],[-115.687,33.353],[-115.631,33.322],[-115.598,33.253],[-115.592,33.216],[-115.61,33.204],[-115.622,33.212],[-115.612,33.205],[-115.622,33.212],[-115.622,33.204],[-115.61,33.203],[-115.616,33.203],[-115.61,33.191],[-115.651,33.172],[-115.689,33.104],[-115.71,33.097],[-115.727,33.109],[-115.736,33.104],[-115.759,33.112],[-115.774,33.134],[-115.799,33.096],[-115.799,33.071],[-115.843,33.03],[-115.805,33.003],[-115.798,32.978],[-115.822,32.954],[-115.848,32.96],[-115.862,32.935],[-115.911,32.896],[-116.0,32.875],[-116.022,32.847],[-116.007,32.815],[-116.014,32.802],[-116.051,32.809],[-116.058,32.804],[-116.134,32.832],[-116.153,32.82],[-116.183,32.75],[-116.17,32.722],[-116.173,32.709],[-116.133,32.665],[-116.135,32.658],[-116.12,32.654],[-116.117,32.632],[-116.083,32.62],[-116.073,32.627],[-116.062,32.653],[-116.041,32.661],[-116.026,32.66],[-116.016,32.646],[-115.986,32.65],[-115.979,32.637],[-115.963,32.644],[-115.958,32.63],[-114.89,32.707],[-114.887,32.72],[-114.902,32.723],[-114.908,32.734],[-114.896,32.75],[-114.915,32.764],[-114.936,32.754],[-114.94,32.763],[-114.921,32.772],[-114.931,32.795],[-115.001,32.875],[-115.11,32.966],[-115.241,33.058],[-115.306,33.12],[-115.318,33.146],[-115.264,33.182],[-115.246,33.204],[-115.228,33.196],[-115.173,33.196],[-115.182,33.218],[-115.229,33.222],[-115.216,33.227],[-115.209,33.246],[-115.217,33.31],[-115.264,33.374],[-115.28,33.381],[-115.328,33.458],[-115.345,33.469],[-115.362,33.463],[-115.396,33.49],[-115.436,33.484],[-115.444,33.473],[-115.503,33.483],[-115.534,33.47],[-115.548,33.477],[-115.57,33.465],[-115.592,33.466],[-115.62,33.478],[-115.626,33.469]]]},"properties":{"SHAPE.AREA":5881655660.5868998,"SHAPE.LEN":516072.32212406601,"OBJECTID":183,"HRC":"CR","HBPA":"CR","RBU":10723,"HR":10,"RB":7,"HU":23,"HRNAME":"Colorado River","RBNAME":"Colorado River","HBPANAME":"Colorado River","HUNAME":"IMPERIAL","IDNUM":"10723"}},{"type":"Feature","id":123,"geometry":{"type":"Polygon","coordinates":[[[-115.137,35.406],[-115.137,35.398],[-115.16,35.382],[-115.168,35.361],[-115.22,35.337],[-115.218,35.326],[-115.227,35.318],[-115.219,35.305],[-115.226,35.298],[-115.248,35.306],[-115.246,35.301],[-115.263,35.296],[-115.268,35.281],[-115.307,35.272],[-115.32,35.231],[-115.311,35.207],[-115.298,35.205],[-115.291,35.185],[-115.25,35.15],[-115.183,35.121],[-115.161,35.093],[-115.139,35.096],[-115.101,35.079],[-115.126,35.061],[-115.162,35.052],[-115.148,35.048],[-115.089,34.996],[-115.07,34.968],[-115.071,34.952],[-115.055,34.911],[-115.028,34.899],[-115.021,34.914],[-115.008,34.916],[-114.922,34.868],[-114.883,34.864],[-114.88,34.842],[-114.859,34.837],[-114.856,34.819],[-114.822,34.803],[-114.811,34.783],[-114.814,34.771],[-114.804,34.765],[-114.802,34.723],[-114.743,34.713],[-114.729,34.695],[-114.69,34.682],[-114.67,34.651],[-114.607,34.613],[-114.585,34.628],[-114.584,34.642],[-114.561,34.647],[-114.518,34.679],[-114.468,34.7],[-114.472,34.713],[-114.488,34.716],[-114.553,34.767],[-114.587,34.836],[-114.632,34.869],[-114.633,35.002],[-115.137,35.406]]]},"properties":{"SHAPE.AREA":2460681133.6264701,"SHAPE.LEN":283261.39151877904,"OBJECTID":123,"HRC":"CR","HBPA":"CR","RBU":10713,"HR":10,"RB":7,"HU":13,"HRNAME":"Colorado River","RBNAME":"Colorado River","HBPANAME":"Colorado River","HUNAME":"HOMER","IDNUM":"10713"}},{"type":"Feature","id":184,"geometry":{"type":"Polygon","coordinates":[[[-116.429,33.524],[-116.437,33.517],[-116.455,33.519],[-116.481,33.501],[-116.477,33.491],[-116.496,33.476],[-116.493,33.464],[-116.456,33.449],[-116.42,33.421],[-116.414,33.411],[-116.421,33.404],[-116.38,33.373],[-116.371,33.356],[-116.325,33.333],[-116.311,33.305],[-116.289,33.301],[-116.237,33.27],[-116.233,33.258],[-116.213,33.261],[-116.202,33.278],[-116.208,33.297],[-116.2,33.301],[-116.202,33.312],[-116.179,33.341],[-116.186,33.371],[-116.209,33.374],[-116.24,33.434],[-116.274,33.442],[-116.291,33.458],[-116.307,33.456],[-116.337,33.479],[-116.353,33.48],[-116.429,33.524]]]},"properties":{"SHAPE.AREA":374523553.54310101,"SHAPE.LEN":101445.16961753201,"OBJECTID":184,"HRC":"CR","HBPA":"CR","RBU":10720,"HR":10,"RB":7,"HU":20,"HRNAME":"Colorado River","RBNAME":"Colorado River","HBPANAME":"Colorado River","HUNAME":"CLARK","IDNUM":"10720"}},{"type":"Feature","id":196,"geometry":{"type":"Polygon","coordinates":[[[-114.761,32.909],[-114.804,32.891],[-114.797,32.878],[-114.768,32.874],[-114.753,32.859],[-114.761,32.851],[-114.753,32.831],[-114.76,32.818],[-114.732,32.813],[-114.756,32.777],[-114.748,32.717],[-114.719,32.719],[-114.701,32.746],[-114.689,32.738],[-114.618,32.728],[-114.615,32.735],[-114.582,32.735],[-114.582,32.742],[-114.564,32.742],[-114.564,32.75],[-114.539,32.75],[-114.539,32.757],[-114.527,32.757],[-114.53,32.795],[-114.469,32.845],[-114.465,32.883],[-114.475,32.884],[-114.481,32.897],[-114.524,32.905],[-114.556,32.89],[-114.57,32.9],[-114.59,32.893],[-114.608,32.92],[-114.626,32.93],[-114.625,32.943],[-114.642,32.944],[-114.652,32.959],[-114.706,32.961],[-114.715,32.969],[-114.739,32.959],[-114.761,32.909]]]},"properties":{"SHAPE.AREA":521984158.44488698,"SHAPE.LEN":121281.95096381,"OBJECTID":196,"HRC":"CR","HBPA":"CR","RBU":10727,"HR":10,"RB":7,"HU":27,"HRNAME":"Colorado River","RBNAME":"Colorado River","HBPANAME":"Colorado River","HUNAME":"YUMA","IDNUM":"10727"}},{"type":"Feature","id":158,"geometry":{"type":"Polygon","coordinates":[[[-116.246,34.226],[-116.262,34.249],[-116.279,34.253],[-116.294,34.239],[-116.354,34.221],[-116.355,34.213],[-116.423,34.202],[-116.44,34.181],[-116.451,34.183],[-116.465,34.171],[-116.457,34.146],[-116.486,34.155],[-116.498,34.145],[-116.553,34.137],[-116.519,34.12],[-116.47,34.11],[-116.459,34.081],[-116.425,34.069],[-116.405,34.047],[-116.35,34.032],[-116.33,34.02],[-116.306,33.99],[-116.29,33.997],[-116.277,33.993],[-116.265,34.008],[-116.203,33.952],[-116.187,33.927],[-116.161,33.918],[-116.142,33.921],[-116.136,33.937],[-116.151,33.955],[-116.138,33.958],[-116.134,33.989],[-116.075,33.994],[-116.088,34.048],[-116.111,34.054],[-116.148,34.043],[-116.171,34.061],[-116.173,34.073],[-116.193,34.074],[-116.199,34.085],[-116.21,34.087],[-116.201,34.12],[-116.212,34.145],[-116.193,34.159],[-116.196,34.183],[-116.205,34.191],[-116.217,34.187],[-116.246,34.226]]]},"properties":{"SHAPE.AREA":664861262.816311,"SHAPE.LEN":161866.59569317001,"OBJECTID":158,"HRC":"CR","HBPA":"CR","RBU":10708,"HR":10,"RB":7,"HU":8,"HRNAME":"Colorado River","RBNAME":"Colorado River","HBPANAME":"Colorado River","HUNAME":"JOSHUA TREE","IDNUM":"10708"}},{"type":"Feature","id":146,"geometry":{"type":"Polygon","coordinates":[[[-115.404,34.488],[-115.405,34.48],[-115.421,34.488],[-115.451,34.474],[-115.466,34.48],[-115.489,34.474],[-115.568,34.418],[-115.577,34.395],[-115.597,34.382],[-115.578,34.368],[-115.583,34.341],[-115.563,34.331],[-115.542,34.293],[-115.552,34.263],[-115.534,34.224],[-115.491,34.186],[-115.491,34.139],[-115.48,34.108],[-115.498,34.093],[-115.482,34.094],[-115.452,34.069],[-115.432,34.069],[-115.405,34.039],[-115.404,34.027],[-115.376,34.011],[-115.362,34.028],[-115.336,34.029],[-115.311,34.0],[-115.221,34.033],[-115.185,34.021],[-115.178,34.028],[-115.194,34.047],[-115.203,34.075],[-115.199,34.088],[-115.212,34.112],[-115.187,34.138],[-115.184,34.158],[-115.221,34.188],[-115.227,34.211],[-115.265,34.229],[-115.271,34.248],[-115.278,34.246],[-115.294,34.259],[-115.311,34.32],[-115.3,34.354],[-115.28,34.356],[-115.272,34.375],[-115.242,34.394],[-115.222,34.389],[-115.215,34.397],[-115.2,34.395],[-115.2,34.403],[-115.187,34.41],[-115.185,34.43],[-115.166,34.448],[-115.191,34.48],[-115.176,34.49],[-115.164,34.52],[-115.168,34.549],[-115.205,34.574],[-115.236,34.573],[-115.254,34.554],[-115.291,34.542],[-115.335,34.545],[-115.345,34.536],[-115.379,34.534],[-115.392,34.524],[-115.387,34.513],[-115.404,34.488]]]},"properties":{"SHAPE.AREA":1504801033.5652499,"SHAPE.LEN":226175.74689424399,"OBJECTID":146,"HRC":"CR","HBPA":"CR","RBU":10711,"HR":10,"RB":7,"HU":11,"HRNAME":"Colorado River","RBNAME":"Colorado River","HBPANAME":"Colorado River","HUNAME":"CADIZ","IDNUM":"10711"}},{"type":"Feature","id":148,"geometry":{"type":"Polygon","coordinates":[[[-116.678,34.607],[-116.673,34.587],[-116.709,34.57],[-116.709,34.529],[-116.754,34.531],[-116.764,34.509],[-116.796,34.5],[-116.795,34.473],[-116.744,34.446],[-116.759,34.424],[-116.753,34.391],[-116.761,34.393],[-116.795,34.34],[-116.817,34.338],[-116.83,34.317],[-116.767,34.266],[-116.772,34.26],[-116.754,34.244],[-116.762,34.213],[-116.773,34.205],[-116.769,34.201],[-116.751,34.205],[-116.714,34.191],[-116.714,34.21],[-116.666,34.213],[-116.649,34.233],[-116.634,34.234],[-116.619,34.25],[-116.553,34.267],[-116.551,34.301],[-116.538,34.304],[-116.521,34.324],[-116.534,34.344],[-116.55,34.405],[-116.528,34.42],[-116.544,34.443],[-116.537,34.448],[-116.532,34.472],[-116.54,34.484],[-116.52,34.499],[-116.538,34.502],[-116.545,34.512],[-116.564,34.512],[-116.557,34.528],[-116.607,34.545],[-116.642,34.587],[-116.678,34.607]]]},"properties":{"SHAPE.AREA":781876187.92163002,"SHAPE.LEN":156240.73252280601,"OBJECTID":148,"HRC":"CR","HBPA":"CR","RBU":10702,"HR":10,"RB":7,"HU":2,"HRNAME":"Colorado River","RBNAME":"Colorado River","HBPANAME":"Colorado River","HUNAME":"JOHNSON","IDNUM":"10702"}}]}