{"type":"FeatureCollection","features":[{"type":"Feature","id":101,"geometry":{"type":"Polygon","coordinates":[[[-121.934,36.561],[-121.926,36.528],[-121.881,36.523],[-121.872,36.503],[-121.809,36.469],[-121.812,36.462],[-121.846,36.45],[-121.856,36.436],[-121.811,36.417],[-121.81,36.398],[-121.789,36.388],[-121.775,36.368],[-121.763,36.372],[-121.753,36.363],[-121.726,36.359],[-121.707,36.341],[-121.718,36.321],[-121.715,36.297],[-121.703,36.292],[-121.645,36.277],[-121.631,36.285],[-121.619,36.282],[-121.605,36.296],[-121.571,36.291],[-121.564,36.298],[-121.568,36.313],[-121.54,36.313],[-121.534,36.32],[-121.529,36.36],[-121.512,36.36],[-121.487,36.383],[-121.49,36.404],[-121.514,36.432],[-121.524,36.462],[-121.589,36.525],[-121.61,36.53],[-121.618,36.518],[-121.68,36.495],[-121.739,36.514],[-121.756,36.548],[-121.766,36.548],[-121.766,36.555],[-121.809,36.55],[-121.816,36.561],[-121.879,36.562],[-121.925,36.583],[-121.924,36.572],[-121.934,36.561]]]},"properties":{"SHAPE.AREA":662295403.65492702,"SHAPE.LEN":149137.27230288598,"OBJECTID":101,"HRC":"CC","HBPA":"CC","RBU":3307,"HR":3,"RB":3,"HU":7,"HRNAME":"Central Coast","RBNAME":"Central Coast","HBPANAME":"Central Coast","HUNAME":"CARMEL RIVER","IDNUM":"3307"}},{"type":"Feature","id":95,"geometry":{"type":"Polygon","coordinates":[[[-121.581,36.826],[-121.599,36.813],[-121.616,36.813],[-121.616,36.806],[-121.618,36.823],[-121.637,36.835],[-121.64,36.825],[-121.646,36.831],[-121.7,36.821],[-121.755,36.803],[-121.788,36.805],[-121.806,36.75],[-121.815,36.683],[-121.846,36.626],[-121.867,36.607],[-121.89,36.601],[-121.904,36.622],[-121.936,36.637],[-121.943,36.616],[-121.959,36.609],[-121.965,36.585],[-121.979,36.58],[-121.953,36.561],[-121.949,36.567],[-121.934,36.561],[-121.924,36.572],[-121.925,36.583],[-121.879,36.562],[-121.816,36.561],[-121.809,36.55],[-121.766,36.555],[-121.766,36.548],[-121.756,36.548],[-121.739,36.514],[-121.692,36.496],[-121.64,36.508],[-121.609,36.53],[-121.582,36.521],[-121.555,36.496],[-121.547,36.478],[-121.524,36.462],[-121.514,36.432],[-121.49,36.404],[-121.487,36.383],[-121.512,36.36],[-121.529,36.36],[-121.534,36.32],[-121.54,36.313],[-121.568,36.313],[-121.564,36.298],[-121.571,36.291],[-121.605,36.296],[-121.619,36.282],[-121.631,36.285],[-121.639,36.277],[-121.59,36.218],[-121.607,36.21],[-121.611,36.186],[-121.625,36.189],[-121.632,36.177],[-121.59,36.138],[-121.528,36.116],[-121.531,36.098],[-121.498,36.081],[-121.496,36.052],[-121.473,36.035],[-121.477,36.018],[-121.429,35.998],[-121.442,35.971],[-121.421,35.95],[-121.393,35.945],[-121.363,35.913],[-121.372,35.89],[-121.365,35.876],[-121.302,35.844],[-121.264,35.847],[-121.24,35.834],[-121.195,35.794],[-121.197,35.786],[-121.164,35.765],[-121.153,35.748],[-121.13,35.739],[-121.123,35.727],[-121.131,35.721],[-121.112,35.715],[-121.095,35.691],[-121.063,35.681],[-121.015,35.646],[-120.981,35.635],[-120.956,35.616],[-120.953,35.6],[-120.911,35.58],[-120.905,35.567],[-120.911,35.559],[-120.893,35.537],[-120.854,35.51],[-120.822,35.515],[-120.767,35.482],[-120.717,35.466],[-120.733,35.437],[-120.716,35.425],[-120.736,35.415],[-120.686,35.374],[-120.658,35.364],[-120.645,35.347],[-120.625,35.351],[-120.604,35.318],[-120.568,35.321],[-120.506,35.294],[-120.497,35.281],[-120.479,35.281],[-120.427,35.26],[-120.391,35.274],[-120.313,35.256],[-120.306,35.245],[-120.266,35.232],[-120.242,35.209],[-120.231,35.207],[-120.216,35.218],[-120.221,35.226],[-120.2,35.27],[-120.205,35.279],[-120.221,35.281],[-120.213,35.295],[-120.223,35.298],[-120.228,35.322],[-120.253,35.335],[-120.276,35.325],[-120.296,35.353],[-120.316,35.356],[-120.373,35.412],[-120.406,35.424],[-120.427,35.451],[-120.428,35.482],[-120.413,35.507],[-120.424,35.531],[-120.418,35.542],[-120.434,35.553],[-120.456,35.552],[-120.472,35.579],[-120.46,35.59],[-120.479,35.621],[-120.515,35.627],[-120.517,35.636],[-120.552,35.646],[-120.582,35.645],[-120.592,35.671],[-120.606,35.682],[-120.633,35.701],[-120.66,35.703],[-120.669,35.722],[-120.691,35.729],[-120.693,35.742],[-120.655,35.745],[-120.655,35.768],[-120.635,35.799],[-120.629,35.831],[-120.603,35.842],[-120.598,35.853],[-120.594,35.846],[-120.583,35.857],[-120.565,35.857],[-120.532,35.916],[-120.548,35.932],[-120.565,35.933],[-120.563,35.948],[-120.582,35.97],[-120.578,35.993],[-120.545,35.988],[-120.53,35.976],[-120.504,36.002],[-120.478,36.001],[-120.481,36.011],[-120.518,36.028],[-120.52,36.021],[-120.528,36.024],[-120.527,36.036],[-120.54,36.037],[-120.546,36.046],[-120.588,36.067],[-120.596,36.079],[-120.59,36.09],[-120.6,36.102],[-120.615,36.095],[-120.648,36.107],[-120.646,36.117],[-120.668,36.138],[-120.672,36.164],[-120.663,36.171],[-120.65,36.168],[-120.639,36.197],[-120.627,36.203],[-120.651,36.231],[-120.68,36.247],[-120.673,36.258],[-120.68,36.27],[-120.747,36.31],[-120.79,36.3],[-120.804,36.315],[-120.831,36.318],[-120.846,36.342],[-120.871,36.335],[-120.893,36.346],[-120.902,36.363],[-120.915,36.365],[-120.934,36.385],[-120.955,36.394],[-120.965,36.41],[-120.979,36.414],[-120.991,36.436],[-121.007,36.444],[-121.038,36.481],[-121.065,36.464],[-121.083,36.472],[-121.095,36.484],[-121.088,36.498],[-121.157,36.562],[-121.183,36.573],[-121.195,36.566],[-121.214,36.574],[-121.237,36.571],[-121.265,36.558],[-121.273,36.537],[-121.298,36.533],[-121.329,36.555],[-121.334,36.575],[-121.324,36.578],[-121.327,36.586],[-121.318,36.61],[-121.35,36.648],[-121.366,36.657],[-121.407,36.656],[-121.416,36.673],[-121.431,36.679],[-121.445,36.673],[-121.469,36.686],[-121.485,36.713],[-121.453,36.721],[-121.46,36.741],[-121.476,36.749],[-121.482,36.766],[-121.502,36.76],[-121.506,36.778],[-121.517,36.782],[-121.516,36.79],[-121.539,36.814],[-121.581,36.826]]]},"properties":{"SHAPE.AREA":9134974250.1918392,"SHAPE.LEN":768481.47520537302,"OBJECTID":95,"HRC":"CC","HBPA":"CC","RBU":3309,"HR":3,"RB":3,"HU":9,"HRNAME":"Central Coast","RBNAME":"Central Coast","HBPANAME":"Central Coast","HUNAME":"SALINAS","IDNUM":"3309"}},{"type":"Feature","id":132,"geometry":{"type":"Polygon","coordinates":[[[-120.426,35.26],[-120.427,35.25],[-120.407,35.246],[-120.404,35.234],[-120.38,35.229],[-120.371,35.207],[-120.378,35.186],[-120.415,35.171],[-120.411,35.156],[-120.423,35.14],[-120.412,35.132],[-120.426,35.117],[-120.423,35.103],[-120.429,35.099],[-120.401,35.077],[-120.412,35.068],[-120.411,35.055],[-120.429,35.053],[-120.475,35.09],[-120.506,35.087],[-120.517,35.066],[-120.513,35.053],[-120.45,35.008],[-120.457,35.006],[-120.525,35.014],[-120.602,35.048],[-120.632,35.046],[-120.671,34.902],[-120.647,34.908],[-120.605,34.894],[-120.578,34.899],[-120.551,34.891],[-120.524,34.863],[-120.491,34.859],[-120.45,34.828],[-120.386,34.838],[-120.361,34.817],[-120.347,34.826],[-120.314,34.807],[-120.266,34.793],[-120.258,34.797],[-120.246,34.784],[-120.219,34.79],[-120.206,34.782],[-120.191,34.792],[-120.163,34.781],[-120.157,34.768],[-120.103,34.776],[-120.096,34.792],[-120.099,34.808],[-120.092,34.814],[-120.01,34.779],[-119.961,34.721],[-119.907,34.73],[-119.877,34.706],[-119.831,34.705],[-119.81,34.712],[-119.744,34.704],[-119.733,34.714],[-119.688,34.704],[-119.66,34.69],[-119.654,34.697],[-119.637,34.692],[-119.622,34.708],[-119.606,34.703],[-119.572,34.708],[-119.566,34.716],[-119.533,34.714],[-119.483,34.681],[-119.436,34.667],[-119.423,34.643],[-119.41,34.637],[-119.386,34.642],[-119.387,34.651],[-119.377,34.654],[-119.343,34.641],[-119.237,34.624],[-119.229,34.643],[-119.21,34.641],[-119.208,34.656],[-119.171,34.666],[-119.165,34.681],[-119.146,34.689],[-119.144,34.707],[-119.13,34.717],[-119.141,34.742],[-119.165,34.751],[-119.165,34.759],[-119.183,34.76],[-119.171,34.813],[-119.204,34.83],[-119.209,34.862],[-119.2,34.872],[-119.249,34.864],[-119.294,34.876],[-119.319,34.866],[-119.349,34.876],[-119.368,34.901],[-119.399,34.916],[-119.389,34.931],[-119.44,34.953],[-119.465,34.953],[-119.514,34.988],[-119.54,34.988],[-119.56,35.002],[-119.581,34.992],[-119.602,35.003],[-119.602,35.011],[-119.634,35.02],[-119.638,35.031],[-119.646,35.022],[-119.681,35.03],[-119.709,35.028],[-119.743,35.042],[-119.763,35.036],[-119.806,35.084],[-119.852,35.109],[-119.911,35.157],[-119.929,35.158],[-119.933,35.149],[-119.952,35.142],[-119.994,35.166],[-120.001,35.155],[-120.023,35.145],[-120.019,35.138],[-120.037,35.132],[-120.077,35.166],[-120.082,35.192],[-120.119,35.206],[-120.142,35.238],[-120.173,35.243],[-120.184,35.254],[-120.206,35.257],[-120.221,35.226],[-120.216,35.218],[-120.231,35.207],[-120.273,35.235],[-120.306,35.245],[-120.313,35.256],[-120.348,35.266],[-120.395,35.274],[-120.426,35.26]]]},"properties":{"SHAPE.AREA":4809441869.7576599,"SHAPE.LEN":480621.252637133,"OBJECTID":132,"HRC":"CC","HBPA":"CC","RBU":3312,"HR":3,"RB":3,"HU":12,"HRNAME":"Central Coast","RBNAME":"Central Coast","HBPANAME":"Central Coast","HUNAME":"SANTA  MARIA","IDNUM":"3312"}},{"type":"Feature","id":167,"geometry":{"type":"Polygon","coordinates":[[[-120.376,34.062],[-120.396,34.05],[-120.415,34.056],[-120.453,34.03],[-120.427,34.025],[-120.409,34.032],[-120.36,34.014],[-120.296,34.022],[-120.332,34.049],[-120.358,34.05],[-120.362,34.074],[-120.37,34.076],[-120.376,34.062]]]},"properties":{"SHAPE.AREA":38379008.624566197,"SHAPE.LEN":44877.137318663794,"OBJECTID":167,"HRC":"CC","HBPA":"CC","RBU":3316,"HR":3,"RB":3,"HU":16,"HRNAME":"Central Coast","RBNAME":"Central Coast","HBPANAME":"Central Coast","HUNAME":"SANTA BARBARA CHANNEL ISLANDS","IDNUM":"3316"}},{"type":"Feature","id":138,"geometry":{"type":"Polygon","coordinates":[[[-120.112,34.771],[-120.125,34.75],[-120.137,34.748],[-120.179,34.704],[-120.203,34.711],[-120.218,34.695],[-120.231,34.697],[-120.233,34.688],[-120.249,34.684],[-120.263,34.691],[-120.27,34.71],[-120.291,34.714],[-120.304,34.699],[-120.395,34.73],[-120.439,34.731],[-120.497,34.767],[-120.504,34.755],[-120.533,34.746],[-120.535,34.73],[-120.567,34.703],[-120.602,34.698],[-120.616,34.658],[-120.596,34.653],[-120.577,34.638],[-120.572,34.61],[-120.537,34.615],[-120.516,34.593],[-120.507,34.593],[-120.522,34.573],[-120.503,34.567],[-120.481,34.575],[-120.445,34.561],[-120.435,34.545],[-120.376,34.522],[-120.36,34.501],[-120.341,34.514],[-120.31,34.506],[-120.274,34.513],[-120.26,34.557],[-120.233,34.569],[-120.213,34.563],[-120.202,34.548],[-120.204,34.532],[-120.176,34.525],[-120.17,34.513],[-120.106,34.523],[-120.085,34.536],[-120.074,34.529],[-120.05,34.538],[-119.93,34.527],[-119.868,34.506],[-119.813,34.51],[-119.786,34.52],[-119.756,34.505],[-119.741,34.51],[-119.711,34.495],[-119.697,34.498],[-119.582,34.476],[-119.579,34.466],[-119.57,34.465],[-119.485,34.466],[-119.437,34.481],[-119.431,34.502],[-119.456,34.517],[-119.455,34.532],[-119.467,34.539],[-119.474,34.562],[-119.461,34.567],[-119.465,34.576],[-119.451,34.586],[-119.463,34.602],[-119.461,34.622],[-119.443,34.625],[-119.439,34.636],[-119.425,34.64],[-119.426,34.658],[-119.483,34.681],[-119.533,34.714],[-119.566,34.716],[-119.572,34.708],[-119.606,34.703],[-119.622,34.708],[-119.637,34.692],[-119.654,34.697],[-119.66,34.69],[-119.688,34.704],[-119.733,34.714],[-119.744,34.704],[-119.81,34.712],[-119.831,34.705],[-119.877,34.706],[-119.911,34.731],[-119.957,34.72],[-119.985,34.743],[-119.982,34.752],[-120.01,34.779],[-120.092,34.814],[-120.099,34.808],[-120.099,34.781],[-120.112,34.771]]]},"properties":{"SHAPE.AREA":2331366487.8398399,"SHAPE.LEN":330799.24075526901,"OBJECTID":138,"HRC":"CC","HBPA":"CC","RBU":3314,"HR":3,"RB":3,"HU":14,"HRNAME":"Central Coast","RBNAME":"Central Coast","HBPANAME":"Central Coast","HUNAME":"SANTA YNEZ","IDNUM":"3314"}},{"type":"Feature","id":124,"geometry":{"type":"Polygon","coordinates":[[[-120.041,35.471],[-120.122,35.409],[-120.12,35.396],[-120.078,35.348],[-120.091,35.336],[-120.079,35.33],[-120.074,35.312],[-120.052,35.304],[-120.05,35.289],[-120.038,35.296],[-120.022,35.283],[-120.007,35.284],[-119.99,35.271],[-119.955,35.261],[-119.959,35.243],[-119.939,35.236],[-119.95,35.215],[-119.919,35.195],[-119.903,35.145],[-119.821,35.096],[-119.804,35.075],[-119.788,35.069],[-119.763,35.036],[-119.743,35.042],[-119.709,35.028],[-119.681,35.03],[-119.646,35.022],[-119.638,35.031],[-119.634,35.02],[-119.602,35.011],[-119.602,35.003],[-119.581,34.992],[-119.555,35.002],[-119.541,34.988],[-119.527,34.993],[-119.507,34.985],[-119.465,34.953],[-119.44,34.953],[-119.405,34.939],[-119.497,35.007],[-119.475,35.031],[-119.494,35.068],[-119.52,35.069],[-119.548,35.108],[-119.582,35.126],[-119.618,35.164],[-119.668,35.186],[-119.704,35.215],[-119.725,35.241],[-119.724,35.257],[-119.748,35.284],[-119.762,35.28],[-119.764,35.292],[-119.776,35.293],[-119.775,35.304],[-119.806,35.313],[-119.817,35.324],[-119.815,35.336],[-119.833,35.336],[-119.824,35.348],[-119.832,35.363],[-119.851,35.371],[-119.865,35.367],[-119.869,35.378],[-119.886,35.383],[-119.886,35.393],[-119.915,35.402],[-119.939,35.425],[-119.952,35.422],[-120.002,35.437],[-120.041,35.471]]]},"properties":{"SHAPE.AREA":1128507453.8623099,"SHAPE.LEN":225569.48633369801,"OBJECTID":124,"HRC":"CC","HBPA":"CC","RBU":3311,"HR":3,"RB":3,"HU":11,"HRNAME":"Central Coast","RBNAME":"Central Coast","HBPANAME":"Central Coast","HUNAME":"CARRIZO PLAIN","IDNUM":"3311"}},{"type":"Feature","id":87,"geometry":{"type":"Polygon","coordinates":[[[-122.125,37.259],[-122.152,37.244],[-122.147,37.235],[-122.154,37.214],[-122.172,37.195],[-122.203,37.202],[-122.218,37.216],[-122.245,37.213],[-122.284,37.224],[-122.341,37.195],[-122.365,37.212],[-122.373,37.232],[-122.394,37.233],[-122.416,37.253],[-122.419,37.242],[-122.409,37.225],[-122.405,37.196],[-122.395,37.181],[-122.367,37.173],[-122.361,37.149],[-122.338,37.136],[-122.338,37.118],[-122.33,37.112],[-122.308,37.117],[-122.288,37.104],[-122.223,37.025],[-122.153,36.976],[-122.066,36.948],[-122.026,36.95],[-122.024,36.962],[-122.002,36.96],[-122.003,36.968],[-122.001,36.961],[-121.973,36.954],[-121.936,36.979],[-121.869,36.946],[-121.865,36.971],[-121.839,36.991],[-121.848,37.024],[-121.836,37.054],[-121.845,37.068],[-121.813,37.065],[-121.818,37.084],[-121.992,37.145],[-122.003,37.16],[-122.025,37.17],[-122.042,37.202],[-122.067,37.209],[-122.078,37.223],[-122.092,37.223],[-122.125,37.259]]]},"properties":{"SHAPE.AREA":951780845.74760997,"SHAPE.LEN":194945.25531861401,"OBJECTID":87,"HRC":"CC","HBPA":"CC","RBU":3304,"HR":3,"RB":3,"HU":4,"HRNAME":"Central Coast","RBNAME":"Central Coast","HBPANAME":"Central Coast","HUNAME":"BIG BASIN","IDNUM":"3304"}},{"type":"Feature","id":102,"geometry":{"type":"Polygon","coordinates":[[[-121.926,36.528],[-121.938,36.519],[-121.955,36.522],[-121.938,36.505],[-121.946,36.49],[-121.926,36.46],[-121.93,36.449],[-121.915,36.426],[-121.915,36.403],[-121.903,36.393],[-121.907,36.357],[-121.893,36.34],[-121.903,36.306],[-121.852,36.278],[-121.838,36.249],[-121.827,36.242],[-121.781,36.228],[-121.718,36.196],[-121.676,36.164],[-121.633,36.121],[-121.619,36.086],[-121.593,36.065],[-121.592,36.049],[-121.574,36.024],[-121.502,35.999],[-121.486,35.971],[-121.477,35.931],[-121.469,35.927],[-121.475,35.92],[-121.463,35.904],[-121.465,35.889],[-121.413,35.856],[-121.388,35.823],[-121.363,35.808],[-121.323,35.825],[-121.31,35.823],[-121.302,35.845],[-121.369,35.88],[-121.363,35.913],[-121.393,35.945],[-121.421,35.95],[-121.442,35.971],[-121.429,35.998],[-121.477,36.018],[-121.473,36.035],[-121.496,36.052],[-121.498,36.081],[-121.531,36.098],[-121.528,36.116],[-121.59,36.138],[-121.632,36.177],[-121.625,36.189],[-121.611,36.186],[-121.607,36.21],[-121.59,36.218],[-121.6,36.238],[-121.613,36.242],[-121.64,36.278],[-121.714,36.297],[-121.717,36.329],[-121.707,36.341],[-121.734,36.364],[-121.775,36.368],[-121.789,36.388],[-121.81,36.398],[-121.811,36.417],[-121.856,36.436],[-121.838,36.455],[-121.812,36.462],[-121.812,36.471],[-121.872,36.503],[-121.881,36.523],[-121.926,36.528]]]},"properties":{"SHAPE.AREA":783697277.52228105,"SHAPE.LEN":293426.61457022,"OBJECTID":102,"HRC":"CC","HBPA":"CC","RBU":3308,"HR":3,"RB":3,"HU":8,"HRNAME":"Central Coast","RBNAME":"Central Coast","HBPANAME":"Central Coast","HUNAME":"SANTA LUCIA","IDNUM":"3308"}},{"type":"Feature","id":109,"geometry":{"type":"Polygon","coordinates":[[[-120.478,36.001],[-120.504,36.002],[-120.53,35.976],[-120.545,35.988],[-120.578,35.993],[-120.582,35.97],[-120.563,35.948],[-120.565,35.933],[-120.548,35.932],[-120.532,35.916],[-120.565,35.857],[-120.583,35.857],[-120.594,35.846],[-120.598,35.853],[-120.603,35.842],[-120.629,35.831],[-120.635,35.799],[-120.655,35.768],[-120.655,35.745],[-120.693,35.742],[-120.69,35.727],[-120.669,35.722],[-120.66,35.703],[-120.633,35.701],[-120.606,35.682],[-120.592,35.671],[-120.582,35.645],[-120.552,35.646],[-120.517,35.636],[-120.515,35.627],[-120.479,35.621],[-120.46,35.59],[-120.472,35.579],[-120.456,35.552],[-120.434,35.553],[-120.418,35.542],[-120.424,35.531],[-120.413,35.507],[-120.428,35.482],[-120.423,35.467],[-120.428,35.452],[-120.413,35.432],[-120.389,35.414],[-120.373,35.412],[-120.316,35.356],[-120.296,35.353],[-120.276,35.325],[-120.253,35.335],[-120.228,35.322],[-120.223,35.298],[-120.213,35.295],[-120.221,35.281],[-120.202,35.277],[-120.199,35.256],[-120.142,35.238],[-120.119,35.206],[-120.082,35.192],[-120.077,35.167],[-120.046,35.137],[-120.023,35.136],[-120.017,35.14],[-120.022,35.146],[-120.001,35.155],[-119.994,35.166],[-119.952,35.142],[-119.933,35.149],[-119.929,35.158],[-119.911,35.157],[-119.919,35.195],[-119.95,35.215],[-119.939,35.236],[-119.959,35.243],[-119.955,35.261],[-119.99,35.271],[-120.007,35.284],[-120.022,35.283],[-120.038,35.296],[-120.05,35.289],[-120.052,35.304],[-120.074,35.312],[-120.079,35.33],[-120.091,35.336],[-120.078,35.348],[-120.12,35.396],[-120.122,35.409],[-120.04,35.474],[-120.059,35.491],[-120.082,35.495],[-120.109,35.527],[-120.101,35.535],[-120.113,35.548],[-120.129,35.554],[-120.134,35.564],[-120.153,35.574],[-120.153,35.584],[-120.174,35.592],[-120.196,35.616],[-120.216,35.618],[-120.224,35.63],[-120.227,35.64],[-120.215,35.659],[-120.196,35.649],[-120.195,35.656],[-120.23,35.718],[-120.215,35.751],[-120.198,35.752],[-120.192,35.763],[-120.216,35.79],[-120.22,35.819],[-120.245,35.824],[-120.259,35.845],[-120.24,35.866],[-120.243,35.878],[-120.277,35.906],[-120.324,35.908],[-120.337,35.924],[-120.336,35.937],[-120.357,35.948],[-120.361,35.965],[-120.409,35.976],[-120.435,35.969],[-120.45,35.988],[-120.478,36.001]]]},"properties":{"SHAPE.AREA":2469882273.2329502,"SHAPE.LEN":356642.74922188901,"OBJECTID":109,"HRC":"CC","HBPA":"CC","RBU":3317,"HR":3,"RB":3,"HU":17,"HRNAME":"Central Coast","RBNAME":"Central Coast","HBPANAME":"Central Coast","HUNAME":"ESTRELLA RIVER","IDNUM":"3317"}},{"type":"Feature","id":113,"geometry":{"type":"Polygon","coordinates":[[[-120.999,35.643],[-121.063,35.681],[-121.095,35.691],[-121.112,35.715],[-121.131,35.721],[-121.123,35.727],[-121.13,35.739],[-121.153,35.748],[-121.252,35.841],[-121.282,35.849],[-121.302,35.845],[-121.311,35.822],[-121.323,35.825],[-121.363,35.808],[-121.326,35.772],[-121.328,35.76],[-121.316,35.751],[-121.316,35.714],[-121.29,35.691],[-121.287,35.665],[-121.271,35.667],[-121.242,35.652],[-121.221,35.652],[-121.195,35.635],[-121.19,35.643],[-121.168,35.637],[-121.127,35.595],[-121.101,35.549],[-121.004,35.461],[-120.969,35.46],[-120.946,35.447],[-120.908,35.449],[-120.888,35.434],[-120.867,35.398],[-120.87,35.363],[-120.862,35.355],[-120.872,35.313],[-120.9,35.255],[-120.857,35.206],[-120.75,35.156],[-120.756,35.174],[-120.738,35.179],[-120.706,35.174],[-120.675,35.153],[-120.651,35.148],[-120.632,35.111],[-120.632,35.046],[-120.602,35.048],[-120.525,35.014],[-120.45,35.008],[-120.513,35.053],[-120.517,35.066],[-120.5,35.091],[-120.483,35.092],[-120.429,35.053],[-120.411,35.054],[-120.412,35.068],[-120.401,35.077],[-120.429,35.099],[-120.423,35.103],[-120.426,35.117],[-120.412,35.132],[-120.423,35.14],[-120.411,35.156],[-120.415,35.171],[-120.377,35.187],[-120.371,35.207],[-120.38,35.229],[-120.404,35.234],[-120.407,35.246],[-120.427,35.25],[-120.425,35.26],[-120.479,35.281],[-120.497,35.281],[-120.506,35.294],[-120.568,35.321],[-120.604,35.318],[-120.625,35.351],[-120.645,35.347],[-120.658,35.364],[-120.686,35.374],[-120.736,35.415],[-120.716,35.425],[-120.733,35.437],[-120.717,35.466],[-120.767,35.482],[-120.822,35.515],[-120.854,35.51],[-120.893,35.537],[-120.911,35.559],[-120.905,35.567],[-120.911,35.579],[-120.953,35.6],[-120.956,35.616],[-120.999,35.643]]]},"properties":{"SHAPE.AREA":1944834485.3109901,"SHAPE.LEN":379431.71455760603,"OBJECTID":113,"HRC":"CC","HBPA":"CC","RBU":3310,"HR":3,"RB":3,"HU":10,"HRNAME":"Central Coast","RBNAME":"Central Coast","HBPANAME":"Central Coast","HUNAME":"ESTERO BAY","IDNUM":"3310"}},{"type":"Feature","id":143,"geometry":{"type":"Polygon","coordinates":[[[-120.616,34.658],[-120.651,34.577],[-120.624,34.554],[-120.582,34.557],[-120.514,34.525],[-120.478,34.478],[-120.472,34.448],[-120.453,34.442],[-120.443,34.451],[-120.343,34.459],[-120.294,34.471],[-120.137,34.473],[-120.089,34.461],[-120.007,34.46],[-119.957,34.436],[-119.925,34.434],[-119.878,34.407],[-119.844,34.404],[-119.835,34.415],[-119.796,34.418],[-119.709,34.395],[-119.682,34.414],[-119.612,34.421],[-119.562,34.415],[-119.537,34.396],[-119.478,34.373],[-119.442,34.382],[-119.423,34.376],[-119.407,34.404],[-119.426,34.412],[-119.416,34.43],[-119.433,34.48],[-119.485,34.466],[-119.57,34.465],[-119.579,34.466],[-119.582,34.476],[-119.697,34.498],[-119.711,34.495],[-119.741,34.51],[-119.756,34.505],[-119.786,34.52],[-119.813,34.51],[-119.868,34.506],[-119.93,34.527],[-120.05,34.538],[-120.074,34.529],[-120.085,34.536],[-120.106,34.523],[-120.17,34.513],[-120.176,34.525],[-120.204,34.532],[-120.204,34.553],[-120.232,34.569],[-120.26,34.557],[-120.275,34.512],[-120.31,34.506],[-120.341,34.514],[-120.36,34.501],[-120.376,34.522],[-120.435,34.545],[-120.445,34.561],[-120.481,34.575],[-120.503,34.567],[-120.522,34.573],[-120.507,34.593],[-120.516,34.593],[-120.537,34.615],[-120.572,34.61],[-120.577,34.638],[-120.596,34.653],[-120.616,34.658]]]},"properties":{"SHAPE.AREA":971678049.13192499,"SHAPE.LEN":312583.11233681499,"OBJECTID":143,"HRC":"CC","HBPA":"CC","RBU":3315,"HR":3,"RB":3,"HU":15,"HRNAME":"Central Coast","RBNAME":"Central Coast","HBPANAME":"Central Coast","HUNAME":"SOUTH COAST","IDNUM":"3315"}},{"type":"Feature","id":93,"geometry":{"type":"Polygon","coordinates":[[[-121.806,36.843],[-121.782,36.803],[-121.752,36.803],[-121.646,36.831],[-121.64,36.825],[-121.637,36.835],[-121.618,36.823],[-121.616,36.806],[-121.616,36.813],[-121.599,36.813],[-121.581,36.826],[-121.588,36.839],[-121.564,36.861],[-121.579,36.861],[-121.583,36.873],[-121.62,36.889],[-121.689,36.875],[-121.7,36.882],[-121.748,36.881],[-121.77,36.873],[-121.773,36.856],[-121.804,36.853],[-121.806,36.843]]]},"properties":{"SHAPE.AREA":132130781.789828,"SHAPE.LEN":66333.845022646594,"OBJECTID":93,"HRC":"CC","HBPA":"CC","RBU":3306,"HR":3,"RB":3,"HU":6,"HRNAME":"Central Coast","RBNAME":"Central Coast","HBPANAME":"Central Coast","HUNAME":"BOLSA NEUVA","IDNUM":"3306"}},{"type":"Feature","id":166,"geometry":{"type":"Polygon","coordinates":[[[-119.907,34.075],[-119.919,34.077],[-119.918,34.063],[-119.93,34.06],[-119.907,34.055],[-119.876,34.032],[-119.888,34.007],[-119.874,33.98],[-119.818,33.96],[-119.722,33.959],[-119.655,33.988],[-119.56,33.996],[-119.541,34.022],[-119.52,34.034],[-119.562,34.056],[-119.584,34.054],[-119.608,34.041],[-119.605,34.03],[-119.617,34.018],[-119.638,34.013],[-119.687,34.02],[-119.713,34.043],[-119.739,34.047],[-119.758,34.059],[-119.809,34.051],[-119.857,34.071],[-119.907,34.075]]]},"properties":{"SHAPE.AREA":250310572.46825299,"SHAPE.LEN":123275.40246567501,"OBJECTID":166,"HRC":"CC","HBPA":"CC","RBU":3316,"HR":3,"RB":3,"HU":16,"HRNAME":"Central Coast","RBNAME":"Central Coast","HBPANAME":"Central Coast","HUNAME":"SANTA BARBARA CHANNEL ISLANDS","IDNUM":"3316"}},{"type":"Feature","id":171,"geometry":{"type":"Polygon","coordinates":[[[-120.205,34.006],[-120.23,34.01],[-120.251,34.001],[-120.223,33.988],[-120.19,33.949],[-120.18,33.925],[-120.12,33.894],[-120.099,33.908],[-120.05,33.915],[-120.007,33.94],[-119.968,33.943],[-119.977,33.958],[-119.979,33.983],[-120.01,33.98],[-120.046,33.999],[-120.05,34.013],[-120.043,34.036],[-120.058,34.037],[-120.09,34.02],[-120.147,34.025],[-120.165,34.009],[-120.205,34.006]]]},"properties":{"SHAPE.AREA":214589326.28251901,"SHAPE.LEN":83643.774254991309,"OBJECTID":171,"HRC":"CC","HBPA":"CC","RBU":3316,"HR":3,"RB":3,"HU":16,"HRNAME":"Central Coast","RBNAME":"Central Coast","HBPANAME":"Central Coast","HUNAME":"SANTA BARBARA CHANNEL ISLANDS","IDNUM":"3316"}},{"type":"Feature","id":88,"geometry":{"type":"Polygon","coordinates":[[[-121.437,37.231],[-121.442,37.227],[-121.423,37.199],[-121.46,37.172],[-121.461,37.161],[-121.41,37.12],[-121.42,37.108],[-121.414,37.093],[-121.396,37.08],[-121.393,37.061],[-121.377,37.048],[-121.385,37.048],[-121.379,37.04],[-121.385,37.031],[-121.407,37.031],[-121.414,37.018],[-121.474,37.03],[-121.498,37.06],[-121.532,37.071],[-121.57,37.128],[-121.624,37.162],[-121.666,37.143],[-121.709,37.138],[-121.732,37.163],[-121.735,37.154],[-121.793,37.16],[-121.814,37.152],[-121.836,37.113],[-121.848,37.105],[-121.809,37.069],[-121.845,37.068],[-121.836,37.054],[-121.848,37.024],[-121.839,36.991],[-121.865,36.971],[-121.873,36.944],[-121.806,36.843],[-121.804,36.853],[-121.773,36.856],[-121.774,36.868],[-121.748,36.881],[-121.7,36.882],[-121.689,36.875],[-121.662,36.884],[-121.609,36.886],[-121.583,36.873],[-121.579,36.861],[-121.564,36.861],[-121.588,36.839],[-121.58,36.824],[-121.539,36.814],[-121.516,36.79],[-121.517,36.782],[-121.506,36.778],[-121.502,36.76],[-121.482,36.766],[-121.476,36.749],[-121.46,36.741],[-121.453,36.721],[-121.485,36.713],[-121.469,36.686],[-121.445,36.673],[-121.431,36.679],[-121.416,36.673],[-121.407,36.656],[-121.366,36.657],[-121.35,36.648],[-121.318,36.61],[-121.327,36.586],[-121.324,36.578],[-121.334,36.575],[-121.329,36.555],[-121.298,36.533],[-121.273,36.537],[-121.265,36.558],[-121.237,36.571],[-121.214,36.574],[-121.195,36.566],[-121.183,36.573],[-121.157,36.562],[-121.088,36.498],[-121.095,36.484],[-121.083,36.472],[-121.065,36.464],[-121.038,36.481],[-121.007,36.444],[-120.991,36.436],[-120.979,36.414],[-120.965,36.41],[-120.955,36.394],[-120.934,36.385],[-120.915,36.365],[-120.902,36.363],[-120.893,36.346],[-120.871,36.335],[-120.846,36.342],[-120.831,36.318],[-120.804,36.315],[-120.79,36.3],[-120.747,36.31],[-120.679,36.267],[-120.673,36.281],[-120.683,36.294],[-120.663,36.314],[-120.582,36.33],[-120.613,36.35],[-120.615,36.359],[-120.675,36.39],[-120.724,36.397],[-120.738,36.388],[-120.771,36.419],[-120.781,36.414],[-120.79,36.419],[-120.794,36.44],[-120.815,36.449],[-120.834,36.473],[-120.867,36.489],[-120.904,36.476],[-120.906,36.498],[-120.946,36.504],[-120.952,36.518],[-121.008,36.541],[-121.006,36.549],[-121.017,36.552],[-121.02,36.567],[-121.031,36.573],[-121.032,36.584],[-121.016,36.607],[-121.02,36.626],[-120.993,36.633],[-120.981,36.682],[-120.967,36.688],[-120.973,36.71],[-120.958,36.719],[-120.983,36.733],[-120.997,36.761],[-121.031,36.767],[-121.058,36.753],[-121.114,36.769],[-121.117,36.777],[-121.105,36.792],[-121.109,36.812],[-121.134,36.817],[-121.153,36.865],[-121.184,36.896],[-121.184,36.909],[-121.222,36.91],[-121.234,36.926],[-121.212,36.957],[-121.245,36.981],[-121.243,36.993],[-121.232,36.998],[-121.247,37.031],[-121.222,37.037],[-121.224,37.052],[-121.208,37.061],[-121.244,37.088],[-121.229,37.096],[-121.217,37.122],[-121.24,37.159],[-121.264,37.161],[-121.283,37.182],[-121.298,37.168],[-121.33,37.168],[-121.361,37.185],[-121.386,37.168],[-121.385,37.153],[-121.401,37.152],[-121.415,37.175],[-121.41,37.185],[-121.418,37.214],[-121.437,37.231]]]},"properties":{"SHAPE.AREA":3395249821.9562898,"SHAPE.LEN":537917.49097530998,"OBJECTID":88,"HRC":"CC","HBPA":"CC","RBU":3305,"HR":3,"RB":3,"HU":5,"HRNAME":"Central Coast","RBNAME":"Central Coast","HBPANAME":"Central Coast","HUNAME":"PAJARO RIVER","IDNUM":"3305"}},{"type":"Feature","id":135,"geometry":{"type":"Polygon","coordinates":[[[-120.671,34.902],[-120.646,34.9],[-120.639,34.88],[-120.611,34.858],[-120.615,34.821],[-120.638,34.756],[-120.616,34.732],[-120.601,34.698],[-120.567,34.703],[-120.535,34.73],[-120.533,34.746],[-120.504,34.755],[-120.496,34.767],[-120.439,34.731],[-120.395,34.73],[-120.304,34.699],[-120.291,34.714],[-120.271,34.71],[-120.263,34.691],[-120.237,34.685],[-120.231,34.697],[-120.218,34.695],[-120.203,34.711],[-120.179,34.704],[-120.137,34.748],[-120.125,34.75],[-120.112,34.771],[-120.157,34.768],[-120.163,34.781],[-120.191,34.792],[-120.206,34.782],[-120.219,34.79],[-120.246,34.784],[-120.258,34.797],[-120.266,34.793],[-120.314,34.807],[-120.347,34.826],[-120.361,34.817],[-120.386,34.838],[-120.45,34.828],[-120.499,34.863],[-120.523,34.863],[-120.539,34.873],[-120.552,34.891],[-120.589,34.9],[-120.605,34.894],[-120.647,34.908],[-120.671,34.902]]]},"properties":{"SHAPE.AREA":548890477.36026001,"SHAPE.LEN":165106.47021949501,"OBJECTID":135,"HRC":"CC","HBPA":"CC","RBU":3313,"HR":3,"RB":3,"HU":13,"HRNAME":"Central Coast","RBNAME":"Central Coast","HBPANAME":"Central Coast","HUNAME":"SAN ANTONIO","IDNUM":"3313"}}]}