{"type":"FeatureCollection","features":[{"type":"Feature","id":178,"geometry":{"type":"Polygon","coordinates":[[[-117.734,33.604],[-117.774,33.61],[-117.777,33.602],[-117.805,33.606],[-117.82,33.554],[-117.784,33.541],[-117.725,33.482],[-117.715,33.46],[-117.681,33.462],[-117.657,33.449],[-117.622,33.421],[-117.596,33.387],[-117.511,33.338],[-117.427,33.244],[-117.404,33.269],[-117.387,33.276],[-117.393,33.299],[-117.369,33.353],[-117.357,33.358],[-117.36,33.369],[-117.35,33.386],[-117.361,33.407],[-117.377,33.411],[-117.391,33.444],[-117.371,33.45],[-117.368,33.479],[-117.347,33.486],[-117.345,33.496],[-117.323,33.494],[-117.328,33.505],[-117.295,33.544],[-117.31,33.561],[-117.313,33.572],[-117.303,33.582],[-117.316,33.6],[-117.365,33.602],[-117.366,33.627],[-117.419,33.665],[-117.457,33.671],[-117.455,33.683],[-117.476,33.702],[-117.496,33.702],[-117.525,33.717],[-117.562,33.685],[-117.634,33.705],[-117.628,33.687],[-117.635,33.679],[-117.678,33.652],[-117.676,33.641],[-117.693,33.625],[-117.734,33.604]]]},"properties":{"SHAPE.AREA":1283970599.03023,"SHAPE.LEN":191794.85304401,"OBJECTID":178,"HRC":"SC","HBPA":"SD","RBU":4901,"HR":4,"RB":9,"HU":1,"HRNAME":"South Coast","RBNAME":"San Diego","HBPANAME":"San Diego","HUNAME":"SAN JUAN","IDNUM":"4901"}},{"type":"Feature","id":202,"geometry":{"type":"Polygon","coordinates":[[[-117.233,32.686],[-117.225,32.686],[-117.226,32.702],[-117.217,32.71],[-117.19,32.713],[-117.191,32.707],[-117.165,32.695],[-117.166,32.68],[-117.175,32.68],[-117.154,32.678],[-117.161,32.668],[-117.138,32.631],[-117.132,32.631],[-117.137,32.63],[-117.131,32.63],[-117.131,32.608],[-117.115,32.6],[-117.097,32.614],[-117.122,32.654],[-117.123,32.67],[-117.115,32.675],[-117.125,32.672],[-117.135,32.684],[-117.128,32.688],[-117.139,32.687],[-117.176,32.711],[-117.176,32.727],[-117.214,32.724],[-117.199,32.727],[-117.214,32.728],[-117.209,32.741],[-117.217,32.722],[-117.228,32.724],[-117.223,32.716],[-117.234,32.708],[-117.224,32.717],[-117.236,32.715],[-117.239,32.689],[-117.233,32.686]]]},"properties":{"SHAPE.AREA":44237790.907356702,"SHAPE.LEN":95057.791340868804,"OBJECTID":202,"HRC":"SC","HBPA":"SD","RBU":4912,"HR":4,"RB":9,"HU":12,"HRNAME":"South Coast","RBNAME":"San Diego","HBPANAME":"San Diego","HUNAME":"SAN DIEGO BAY","IDNUM":"4912"}},{"type":"Feature","id":192,"geometry":{"type":"Polygon","coordinates":[[[-117.002,33.199],[-117.04,33.196],[-117.047,33.205],[-117.087,33.219],[-117.133,33.199],[-117.148,33.215],[-117.185,33.212],[-117.193,33.226],[-117.212,33.232],[-117.269,33.219],[-117.277,33.226],[-117.314,33.223],[-117.383,33.192],[-117.328,33.121],[-117.275,32.992],[-117.263,33.003],[-117.219,33.005],[-117.214,33.016],[-117.187,33.025],[-117.194,33.037],[-117.161,33.058],[-117.135,33.053],[-117.127,33.075],[-117.133,33.083],[-117.123,33.097],[-117.101,33.095],[-117.092,33.106],[-117.068,33.107],[-117.054,33.123],[-117.028,33.12],[-117.011,33.161],[-116.995,33.16],[-116.977,33.172],[-116.95,33.169],[-116.931,33.185],[-116.93,33.205],[-116.938,33.21],[-116.954,33.209],[-116.963,33.197],[-117.002,33.199]]]},"properties":{"SHAPE.AREA":549384920.33708596,"SHAPE.LEN":136336.23898056502,"OBJECTID":192,"HRC":"SC","HBPA":"SD","RBU":4904,"HR":4,"RB":9,"HU":4,"HRNAME":"South Coast","RBNAME":"San Diego","HBPANAME":"San Diego","HUNAME":"CARLSBAD","IDNUM":"4904"}},{"type":"Feature","id":200,"geometry":{"type":"Polygon","coordinates":[[[-117.014,32.766],[-117.044,32.771],[-117.101,32.755],[-117.134,32.763],[-117.161,32.748],[-117.215,32.755],[-117.231,32.733],[-117.24,32.732],[-117.254,32.747],[-117.256,32.699],[-117.245,32.666],[-117.237,32.668],[-117.233,32.686],[-117.239,32.689],[-117.236,32.715],[-117.224,32.717],[-117.234,32.708],[-117.223,32.716],[-117.228,32.724],[-117.217,32.722],[-117.209,32.741],[-117.214,32.728],[-117.199,32.727],[-117.214,32.724],[-117.176,32.727],[-117.176,32.711],[-117.139,32.687],[-117.128,32.688],[-117.135,32.684],[-117.125,32.672],[-117.115,32.675],[-117.124,32.667],[-117.12,32.648],[-117.101,32.653],[-117.092,32.672],[-117.052,32.679],[-117.031,32.695],[-117.024,32.708],[-117.027,32.728],[-117.017,32.74],[-117.024,32.761],[-117.014,32.766]]]},"properties":{"SHAPE.AREA":151951913.13097101,"SHAPE.LEN":119128.10685579201,"OBJECTID":200,"HRC":"SC","HBPA":"SD","RBU":4908,"HR":4,"RB":9,"HU":8,"HRNAME":"South Coast","RBNAME":"San Diego","HBPANAME":"San Diego","HUNAME":"PUEBLO SAN DIEGO","IDNUM":"4908"}},{"type":"Feature","id":179,"geometry":{"type":"Polygon","coordinates":[[[-116.848,33.631],[-116.854,33.644],[-116.863,33.644],[-116.874,33.633],[-116.895,33.632],[-116.935,33.612],[-116.941,33.623],[-116.96,33.626],[-116.963,33.632],[-116.951,33.638],[-117.003,33.709],[-117.037,33.69],[-117.094,33.688],[-117.101,33.664],[-117.139,33.655],[-117.161,33.625],[-117.174,33.625],[-117.195,33.61],[-117.197,33.626],[-117.224,33.624],[-117.245,33.643],[-117.282,33.614],[-117.293,33.617],[-117.312,33.604],[-117.317,33.598],[-117.303,33.582],[-117.313,33.57],[-117.295,33.544],[-117.328,33.505],[-117.323,33.494],[-117.345,33.496],[-117.347,33.486],[-117.368,33.479],[-117.371,33.45],[-117.391,33.444],[-117.377,33.411],[-117.361,33.407],[-117.35,33.386],[-117.36,33.369],[-117.357,33.358],[-117.369,33.353],[-117.393,33.299],[-117.387,33.276],[-117.404,33.269],[-117.427,33.244],[-117.404,33.215],[-117.397,33.216],[-117.404,33.211],[-117.394,33.213],[-117.392,33.203],[-117.386,33.207],[-117.379,33.233],[-117.339,33.258],[-117.34,33.275],[-117.332,33.279],[-117.316,33.325],[-117.302,33.329],[-117.298,33.341],[-117.287,33.336],[-117.278,33.347],[-117.26,33.344],[-117.262,33.355],[-117.237,33.384],[-117.196,33.394],[-117.189,33.403],[-117.143,33.412],[-117.126,33.408],[-117.116,33.417],[-117.099,33.418],[-117.096,33.43],[-117.074,33.436],[-117.01,33.414],[-116.99,33.421],[-116.977,33.402],[-116.957,33.395],[-116.942,33.369],[-116.865,33.357],[-116.856,33.363],[-116.824,33.361],[-116.757,33.328],[-116.749,33.345],[-116.715,33.369],[-116.661,33.379],[-116.643,33.388],[-116.639,33.4],[-116.622,33.403],[-116.635,33.418],[-116.631,33.432],[-116.651,33.443],[-116.656,33.458],[-116.67,33.467],[-116.676,33.498],[-116.635,33.523],[-116.617,33.542],[-116.584,33.537],[-116.569,33.553],[-116.611,33.58],[-116.624,33.58],[-116.669,33.617],[-116.687,33.617],[-116.714,33.583],[-116.728,33.583],[-116.735,33.592],[-116.778,33.581],[-116.785,33.606],[-116.835,33.632],[-116.848,33.631]]]},"properties":{"SHAPE.AREA":1924137447.70806,"SHAPE.LEN":317797.72648174403,"OBJECTID":179,"HRC":"SC","HBPA":"SD","RBU":4902,"HR":4,"RB":9,"HU":2,"HRNAME":"South Coast","RBNAME":"San Diego","HBPANAME":"San Diego","HUNAME":"SANTA MARGARITA","IDNUM":"4902"}},{"type":"Feature","id":194,"geometry":{"type":"Polygon","coordinates":[[[-116.604,33.107],[-116.655,33.122],[-116.666,33.095],[-116.687,33.093],[-116.688,33.075],[-116.695,33.07],[-116.719,33.076],[-116.747,33.04],[-116.823,33.037],[-116.848,33.007],[-116.909,33.003],[-116.914,32.996],[-116.935,33.006],[-116.96,33.001],[-116.952,32.986],[-116.955,32.96],[-116.974,32.954],[-116.978,32.94],[-116.992,32.94],[-117.02,32.922],[-117.036,32.896],[-117.135,32.842],[-117.155,32.824],[-117.155,32.805],[-117.171,32.788],[-117.171,32.775],[-117.196,32.773],[-117.212,32.759],[-117.254,32.757],[-117.251,32.741],[-117.231,32.733],[-117.215,32.755],[-117.15,32.749],[-117.144,32.762],[-117.1,32.755],[-117.044,32.771],[-117.01,32.765],[-116.999,32.778],[-116.96,32.764],[-116.949,32.771],[-116.94,32.768],[-116.933,32.777],[-116.901,32.776],[-116.891,32.801],[-116.848,32.821],[-116.851,32.832],[-116.83,32.851],[-116.817,32.851],[-116.817,32.838],[-116.789,32.818],[-116.759,32.822],[-116.745,32.85],[-116.701,32.871],[-116.654,32.872],[-116.634,32.851],[-116.628,32.886],[-116.601,32.898],[-116.592,32.921],[-116.606,32.949],[-116.557,32.969],[-116.548,32.963],[-116.54,32.985],[-116.531,32.98],[-116.529,32.987],[-116.531,32.998],[-116.542,33.001],[-116.548,33.026],[-116.558,33.03],[-116.554,33.04],[-116.58,33.052],[-116.579,33.063],[-116.601,33.076],[-116.604,33.107]]]},"properties":{"SHAPE.AREA":1129024890.20911,"SHAPE.LEN":229295.223396847,"OBJECTID":194,"HRC":"SC","HBPA":"SD","RBU":4907,"HR":4,"RB":9,"HU":7,"HRNAME":"South Coast","RBNAME":"San Diego","HBPANAME":"San Diego","HUNAME":"SAN DIEGO","IDNUM":"4907"}},{"type":"Feature","id":190,"geometry":{"type":"Polygon","coordinates":[[[-116.619,33.164],[-116.644,33.156],[-116.662,33.165],[-116.683,33.158],[-116.71,33.166],[-116.727,33.189],[-116.749,33.197],[-116.752,33.21],[-116.771,33.213],[-116.774,33.224],[-116.797,33.219],[-116.845,33.243],[-116.867,33.23],[-116.903,33.235],[-116.904,33.225],[-116.931,33.207],[-116.931,33.185],[-116.944,33.181],[-116.948,33.171],[-116.977,33.172],[-116.995,33.16],[-117.011,33.161],[-117.028,33.12],[-117.054,33.123],[-117.068,33.107],[-117.092,33.106],[-117.101,33.095],[-117.123,33.097],[-117.133,33.083],[-117.127,33.075],[-117.135,33.053],[-117.161,33.058],[-117.194,33.037],[-117.187,33.025],[-117.214,33.016],[-117.219,33.005],[-117.263,33.003],[-117.275,32.992],[-117.267,32.954],[-117.265,32.949],[-117.24,32.959],[-117.198,32.96],[-117.124,32.988],[-117.106,32.979],[-117.068,33.001],[-117.022,32.994],[-117.007,32.999],[-116.981,32.991],[-116.941,33.006],[-116.914,32.996],[-116.909,33.003],[-116.848,33.008],[-116.823,33.037],[-116.747,33.04],[-116.719,33.076],[-116.695,33.07],[-116.688,33.075],[-116.687,33.093],[-116.666,33.095],[-116.656,33.122],[-116.582,33.104],[-116.584,33.139],[-116.605,33.151],[-116.614,33.148],[-116.619,33.164]]]},"properties":{"SHAPE.AREA":896636740.71724296,"SHAPE.LEN":200903.431245602,"OBJECTID":190,"HRC":"SC","HBPA":"SD","RBU":4905,"HR":4,"RB":9,"HU":5,"HRNAME":"South Coast","RBNAME":"San Diego","HBPANAME":"San Diego","HUNAME":"SAN DIEGUITO","IDNUM":"4905"}},{"type":"Feature","id":197,"geometry":{"type":"Polygon","coordinates":[[[-116.531,32.98],[-116.54,32.985],[-116.548,32.963],[-116.557,32.969],[-116.606,32.949],[-116.592,32.921],[-116.601,32.898],[-116.628,32.886],[-116.635,32.85],[-116.654,32.872],[-116.701,32.871],[-116.745,32.85],[-116.759,32.822],[-116.789,32.818],[-116.817,32.838],[-116.817,32.851],[-116.83,32.851],[-116.851,32.832],[-116.848,32.821],[-116.891,32.801],[-116.901,32.776],[-116.933,32.777],[-116.94,32.768],[-116.949,32.771],[-116.96,32.764],[-117.0,32.778],[-117.023,32.761],[-117.017,32.74],[-117.027,32.728],[-117.024,32.708],[-117.031,32.695],[-117.052,32.679],[-117.092,32.672],[-117.099,32.654],[-117.12,32.648],[-117.103,32.619],[-117.087,32.61],[-117.051,32.624],[-117.015,32.617],[-116.989,32.626],[-116.956,32.648],[-116.96,32.675],[-116.925,32.708],[-116.91,32.715],[-116.875,32.712],[-116.846,32.742],[-116.826,32.731],[-116.805,32.735],[-116.767,32.723],[-116.726,32.726],[-116.716,32.739],[-116.673,32.749],[-116.675,32.757],[-116.657,32.772],[-116.649,32.805],[-116.632,32.827],[-116.605,32.822],[-116.604,32.835],[-116.584,32.82],[-116.575,32.829],[-116.577,32.843],[-116.552,32.841],[-116.553,32.852],[-116.537,32.865],[-116.548,32.891],[-116.536,32.905],[-116.538,32.916],[-116.521,32.917],[-116.516,32.928],[-116.495,32.922],[-116.483,32.931],[-116.49,32.944],[-116.506,32.947],[-116.513,32.97],[-116.531,32.98]]]},"properties":{"SHAPE.AREA":594026830.75406504,"SHAPE.LEN":216090.65256107898,"OBJECTID":197,"HRC":"SC","HBPA":"SD","RBU":4909,"HR":4,"RB":9,"HU":9,"HRNAME":"South Coast","RBNAME":"San Diego","HBPANAME":"San Diego","HUNAME":"SWEETWATER","IDNUM":"4909"}},{"type":"Feature","id":199,"geometry":{"type":"Polygon","coordinates":[[[-116.487,32.928],[-116.495,32.922],[-116.516,32.928],[-116.521,32.917],[-116.538,32.916],[-116.536,32.905],[-116.548,32.891],[-116.537,32.865],[-116.553,32.852],[-116.552,32.841],[-116.577,32.843],[-116.575,32.829],[-116.584,32.82],[-116.604,32.835],[-116.605,32.822],[-116.632,32.827],[-116.649,32.805],[-116.657,32.772],[-116.675,32.757],[-116.673,32.749],[-116.742,32.726],[-116.746,32.706],[-116.712,32.681],[-116.724,32.667],[-116.72,32.645],[-116.733,32.648],[-116.747,32.64],[-116.761,32.618],[-116.787,32.615],[-116.808,32.598],[-116.841,32.601],[-116.854,32.589],[-116.849,32.58],[-116.865,32.572],[-116.905,32.58],[-116.927,32.565],[-116.958,32.581],[-117.014,32.566],[-117.04,32.584],[-117.057,32.57],[-117.133,32.58],[-117.125,32.534],[-116.289,32.604],[-116.296,32.625],[-116.317,32.646],[-116.314,32.673],[-116.324,32.684],[-116.322,32.697],[-116.348,32.725],[-116.346,32.748],[-116.36,32.765],[-116.368,32.792],[-116.361,32.803],[-116.368,32.814],[-116.358,32.832],[-116.369,32.831],[-116.387,32.863],[-116.411,32.862],[-116.42,32.892],[-116.43,32.897],[-116.445,32.889],[-116.466,32.901],[-116.453,32.913],[-116.46,32.925],[-116.476,32.921],[-116.487,32.928]]]},"properties":{"SHAPE.AREA":1210764650.3704801,"SHAPE.LEN":252792.79982284602,"OBJECTID":199,"HRC":"SC","HBPA":"SD","RBU":4911,"HR":4,"RB":9,"HU":11,"HRNAME":"South Coast","RBNAME":"San Diego","HBPANAME":"San Diego","HUNAME":"TIJUANA","IDNUM":"4911"}},{"type":"Feature","id":195,"geometry":{"type":"Polygon","coordinates":[[[-116.961,32.994],[-117.068,33.001],[-117.106,32.979],[-117.124,32.988],[-117.198,32.96],[-117.24,32.959],[-117.265,32.949],[-117.251,32.876],[-117.261,32.853],[-117.279,32.848],[-117.282,32.832],[-117.281,32.822],[-117.258,32.798],[-117.252,32.755],[-117.212,32.759],[-117.196,32.773],[-117.171,32.775],[-117.171,32.788],[-117.155,32.805],[-117.155,32.824],[-117.135,32.842],[-117.036,32.896],[-117.02,32.922],[-116.992,32.94],[-116.978,32.94],[-116.974,32.954],[-116.953,32.962],[-116.952,32.986],[-116.961,32.994]]]},"properties":{"SHAPE.AREA":420044136.858733,"SHAPE.LEN":109568.60130846301,"OBJECTID":195,"HRC":"SC","HBPA":"SD","RBU":4906,"HR":4,"RB":9,"HU":6,"HRNAME":"South Coast","RBNAME":"San Diego","HBPANAME":"San Diego","HUNAME":"PENASQUITOS","IDNUM":"4906"}},{"type":"Feature","id":201,"geometry":{"type":"Polygon","coordinates":[[[-116.742,32.726],[-116.767,32.723],[-116.805,32.735],[-116.826,32.731],[-116.85,32.741],[-116.875,32.712],[-116.91,32.715],[-116.925,32.708],[-116.96,32.675],[-116.956,32.648],[-116.989,32.626],[-117.014,32.617],[-117.049,32.624],[-117.087,32.61],[-117.098,32.615],[-117.116,32.6],[-117.132,32.61],[-117.128,32.62],[-117.137,32.63],[-117.132,32.631],[-117.138,32.631],[-117.161,32.668],[-117.154,32.678],[-117.175,32.68],[-117.166,32.68],[-117.166,32.697],[-117.205,32.715],[-117.222,32.706],[-117.227,32.694],[-117.224,32.682],[-117.199,32.689],[-117.161,32.663],[-117.14,32.626],[-117.133,32.58],[-117.057,32.57],[-117.04,32.584],[-117.014,32.566],[-116.958,32.581],[-116.927,32.565],[-116.905,32.58],[-116.865,32.572],[-116.849,32.58],[-116.854,32.589],[-116.841,32.601],[-116.805,32.599],[-116.787,32.615],[-116.761,32.618],[-116.735,32.647],[-116.72,32.645],[-116.724,32.667],[-116.712,32.682],[-116.746,32.706],[-116.742,32.726]]]},"properties":{"SHAPE.AREA":398147899.32771403,"SHAPE.LEN":159841.28031626699,"OBJECTID":201,"HRC":"SC","HBPA":"SD","RBU":4910,"HR":4,"RB":9,"HU":10,"HRNAME":"South Coast","RBNAME":"San Diego","HBPANAME":"San Diego","HUNAME":"OTAY","IDNUM":"4910"}},{"type":"Feature","id":188,"geometry":{"type":"Polygon","coordinates":[[[-117.26,33.345],[-117.278,33.347],[-117.287,33.336],[-117.298,33.341],[-117.302,33.329],[-117.316,33.325],[-117.332,33.279],[-117.34,33.275],[-117.339,33.258],[-117.379,33.232],[-117.384,33.209],[-117.392,33.203],[-117.383,33.192],[-117.314,33.223],[-117.277,33.226],[-117.269,33.219],[-117.212,33.232],[-117.193,33.226],[-117.185,33.212],[-117.148,33.215],[-117.133,33.199],[-117.087,33.219],[-117.047,33.205],[-117.04,33.196],[-116.963,33.197],[-116.954,33.209],[-116.917,33.214],[-116.903,33.226],[-116.903,33.235],[-116.867,33.23],[-116.846,33.243],[-116.797,33.219],[-116.774,33.224],[-116.771,33.213],[-116.752,33.21],[-116.749,33.197],[-116.727,33.189],[-116.71,33.166],[-116.683,33.158],[-116.662,33.165],[-116.644,33.156],[-116.619,33.163],[-116.63,33.195],[-116.625,33.207],[-116.586,33.203],[-116.555,33.185],[-116.541,33.197],[-116.503,33.199],[-116.49,33.223],[-116.498,33.254],[-116.533,33.247],[-116.543,33.253],[-116.525,33.28],[-116.531,33.294],[-116.546,33.298],[-116.56,33.314],[-116.554,33.321],[-116.562,33.335],[-116.546,33.343],[-116.547,33.357],[-116.566,33.379],[-116.588,33.374],[-116.618,33.407],[-116.639,33.4],[-116.643,33.388],[-116.661,33.379],[-116.715,33.369],[-116.749,33.345],[-116.757,33.328],[-116.824,33.361],[-116.856,33.363],[-116.865,33.357],[-116.942,33.369],[-116.957,33.395],[-116.977,33.402],[-116.99,33.421],[-117.01,33.414],[-117.066,33.437],[-117.096,33.43],[-117.099,33.418],[-117.116,33.417],[-117.126,33.408],[-117.143,33.412],[-117.189,33.403],[-117.196,33.394],[-117.237,33.384],[-117.262,33.355],[-117.26,33.345]]]},"properties":{"SHAPE.AREA":1451513101.6165199,"SHAPE.LEN":270500.869783937,"OBJECTID":188,"HRC":"SC","HBPA":"SD","RBU":4903,"HR":4,"RB":9,"HU":3,"HRNAME":"South Coast","RBNAME":"San Diego","HBPANAME":"San Diego","HUNAME":"SAN LUIS REY","IDNUM":"4903"}}]}