{"type":"FeatureCollection","features":[{"type":"Feature","id":71,"geometry":{"type":"Polygon","coordinates":[[[-118.518,37.961],[-118.524,37.951],[-118.537,37.949],[-118.555,37.874],[-118.567,37.854],[-118.561,37.833],[-118.568,37.798],[-118.561,37.794],[-118.562,37.778],[-118.571,37.761],[-118.566,37.73],[-118.582,37.708],[-118.602,37.715],[-118.622,37.707],[-118.626,37.723],[-118.653,37.736],[-118.656,37.746],[-118.671,37.74],[-118.696,37.75],[-118.701,37.766],[-118.721,37.779],[-118.752,37.77],[-118.787,37.777],[-118.827,37.793],[-118.826,37.805],[-118.843,37.805],[-118.857,37.817],[-118.875,37.809],[-118.882,37.817],[-118.899,37.8],[-118.917,37.818],[-118.932,37.805],[-118.959,37.815],[-118.981,37.798],[-119.019,37.8],[-119.013,37.792],[-119.018,37.776],[-119.05,37.77],[-119.06,37.748],[-119.088,37.724],[-119.106,37.719],[-119.065,37.685],[-119.055,37.645],[-119.031,37.628],[-119.035,37.606],[-119.023,37.585],[-118.974,37.56],[-118.947,37.565],[-118.93,37.549],[-118.916,37.55],[-118.902,37.526],[-118.892,37.526],[-118.881,37.51],[-118.861,37.502],[-118.855,37.478],[-118.796,37.489],[-118.762,37.457],[-118.76,37.435],[-118.769,37.423],[-118.78,37.421],[-118.79,37.394],[-118.768,37.362],[-118.782,37.357],[-118.786,37.344],[-118.739,37.316],[-118.716,37.329],[-118.664,37.261],[-118.683,37.244],[-118.686,37.228],[-118.678,37.22],[-118.68,37.204],[-118.666,37.19],[-118.664,37.178],[-118.673,37.168],[-118.654,37.141],[-118.593,37.138],[-118.585,37.124],[-118.568,37.123],[-118.565,37.114],[-118.531,37.112],[-118.485,37.077],[-118.436,37.06],[-118.434,37.05],[-118.441,37.046],[-118.423,37.027],[-118.427,37.012],[-118.413,37.0],[-118.421,36.991],[-118.408,36.981],[-118.404,36.958],[-118.388,36.946],[-118.361,36.888],[-118.37,36.871],[-118.362,36.845],[-118.393,36.831],[-118.374,36.8],[-118.38,36.784],[-118.369,36.75],[-118.339,36.729],[-118.334,36.706],[-118.367,36.692],[-118.347,36.672],[-118.329,36.668],[-118.337,36.656],[-118.318,36.64],[-118.322,36.628],[-118.275,36.598],[-118.289,36.59],[-118.291,36.559],[-118.265,36.552],[-118.249,36.537],[-118.248,36.523],[-118.238,36.522],[-118.242,36.5],[-118.235,36.493],[-118.25,36.484],[-118.216,36.456],[-118.212,36.431],[-118.185,36.426],[-118.156,36.433],[-118.139,36.418],[-118.142,36.404],[-118.16,36.397],[-118.164,36.389],[-118.132,36.371],[-118.122,36.35],[-118.101,36.346],[-118.098,36.332],[-118.115,36.32],[-118.11,36.309],[-118.128,36.299],[-118.12,36.256],[-118.1,36.216],[-118.085,36.213],[-118.052,36.226],[-118.018,36.209],[-117.976,36.23],[-117.92,36.228],[-117.901,36.241],[-117.891,36.235],[-117.863,36.239],[-117.845,36.227],[-117.81,36.237],[-117.798,36.234],[-117.784,36.188],[-117.761,36.181],[-117.721,36.208],[-117.707,36.207],[-117.711,36.224],[-117.689,36.223],[-117.662,36.237],[-117.652,36.271],[-117.665,36.28],[-117.676,36.339],[-117.653,36.354],[-117.661,36.358],[-117.662,36.375],[-117.735,36.419],[-117.753,36.481],[-117.739,36.507],[-117.775,36.519],[-117.778,36.529],[-117.802,36.544],[-117.83,36.592],[-117.853,36.608],[-117.915,36.626],[-117.942,36.665],[-117.955,36.673],[-117.962,36.707],[-117.979,36.717],[-118.0,36.752],[-118.005,36.804],[-118.022,36.816],[-118.018,36.836],[-118.048,36.882],[-118.038,36.922],[-118.045,36.961],[-118.052,36.975],[-118.122,37.01],[-118.121,37.034],[-118.127,37.042],[-118.119,37.074],[-118.099,37.073],[-118.031,37.096],[-118.045,37.111],[-118.047,37.136],[-118.064,37.144],[-118.055,37.151],[-118.071,37.17],[-118.034,37.183],[-118.039,37.19],[-118.026,37.197],[-118.022,37.215],[-118.097,37.213],[-118.118,37.201],[-118.125,37.203],[-118.124,37.216],[-118.152,37.238],[-118.14,37.265],[-118.143,37.292],[-118.182,37.312],[-118.197,37.31],[-118.192,37.339],[-118.176,37.365],[-118.176,37.394],[-118.186,37.396],[-118.187,37.416],[-118.199,37.428],[-118.197,37.454],[-118.189,37.457],[-118.183,37.479],[-118.214,37.506],[-118.216,37.525],[-118.232,37.537],[-118.234,37.556],[-118.249,37.576],[-118.239,37.591],[-118.235,37.622],[-118.255,37.634],[-118.258,37.651],[-118.267,37.658],[-118.264,37.667],[-118.28,37.688],[-118.285,37.732],[-118.3,37.741],[-118.296,37.751],[-118.323,37.756],[-118.343,37.784],[-118.358,37.831],[-118.354,37.843],[-118.518,37.961]]]},"properties":{"SHAPE.AREA":8107594762.2668304,"SHAPE.LEN":711363.58232809498,"OBJECTID":71,"HRC":"SL","HBPA":"SL","RBU":9603,"HR":9,"RB":6,"HU":3,"HRNAME":"South Lahontan","RBNAME":"Lahontan","HBPANAME":"South Lahontan","HUNAME":"OWENS","IDNUM":"9603"}},{"type":"Feature","id":8,"geometry":{"type":"Polygon","coordinates":[[[-120.278,41.714],[-120.254,41.71],[-120.255,41.691],[-120.297,41.667],[-120.288,41.633],[-120.278,41.629],[-120.27,41.61],[-120.273,41.588],[-120.259,41.571],[-120.278,41.553],[-120.277,41.542],[-120.292,41.531],[-120.29,41.525],[-120.298,41.524],[-120.262,41.496],[-120.241,41.466],[-120.244,41.448],[-120.228,41.438],[-120.219,41.419],[-120.23,41.394],[-120.215,41.376],[-120.217,41.35],[-120.198,41.341],[-120.202,41.288],[-120.184,41.269],[-120.185,41.251],[-120.171,41.238],[-120.139,41.231],[-120.132,41.205],[-120.149,41.153],[-120.183,41.138],[-120.147,41.121],[-120.128,41.126],[-120.112,41.119],[-120.114,41.09],[-120.122,41.086],[-120.11,41.064],[-120.097,41.078],[-120.048,41.094],[-120.043,41.104],[-120.002,41.09],[-119.999,41.885],[-120.016,41.897],[-120.022,41.896],[-120.018,41.887],[-120.064,41.904],[-120.074,41.928],[-120.089,41.937],[-120.111,41.939],[-120.12,41.948],[-120.148,41.949],[-120.166,41.971],[-120.187,41.977],[-120.198,41.962],[-120.206,41.965],[-120.23,41.949],[-120.226,41.935],[-120.246,41.936],[-120.255,41.929],[-120.26,41.912],[-120.242,41.886],[-120.245,41.872],[-120.216,41.85],[-120.206,41.823],[-120.217,41.759],[-120.237,41.758],[-120.236,41.739],[-120.278,41.714]]]},"properties":{"SHAPE.AREA":1746014385.52631,"SHAPE.LEN":266421.73198302096,"OBJECTID":8,"HRC":"NL","HBPA":"NL","RBU":8641,"HR":8,"RB":6,"HU":41,"HRNAME":"North Lahontan","RBNAME":"Lahontan","HBPANAME":"North Lahontan","HUNAME":"SUPRISE VALLEY","IDNUM":"8641"}},{"type":"Feature","id":86,"geometry":{"type":"Polygon","coordinates":[[[-117.661,37.339],[-117.709,37.313],[-117.701,37.305],[-117.704,37.287],[-117.685,37.26],[-117.672,37.254],[-117.669,37.236],[-117.655,37.227],[-117.649,37.209],[-117.622,37.197],[-117.626,37.164],[-117.597,37.108],[-117.611,37.079],[-117.609,37.063],[-117.6,37.045],[-117.584,37.042],[-117.578,37.019],[-117.58,36.977],[-117.603,36.94],[-117.587,36.912],[-117.561,36.903],[-117.568,36.877],[-117.561,36.863],[-117.527,36.869],[-117.49,36.863],[-117.467,36.874],[-117.468,36.824],[-117.45,36.807],[-117.455,36.791],[-117.429,36.735],[-117.446,36.699],[-117.404,36.664],[-117.416,36.627],[-117.444,36.62],[-117.447,36.611],[-117.479,36.594],[-117.478,36.56],[-117.51,36.542],[-117.483,36.522],[-117.473,36.526],[-117.43,36.507],[-117.425,36.494],[-117.386,36.472],[-117.349,36.428],[-117.322,36.438],[-117.316,36.42],[-117.298,36.419],[-117.291,36.402],[-117.227,36.383],[-117.222,36.371],[-117.202,36.361],[-117.195,36.37],[-117.193,36.353],[-117.148,36.34],[-117.125,36.317],[-117.092,36.308],[-117.089,36.285],[-117.057,36.269],[-117.057,36.242],[-117.093,36.207],[-117.084,36.183],[-117.089,36.17],[-117.063,36.115],[-117.078,36.098],[-117.064,36.088],[-117.057,36.05],[-117.042,36.028],[-117.075,35.979],[-117.09,35.977],[-117.11,35.954],[-117.113,35.922],[-117.091,35.902],[-117.033,35.888],[-117.047,35.879],[-117.058,35.844],[-117.066,35.84],[-117.058,35.816],[-117.065,35.795],[-117.055,35.776],[-117.068,35.734],[-117.06,35.714],[-117.037,35.705],[-117.046,35.697],[-117.041,35.691],[-117.017,35.686],[-116.983,35.657],[-116.973,35.638],[-116.978,35.631],[-116.934,35.624],[-116.904,35.63],[-116.9,35.644],[-116.917,35.653],[-116.922,35.677],[-116.882,35.732],[-116.883,35.75],[-116.864,35.781],[-116.806,35.792],[-116.782,35.777],[-116.772,35.793],[-116.775,35.806],[-116.728,35.838],[-116.711,35.823],[-116.714,35.799],[-116.644,35.766],[-116.623,35.726],[-116.641,35.691],[-116.671,35.668],[-116.7,35.672],[-116.696,35.658],[-116.668,35.638],[-116.655,35.614],[-116.592,35.588],[-116.516,35.573],[-116.519,35.554],[-116.511,35.538],[-116.526,35.537],[-116.539,35.525],[-116.552,35.532],[-116.567,35.524],[-116.565,35.506],[-116.58,35.479],[-116.574,35.467],[-116.6,35.444],[-116.587,35.435],[-116.645,35.379],[-116.644,35.36],[-116.627,35.355],[-116.614,35.322],[-116.573,35.316],[-116.554,35.292],[-116.541,35.302],[-116.527,35.298],[-116.522,35.316],[-116.491,35.326],[-116.447,35.328],[-116.406,35.312],[-116.387,35.298],[-116.361,35.237],[-116.275,35.183],[-116.268,35.194],[-116.255,35.193],[-116.242,35.204],[-116.237,35.234],[-116.222,35.245],[-116.228,35.247],[-116.221,35.27],[-116.197,35.282],[-116.18,35.273],[-116.151,35.31],[-116.158,35.324],[-116.15,35.331],[-116.166,35.356],[-116.165,35.387],[-116.087,35.397],[-116.064,35.427],[-115.996,35.417],[-115.988,35.397],[-115.927,35.423],[-115.923,35.436],[-115.934,35.442],[-115.925,35.458],[-115.89,35.468],[-115.878,35.458],[-115.843,35.457],[-115.833,35.449],[-115.832,35.433],[-115.788,35.402],[-115.79,35.387],[-115.779,35.382],[-115.778,35.365],[-115.798,35.344],[-115.78,35.336],[-115.783,35.324],[-115.72,35.325],[-115.692,35.308],[-115.667,35.316],[-115.644,35.296],[-115.601,35.287],[-115.524,35.32],[-115.502,35.374],[-115.509,35.389],[-115.494,35.389],[-115.484,35.402],[-115.478,35.435],[-115.547,35.453],[-115.541,35.485],[-115.577,35.53],[-115.557,35.542],[-115.558,35.57],[-115.59,35.573],[-115.597,35.592],[-115.634,35.625],[-115.636,35.658],[-115.671,35.684],[-115.673,35.695],[-115.709,35.689],[-115.723,35.693],[-115.727,35.704],[-115.774,35.718],[-115.795,35.708],[-115.813,35.712],[-115.832,35.729],[-115.874,35.73],[-115.889,35.745],[-115.901,35.746],[-115.894,35.773],[-115.881,35.777],[-115.877,35.82],[-115.889,35.837],[-115.912,35.85],[-115.92,35.881],[-115.974,35.908],[-115.981,35.93],[-115.969,35.942],[-115.98,35.946],[-115.974,35.957],[-116.058,35.984],[-116.073,36.014],[-116.085,36.018],[-116.087,36.044],[-116.099,36.06],[-116.124,36.076],[-116.133,36.095],[-116.16,36.119],[-116.195,36.131],[-116.208,36.167],[-116.199,36.172],[-116.199,36.186],[-116.227,36.186],[-116.222,36.198],[-116.23,36.221],[-116.221,36.238],[-116.255,36.251],[-116.258,36.263],[-116.251,36.277],[-117.661,37.339]]]},"properties":{"SHAPE.AREA":15221700413.0277,"SHAPE.LEN":949589.733836008,"OBJECTID":86,"HRC":"SL","HBPA":"SL","RBU":9609,"HR":9,"RB":6,"HU":9,"HRNAME":"South Lahontan","RBNAME":"Lahontan","HBPANAME":"South Lahontan","HUNAME":"AMARGOSA","IDNUM":"9609"}},{"type":"Feature","id":100,"geometry":{"type":"Polygon","coordinates":[[[-117.739,36.507],[-117.753,36.481],[-117.735,36.419],[-117.672,36.386],[-117.653,36.354],[-117.676,36.339],[-117.665,36.28],[-117.652,36.271],[-117.658,36.248],[-117.673,36.23],[-117.714,36.222],[-117.706,36.213],[-117.718,36.192],[-117.717,36.177],[-117.69,36.17],[-117.687,36.145],[-117.669,36.119],[-117.644,36.12],[-117.62,36.092],[-117.598,36.085],[-117.604,36.071],[-117.588,36.062],[-117.596,36.05],[-117.558,36.061],[-117.556,36.071],[-117.541,36.061],[-117.539,36.042],[-117.555,36.03],[-117.523,35.997],[-117.516,35.986],[-117.523,35.978],[-117.506,35.965],[-117.504,35.949],[-117.494,35.941],[-117.511,35.924],[-117.501,35.919],[-117.449,35.948],[-117.44,35.939],[-117.425,35.938],[-117.376,35.967],[-117.361,35.962],[-117.349,35.972],[-117.303,35.943],[-117.288,35.915],[-117.283,35.879],[-117.267,35.862],[-117.24,35.853],[-117.233,35.831],[-117.206,35.808],[-117.186,35.774],[-117.183,35.732],[-117.161,35.707],[-117.145,35.665],[-117.161,35.656],[-117.164,35.628],[-117.225,35.605],[-117.222,35.583],[-117.264,35.522],[-117.264,35.502],[-117.243,35.439],[-117.249,35.408],[-117.227,35.398],[-117.209,35.405],[-117.196,35.423],[-117.177,35.42],[-117.164,35.437],[-117.143,35.43],[-117.134,35.441],[-117.097,35.427],[-117.078,35.43],[-117.075,35.409],[-117.06,35.399],[-117.031,35.399],[-117.018,35.391],[-116.998,35.396],[-116.966,35.38],[-116.957,35.388],[-116.937,35.389],[-116.931,35.416],[-116.914,35.417],[-116.903,35.408],[-116.884,35.415],[-116.883,35.436],[-116.896,35.449],[-116.879,35.456],[-116.861,35.487],[-116.902,35.533],[-116.893,35.541],[-116.876,35.536],[-116.853,35.55],[-116.855,35.585],[-116.882,35.61],[-116.884,35.629],[-116.902,35.627],[-116.907,35.633],[-116.934,35.624],[-116.977,35.63],[-116.973,35.638],[-116.996,35.671],[-117.017,35.686],[-117.041,35.69],[-117.046,35.697],[-117.038,35.706],[-117.06,35.714],[-117.068,35.735],[-117.055,35.777],[-117.065,35.795],[-117.058,35.816],[-117.066,35.84],[-117.058,35.844],[-117.047,35.879],[-117.033,35.888],[-117.091,35.901],[-117.113,35.92],[-117.11,35.954],[-117.09,35.977],[-117.075,35.979],[-117.042,36.028],[-117.057,36.05],[-117.064,36.088],[-117.078,36.098],[-117.063,36.115],[-117.089,36.17],[-117.084,36.183],[-117.093,36.207],[-117.057,36.242],[-117.057,36.27],[-117.089,36.285],[-117.092,36.308],[-117.125,36.317],[-117.148,36.34],[-117.193,36.353],[-117.195,36.37],[-117.202,36.361],[-117.222,36.371],[-117.227,36.383],[-117.291,36.402],[-117.298,36.419],[-117.316,36.42],[-117.322,36.438],[-117.349,36.428],[-117.386,36.472],[-117.425,36.494],[-117.43,36.507],[-117.473,36.526],[-117.483,36.522],[-117.509,36.541],[-117.578,36.521],[-117.59,36.533],[-117.639,36.545],[-117.686,36.581],[-117.708,36.554],[-117.711,36.518],[-117.739,36.507]]]},"properties":{"SHAPE.AREA":4234522958.6580901,"SHAPE.LEN":485683.13489528099,"OBJECTID":100,"HRC":"SL","HBPA":"SL","RBU":9620,"HR":9,"RB":6,"HU":20,"HRNAME":"South Lahontan","RBNAME":"Lahontan","HBPANAME":"South Lahontan","HUNAME":"BALLARAT","IDNUM":"9620"}},{"type":"Feature","id":106,"geometry":{"type":"Polygon","coordinates":[[[-117.785,36.19],[-117.797,36.186],[-117.798,36.171],[-117.786,36.16],[-117.793,36.148],[-117.776,36.119],[-117.781,36.087],[-117.812,36.079],[-117.808,36.07],[-117.819,36.063],[-117.814,36.052],[-117.823,36.03],[-117.812,36.016],[-117.824,36.001],[-117.817,35.984],[-117.832,35.981],[-117.825,35.978],[-117.832,35.956],[-117.814,35.943],[-117.818,35.928],[-117.754,35.882],[-117.68,35.857],[-117.596,35.935],[-117.53,35.923],[-117.497,35.937],[-117.506,35.964],[-117.523,35.979],[-117.516,35.986],[-117.523,35.997],[-117.555,36.029],[-117.539,36.042],[-117.541,36.061],[-117.556,36.071],[-117.558,36.061],[-117.596,36.05],[-117.588,36.062],[-117.604,36.071],[-117.598,36.085],[-117.62,36.092],[-117.644,36.12],[-117.669,36.119],[-117.687,36.145],[-117.69,36.17],[-117.717,36.177],[-117.713,36.203],[-117.719,36.209],[-117.761,36.181],[-117.785,36.19]]]},"properties":{"SHAPE.AREA":648651722.52325296,"SHAPE.LEN":141675.435613104,"OBJECTID":106,"HRC":"SL","HBPA":"SL","RBU":9622,"HR":9,"RB":6,"HU":22,"HRNAME":"South Lahontan","RBNAME":"Lahontan","HBPANAME":"South Lahontan","HUNAME":"COSO","IDNUM":"9622"}},{"type":"Feature","id":45,"geometry":{"type":"Polygon","coordinates":[[[-120.246,39.148],[-120.247,39.125],[-120.234,39.112],[-120.252,39.084],[-120.233,39.077],[-120.225,39.064],[-120.198,39.066],[-120.201,39.048],[-120.192,39.046],[-120.189,39.029],[-120.206,39.02],[-120.204,39.012],[-120.184,38.983],[-120.158,38.981],[-120.141,38.965],[-120.151,38.949],[-120.147,38.934],[-120.164,38.923],[-120.151,38.901],[-120.153,38.885],[-120.112,38.855],[-120.098,38.83],[-120.044,38.832],[-120.03,38.823],[-120.028,38.807],[-120.054,38.795],[-120.046,38.763],[-120.052,38.74],[-120.036,38.735],[-120.017,38.709],[-120.004,38.704],[-119.99,38.709],[-119.982,38.761],[-119.971,38.764],[-119.967,38.777],[-119.948,38.782],[-119.942,38.803],[-119.921,38.822],[-119.923,38.83],[-119.909,38.834],[-119.906,38.856],[-119.892,38.857],[-119.877,38.871],[-119.889,38.879],[-119.879,38.887],[-119.887,38.918],[-120.007,39.003],[-120.007,39.283],[-120.017,39.292],[-120.033,39.292],[-120.033,39.284],[-120.051,39.28],[-120.054,39.267],[-120.14,39.241],[-120.147,39.22],[-120.18,39.213],[-120.182,39.191],[-120.17,39.185],[-120.178,39.159],[-120.218,39.162],[-120.246,39.148]]]},"properties":{"SHAPE.AREA":960168955.13088596,"SHAPE.LEN":189976.389498164,"OBJECTID":45,"HRC":"NL","HBPA":"NL","RBU":8634,"HR":8,"RB":6,"HU":34,"HRNAME":"North Lahontan","RBNAME":"Lahontan","HBPANAME":"North Lahontan","HUNAME":"LAKE TAHOE","IDNUM":"8634"}},{"type":"Feature","id":16,"geometry":{"type":"Polygon","coordinates":[[[-120.11,41.064],[-120.129,41.053],[-120.135,41.033],[-120.123,41.02],[-120.123,41.001],[-120.101,40.981],[-120.067,40.973],[-120.05,40.935],[-120.025,40.936],[-120.0,40.911],[-120.0,41.091],[-120.043,41.104],[-120.048,41.094],[-120.097,41.078],[-120.11,41.064]]]},"properties":{"SHAPE.AREA":151514458.103257,"SHAPE.LEN":59308.638481047208,"OBJECTID":16,"HRC":"NL","HBPA":"NL","RBU":8640,"HR":8,"RB":6,"HU":40,"HRNAME":"North Lahontan","RBNAME":"Lahontan","HBPANAME":"North Lahontan","HUNAME":"DUCK FLAT","IDNUM":"8640"}},{"type":"Feature","id":120,"geometry":{"type":"Polygon","coordinates":[[[-116.697,35.47],[-116.738,35.42],[-116.742,35.404],[-116.783,35.378],[-116.785,35.366],[-116.806,35.363],[-116.803,35.351],[-116.827,35.332],[-116.833,35.313],[-116.853,35.307],[-116.839,35.286],[-116.818,35.281],[-116.804,35.266],[-116.819,35.241],[-116.79,35.233],[-116.764,35.261],[-116.752,35.257],[-116.74,35.271],[-116.7,35.29],[-116.666,35.282],[-116.636,35.251],[-116.601,35.273],[-116.58,35.274],[-116.551,35.288],[-116.573,35.316],[-116.614,35.322],[-116.627,35.355],[-116.644,35.36],[-116.649,35.372],[-116.61,35.419],[-116.587,35.435],[-116.6,35.442],[-116.597,35.452],[-116.616,35.449],[-116.642,35.465],[-116.697,35.47]]]},"properties":{"SHAPE.AREA":355713290.88890201,"SHAPE.LEN":111481.92939404299,"OBJECTID":120,"HRC":"SL","HBPA":"SL","RBU":9616,"HR":9,"RB":6,"HU":16,"HRNAME":"South Lahontan","RBNAME":"Lahontan","HBPANAME":"South Lahontan","HUNAME":"BICYCLE","IDNUM":"9616"}},{"type":"Feature","id":118,"geometry":{"type":"Polygon","coordinates":[[[-116.876,35.536],[-116.893,35.541],[-116.902,35.533],[-116.861,35.487],[-116.879,35.456],[-116.896,35.449],[-116.883,35.436],[-116.886,35.414],[-116.86,35.401],[-116.862,35.384],[-116.848,35.374],[-116.84,35.372],[-116.832,35.386],[-116.814,35.365],[-116.785,35.366],[-116.783,35.378],[-116.742,35.404],[-116.738,35.42],[-116.697,35.47],[-116.706,35.475],[-116.711,35.494],[-116.745,35.509],[-116.748,35.519],[-116.759,35.512],[-116.777,35.515],[-116.804,35.53],[-116.849,35.523],[-116.876,35.536]]]},"properties":{"SHAPE.AREA":221256493.24329099,"SHAPE.LEN":72888.747554622707,"OBJECTID":118,"HRC":"SL","HBPA":"SL","RBU":9615,"HR":9,"RB":6,"HU":15,"HRNAME":"South Lahontan","RBNAME":"Lahontan","HBPANAME":"South Lahontan","HUNAME":"GRANITE","IDNUM":"9615"}},{"type":"Feature","id":127,"geometry":{"type":"Polygon","coordinates":[[[-116.966,35.38],[-116.986,35.366],[-116.984,35.355],[-116.957,35.34],[-116.932,35.309],[-116.935,35.301],[-116.89,35.271],[-116.883,35.25],[-116.874,35.252],[-116.858,35.238],[-116.819,35.241],[-116.804,35.266],[-116.854,35.304],[-116.846,35.313],[-116.833,35.313],[-116.827,35.332],[-116.803,35.351],[-116.819,35.377],[-116.833,35.386],[-116.84,35.372],[-116.848,35.374],[-116.862,35.384],[-116.86,35.401],[-116.873,35.411],[-116.904,35.408],[-116.923,35.418],[-116.931,35.416],[-116.937,35.389],[-116.957,35.388],[-116.966,35.38]]]},"properties":{"SHAPE.AREA":180835482.35588399,"SHAPE.LEN":73720.238962644202,"OBJECTID":127,"HRC":"SL","HBPA":"SL","RBU":9617,"HR":9,"RB":6,"HU":17,"HRNAME":"South Lahontan","RBNAME":"Lahontan","HBPANAME":"South Lahontan","HUNAME":"GOLDSTONE","IDNUM":"9617"}},{"type":"Feature","id":39,"geometry":{"type":"Polygon","coordinates":[[[-120.097,39.592],[-120.088,39.577],[-120.091,39.554],[-120.083,39.527],[-120.051,39.525],[-120.055,39.516],[-120.041,39.472],[-120.059,39.44],[-120.042,39.411],[-120.042,39.395],[-120.072,39.385],[-120.097,39.39],[-120.119,39.38],[-120.146,39.393],[-120.161,39.418],[-120.189,39.431],[-120.25,39.404],[-120.327,39.416],[-120.364,39.408],[-120.359,39.401],[-120.365,39.384],[-120.341,39.359],[-120.338,39.338],[-120.322,39.325],[-120.326,39.315],[-120.316,39.299],[-120.327,39.288],[-120.297,39.265],[-120.264,39.223],[-120.287,39.198],[-120.27,39.181],[-120.249,39.18],[-120.246,39.17],[-120.253,39.165],[-120.246,39.148],[-120.218,39.162],[-120.178,39.159],[-120.17,39.185],[-120.182,39.191],[-120.18,39.213],[-120.147,39.22],[-120.14,39.241],[-120.054,39.267],[-120.051,39.28],[-120.033,39.284],[-120.033,39.292],[-120.017,39.292],[-120.005,39.28],[-120.002,39.58],[-120.031,39.584],[-120.057,39.601],[-120.097,39.592]]]},"properties":{"SHAPE.AREA":665234349.06782496,"SHAPE.LEN":180120.19564437799,"OBJECTID":39,"HRC":"NL","HBPA":"NL","RBU":8635,"HR":8,"RB":6,"HU":35,"HRNAME":"North Lahontan","RBNAME":"Lahontan","HBPANAME":"North Lahontan","HUNAME":"TRUCKEE RIVER","IDNUM":"8635"}},{"type":"Feature","id":7,"geometry":{"type":"Polygon","coordinates":[[[-120.208,41.994],[-120.185,41.974],[-120.166,41.971],[-120.148,41.949],[-120.089,41.937],[-120.069,41.922],[-120.064,41.904],[-120.018,41.887],[-120.022,41.896],[-120.016,41.897],[-119.999,41.885],[-119.999,41.995],[-120.208,41.994]]]},"properties":{"SHAPE.AREA":116529063.551634,"SHAPE.LEN":57113.281314552696,"OBJECTID":7,"HRC":"NL","HBPA":"NL","RBU":8642,"HR":8,"RB":6,"HU":42,"HRNAME":"North Lahontan","RBNAME":"Lahontan","HBPANAME":"North Lahontan","HUNAME":"COW HEAD LAKE","IDNUM":"8642"}},{"type":"Feature","id":125,"geometry":{"type":"Polygon","coordinates":[[[-117.32,35.339],[-117.338,35.354],[-117.343,35.375],[-117.421,35.38],[-117.468,35.397],[-117.516,35.428],[-117.555,35.416],[-117.565,35.403],[-117.562,35.388],[-117.586,35.367],[-117.587,35.353],[-117.616,35.353],[-117.64,35.362],[-117.65,35.351],[-117.674,35.351],[-117.688,35.328],[-117.631,35.271],[-117.534,35.246],[-117.509,35.218],[-117.473,35.21],[-117.456,35.194],[-117.457,35.222],[-117.432,35.233],[-117.38,35.213],[-117.366,35.216],[-117.333,35.206],[-117.322,35.211],[-117.3,35.245],[-117.29,35.277],[-117.315,35.299],[-117.31,35.314],[-117.32,35.319],[-117.32,35.339]]]},"properties":{"SHAPE.AREA":536021809.62945199,"SHAPE.LEN":115612.99524855301,"OBJECTID":125,"HRC":"SL","HBPA":"SL","RBU":9627,"HR":9,"RB":6,"HU":27,"HRNAME":"South Lahontan","RBNAME":"Lahontan","HBPANAME":"South Lahontan","HUNAME":"CUDDEBACK","IDNUM":"9627"}},{"type":"Feature","id":21,"geometry":{"type":"Polygon","coordinates":[[[-120.856,40.824],[-120.891,40.809],[-120.882,40.799],[-120.889,40.794],[-120.906,40.803],[-120.928,40.771],[-120.927,40.763],[-120.966,40.74],[-121.076,40.739],[-121.118,40.753],[-121.104,40.728],[-121.122,40.702],[-121.1,40.684],[-121.078,40.64],[-121.052,40.623],[-121.058,40.614],[-121.093,40.603],[-121.101,40.59],[-121.135,40.598],[-121.153,40.592],[-121.15,40.576],[-121.169,40.562],[-121.204,40.569],[-121.213,40.552],[-121.243,40.533],[-121.253,40.514],[-121.247,40.496],[-121.224,40.502],[-121.2,40.482],[-121.171,40.472],[-121.145,40.478],[-121.137,40.488],[-121.117,40.475],[-121.098,40.485],[-121.05,40.482],[-121.048,40.463],[-120.986,40.42],[-120.94,40.407],[-120.92,40.392],[-120.865,40.372],[-120.864,40.345],[-120.871,40.338],[-120.843,40.313],[-120.832,40.288],[-120.815,40.278],[-120.788,40.284],[-120.757,40.32],[-120.735,40.318],[-120.709,40.299],[-120.694,40.313],[-120.661,40.308],[-120.622,40.282],[-120.597,40.29],[-120.553,40.255],[-120.497,40.239],[-120.484,40.207],[-120.45,40.201],[-120.432,40.171],[-120.409,40.162],[-120.412,40.155],[-120.4,40.145],[-120.402,40.132],[-120.368,40.125],[-120.359,40.13],[-120.289,40.108],[-120.276,40.115],[-120.261,40.095],[-120.225,40.081],[-120.198,40.053],[-120.212,40.045],[-120.201,40.032],[-120.2,40.012],[-120.174,40.003],[-120.177,39.995],[-120.154,39.955],[-120.131,39.958],[-120.123,39.936],[-120.103,39.92],[-120.101,39.898],[-120.108,39.886],[-120.103,39.877],[-120.116,39.872],[-120.122,39.856],[-120.103,39.834],[-120.102,39.807],[-120.11,39.795],[-120.101,39.777],[-120.12,39.76],[-120.124,39.743],[-120.149,39.731],[-120.149,39.707],[-120.135,39.696],[-120.143,39.684],[-120.136,39.664],[-120.14,39.651],[-120.108,39.614],[-120.102,39.592],[-120.057,39.601],[-120.031,39.584],[-120.002,39.58],[-119.996,40.491],[-120.005,40.484],[-120.014,40.49],[-120.042,40.483],[-120.076,40.499],[-120.073,40.535],[-120.124,40.565],[-120.11,40.587],[-120.121,40.607],[-120.107,40.624],[-120.189,40.649],[-120.208,40.672],[-120.214,40.692],[-120.194,40.708],[-120.229,40.743],[-120.34,40.697],[-120.343,40.716],[-120.353,40.723],[-120.376,40.731],[-120.417,40.73],[-120.44,40.77],[-120.438,40.778],[-120.452,40.773],[-120.526,40.788],[-120.546,40.783],[-120.561,40.755],[-120.572,40.751],[-120.61,40.756],[-120.655,40.751],[-120.669,40.768],[-120.692,40.76],[-120.723,40.767],[-120.758,40.794],[-120.793,40.779],[-120.814,40.788],[-120.822,40.764],[-120.815,40.755],[-120.831,40.745],[-120.852,40.761],[-120.841,40.773],[-120.856,40.824]]]},"properties":{"SHAPE.AREA":5750977970.8254004,"SHAPE.LEN":535121.09339425399,"OBJECTID":21,"HRC":"NL","HBPA":"NL","RBU":8637,"HR":8,"RB":6,"HU":37,"HRNAME":"North Lahontan","RBNAME":"Lahontan","HBPANAME":"North Lahontan","HUNAME":"SUSANVILLE","IDNUM":"8637"}},{"type":"Feature","id":67,"geometry":{"type":"Polygon","coordinates":[[[-118.702,38.092],[-118.72,38.062],[-118.752,38.061],[-118.789,38.044],[-118.794,38.034],[-118.785,38.017],[-118.799,37.995],[-118.797,37.986],[-118.838,37.949],[-118.837,37.914],[-118.854,37.91],[-118.849,37.897],[-118.862,37.86],[-118.838,37.836],[-118.857,37.817],[-118.843,37.805],[-118.826,37.805],[-118.827,37.793],[-118.787,37.777],[-118.752,37.77],[-118.721,37.779],[-118.701,37.766],[-118.696,37.75],[-118.671,37.74],[-118.656,37.746],[-118.653,37.736],[-118.626,37.723],[-118.622,37.707],[-118.602,37.715],[-118.582,37.708],[-118.566,37.73],[-118.571,37.761],[-118.562,37.778],[-118.561,37.794],[-118.568,37.798],[-118.561,37.833],[-118.567,37.854],[-118.555,37.874],[-118.537,37.949],[-118.524,37.951],[-118.518,37.961],[-118.702,38.092]]]},"properties":{"SHAPE.AREA":793086851.48174906,"SHAPE.LEN":134145.44321267301,"OBJECTID":67,"HRC":"SL","HBPA":"SL","RBU":9602,"HR":9,"RB":6,"HU":2,"HRNAME":"South Lahontan","RBNAME":"Lahontan","HBPANAME":"South Lahontan","HUNAME":"ADOBE","IDNUM":"9602"}},{"type":"Feature","id":38,"geometry":{"type":"Polygon","coordinates":[[[-120.102,39.592],[-120.107,39.574],[-120.122,39.572],[-120.121,39.557],[-120.195,39.539],[-120.206,39.55],[-120.231,39.524],[-120.251,39.529],[-120.254,39.52],[-120.302,39.498],[-120.345,39.505],[-120.376,39.497],[-120.41,39.517],[-120.44,39.515],[-120.438,39.484],[-120.452,39.462],[-120.465,39.455],[-120.465,39.437],[-120.455,39.432],[-120.455,39.419],[-120.422,39.436],[-120.418,39.419],[-120.373,39.426],[-120.359,39.407],[-120.327,39.416],[-120.25,39.404],[-120.189,39.431],[-120.161,39.418],[-120.146,39.393],[-120.119,39.38],[-120.097,39.39],[-120.072,39.385],[-120.065,39.392],[-120.047,39.392],[-120.042,39.411],[-120.059,39.44],[-120.041,39.472],[-120.055,39.516],[-120.051,39.525],[-120.083,39.527],[-120.091,39.554],[-120.088,39.577],[-120.102,39.592]]]},"properties":{"SHAPE.AREA":447329971.58180702,"SHAPE.LEN":128660.83330312101,"OBJECTID":38,"HRC":"NL","HBPA":"NL","RBU":8636,"HR":8,"RB":6,"HU":36,"HRNAME":"North Lahontan","RBNAME":"Lahontan","HBPANAME":"North Lahontan","HUNAME":"LITTLE TRUCKEE RIVER","IDNUM":"8636"}},{"type":"Feature","id":24,"geometry":{"type":"Polygon","coordinates":[[[-119.998,40.709],[-120.018,40.721],[-120.018,40.729],[-120.056,40.729],[-120.067,40.752],[-120.084,40.754],[-120.114,40.774],[-120.175,40.774],[-120.245,40.743],[-120.221,40.738],[-120.194,40.708],[-120.214,40.692],[-120.208,40.672],[-120.189,40.649],[-120.107,40.624],[-120.121,40.607],[-120.11,40.587],[-120.124,40.565],[-120.075,40.537],[-120.07,40.528],[-120.076,40.5],[-120.042,40.483],[-120.014,40.49],[-120.005,40.484],[-119.996,40.491],[-119.998,40.709]]]},"properties":{"SHAPE.AREA":372339004.29229701,"SHAPE.LEN":102243.36231176399,"OBJECTID":24,"HRC":"NL","HBPA":"NL","RBU":8639,"HR":8,"RB":6,"HU":39,"HRNAME":"North Lahontan","RBNAME":"Lahontan","HBPANAME":"North Lahontan","HUNAME":"SMOKE CREEK","IDNUM":"8639"}},{"type":"Feature","id":110,"geometry":{"type":"Polygon","coordinates":[[[-117.273,35.875],[-117.283,35.879],[-117.288,35.915],[-117.303,35.943],[-117.349,35.972],[-117.361,35.962],[-117.376,35.967],[-117.425,35.938],[-117.45,35.947],[-117.504,35.92],[-117.503,35.908],[-117.483,35.908],[-117.459,35.895],[-117.459,35.86],[-117.446,35.854],[-117.475,35.843],[-117.449,35.804],[-117.457,35.805],[-117.461,35.787],[-117.47,35.793],[-117.478,35.788],[-117.477,35.773],[-117.458,35.755],[-117.499,35.739],[-117.497,35.728],[-117.53,35.713],[-117.553,35.706],[-117.568,35.715],[-117.595,35.709],[-117.601,35.693],[-117.59,35.687],[-117.601,35.658],[-117.585,35.637],[-117.596,35.624],[-117.571,35.58],[-117.554,35.575],[-117.59,35.55],[-117.656,35.536],[-117.671,35.495],[-117.686,35.483],[-117.681,35.463],[-117.668,35.458],[-117.595,35.472],[-117.554,35.466],[-117.54,35.437],[-117.555,35.416],[-117.516,35.428],[-117.468,35.397],[-117.421,35.38],[-117.343,35.375],[-117.338,35.354],[-117.323,35.348],[-117.322,35.34],[-117.302,35.338],[-117.288,35.327],[-117.26,35.326],[-117.221,35.336],[-117.22,35.352],[-117.23,35.363],[-117.219,35.385],[-117.227,35.398],[-117.25,35.411],[-117.243,35.439],[-117.264,35.521],[-117.222,35.583],[-117.225,35.605],[-117.164,35.628],[-117.161,35.656],[-117.145,35.67],[-117.161,35.707],[-117.183,35.732],[-117.18,35.744],[-117.193,35.787],[-117.233,35.831],[-117.24,35.853],[-117.267,35.862],[-117.273,35.875]]]},"properties":{"SHAPE.AREA":1851579347.28248,"SHAPE.LEN":260195.916928244,"OBJECTID":110,"HRC":"SL","HBPA":"SL","RBU":9621,"HR":9,"RB":6,"HU":21,"HRNAME":"South Lahontan","RBNAME":"Lahontan","HBPANAME":"South Lahontan","HUNAME":"TRONA","IDNUM":"9621"}},{"type":"Feature","id":51,"geometry":{"type":"Polygon","coordinates":[[[-119.584,38.711],[-119.755,38.831],[-119.75,38.81],[-119.763,38.779],[-119.787,38.79],[-119.813,38.766],[-119.86,38.749],[-119.876,38.73],[-119.907,38.724],[-119.91,38.712],[-119.9,38.698],[-119.933,38.644],[-119.914,38.624],[-119.925,38.612],[-119.908,38.596],[-119.873,38.606],[-119.847,38.596],[-119.833,38.551],[-119.8,38.54],[-119.79,38.522],[-119.769,38.517],[-119.773,38.502],[-119.758,38.492],[-119.768,38.486],[-119.767,38.476],[-119.735,38.471],[-119.727,38.464],[-119.729,38.443],[-119.705,38.454],[-119.688,38.448],[-119.678,38.437],[-119.687,38.431],[-119.681,38.402],[-119.636,38.354],[-119.607,38.367],[-119.619,38.383],[-119.619,38.397],[-119.602,38.406],[-119.584,38.397],[-119.562,38.409],[-119.57,38.435],[-119.556,38.447],[-119.556,38.47],[-119.542,38.481],[-119.543,38.5],[-119.559,38.505],[-119.556,38.515],[-119.584,38.552],[-119.596,38.59],[-119.619,38.604],[-119.621,38.613],[-119.614,38.666],[-119.599,38.671],[-119.579,38.706],[-119.584,38.711]]]},"properties":{"SHAPE.AREA":900130519.78585696,"SHAPE.LEN":171626.16572645001,"OBJECTID":51,"HRC":"NL","HBPA":"NL","RBU":8632,"HR":8,"RB":6,"HU":32,"HRNAME":"North Lahontan","RBNAME":"Lahontan","HBPANAME":"North Lahontan","HUNAME":"EAST FORK CARSON RIVER","IDNUM":"8632"}},{"type":"Feature","id":116,"geometry":{"type":"Polygon","coordinates":[[[-116.698,35.664],[-116.711,35.646],[-116.747,35.642],[-116.744,35.623],[-116.764,35.618],[-116.745,35.606],[-116.778,35.613],[-116.806,35.603],[-116.882,35.628],[-116.882,35.61],[-116.859,35.593],[-116.853,35.576],[-116.853,35.55],[-116.876,35.536],[-116.849,35.523],[-116.804,35.53],[-116.777,35.515],[-116.759,35.512],[-116.748,35.519],[-116.745,35.509],[-116.711,35.494],[-116.701,35.47],[-116.643,35.465],[-116.616,35.449],[-116.584,35.453],[-116.574,35.467],[-116.58,35.481],[-116.565,35.506],[-116.564,35.527],[-116.551,35.532],[-116.539,35.525],[-116.526,35.537],[-116.511,35.538],[-116.519,35.554],[-116.516,35.573],[-116.592,35.588],[-116.658,35.615],[-116.668,35.638],[-116.698,35.664]]]},"properties":{"SHAPE.AREA":399516314.63006401,"SHAPE.LEN":116415.22451745901,"OBJECTID":116,"HRC":"SL","HBPA":"SL","RBU":9614,"HR":9,"RB":6,"HU":14,"HRNAME":"South Lahontan","RBNAME":"Lahontan","HBPANAME":"South Lahontan","HUNAME":"LEACH","IDNUM":"9614"}},{"type":"Feature","id":94,"geometry":{"type":"Polygon","coordinates":[[[-117.561,36.863],[-117.526,36.84],[-117.521,36.812],[-117.534,36.796],[-117.549,36.793],[-117.553,36.773],[-117.576,36.764],[-117.579,36.744],[-117.594,36.733],[-117.583,36.644],[-117.562,36.643],[-117.542,36.619],[-117.498,36.608],[-117.496,36.599],[-117.48,36.592],[-117.447,36.611],[-117.444,36.62],[-117.419,36.625],[-117.404,36.664],[-117.446,36.699],[-117.429,36.735],[-117.455,36.791],[-117.45,36.807],[-117.468,36.824],[-117.466,36.873],[-117.49,36.863],[-117.527,36.869],[-117.561,36.863]]]},"properties":{"SHAPE.AREA":314720506.74243599,"SHAPE.LEN":94032.468243322306,"OBJECTID":94,"HRC":"SL","HBPA":"SL","RBU":9608,"HR":9,"RB":6,"HU":8,"HRNAME":"South Lahontan","RBNAME":"Lahontan","HBPANAME":"South Lahontan","HUNAME":"RACE TRACK","IDNUM":"9608"}},{"type":"Feature","id":85,"geometry":{"type":"Polygon","coordinates":[[[-117.944,37.432],[-117.933,37.411],[-117.946,37.4],[-117.95,37.38],[-117.973,37.359],[-117.971,37.336],[-117.983,37.325],[-117.976,37.316],[-118.002,37.274],[-117.998,37.255],[-118.023,37.235],[-118.014,37.221],[-118.025,37.211],[-118.026,37.197],[-118.039,37.19],[-118.034,37.183],[-118.071,37.17],[-118.055,37.151],[-118.064,37.144],[-118.047,37.136],[-118.045,37.111],[-118.031,37.096],[-118.083,37.077],[-118.121,37.073],[-118.127,37.042],[-118.121,37.034],[-118.122,37.01],[-118.052,36.975],[-118.043,36.961],[-118.033,36.966],[-118.043,36.986],[-118.022,36.992],[-118.008,37.022],[-117.982,37.035],[-117.966,37.04],[-117.928,37.013],[-117.871,37.026],[-117.873,37.016],[-117.86,37.016],[-117.851,37.004],[-117.833,37.005],[-117.807,37.02],[-117.795,37.037],[-117.786,37.029],[-117.79,37.015],[-117.776,37.012],[-117.774,37.001],[-117.752,36.995],[-117.725,36.957],[-117.716,36.978],[-117.684,36.975],[-117.669,36.986],[-117.657,36.973],[-117.64,36.98],[-117.594,36.96],[-117.58,36.977],[-117.578,37.019],[-117.584,37.042],[-117.6,37.045],[-117.609,37.063],[-117.611,37.079],[-117.597,37.108],[-117.626,37.164],[-117.622,37.198],[-117.651,37.212],[-117.655,37.226],[-117.674,37.245],[-117.672,37.254],[-117.685,37.26],[-117.704,37.287],[-117.701,37.305],[-117.709,37.313],[-117.661,37.339],[-117.727,37.387],[-117.784,37.388],[-117.831,37.376],[-117.868,37.395],[-117.882,37.413],[-117.906,37.421],[-117.91,37.432],[-117.944,37.432]]]},"properties":{"SHAPE.AREA":1527418023.2705801,"SHAPE.LEN":232115.15119015699,"OBJECTID":85,"HRC":"SL","HBPA":"SL","RBU":9606,"HR":9,"RB":6,"HU":6,"HRNAME":"South Lahontan","RBNAME":"Lahontan","HBPANAME":"South Lahontan","HUNAME":"EUREKA","IDNUM":"9606"}},{"type":"Feature","id":107,"geometry":{"type":"Polygon","coordinates":[[[-116.251,36.277],[-116.258,36.263],[-116.255,36.251],[-116.221,36.238],[-116.23,36.221],[-116.222,36.198],[-116.227,36.186],[-116.199,36.186],[-116.199,36.172],[-116.208,36.167],[-116.198,36.151],[-116.202,36.14],[-116.187,36.125],[-116.16,36.119],[-116.133,36.095],[-116.124,36.076],[-116.099,36.06],[-116.087,36.044],[-116.085,36.018],[-116.073,36.014],[-116.058,35.984],[-115.974,35.957],[-115.98,35.946],[-115.969,35.942],[-115.981,35.93],[-115.979,35.916],[-115.969,35.903],[-115.92,35.881],[-115.912,35.85],[-115.889,35.837],[-115.877,35.82],[-115.88,35.802],[-115.836,35.792],[-115.832,35.824],[-115.812,35.827],[-115.815,35.837],[-115.806,35.85],[-115.77,35.857],[-115.741,35.882],[-116.251,36.277]]]},"properties":{"SHAPE.AREA":567351126.78099895,"SHAPE.LEN":166801.055735439,"OBJECTID":107,"HRC":"SL","HBPA":"SL","RBU":9610,"HR":9,"RB":6,"HU":10,"HRNAME":"South Lahontan","RBNAME":"Lahontan","HBPANAME":"South Lahontan","HUNAME":"PAHRUMP","IDNUM":"9610"}},{"type":"Feature","id":119,"geometry":{"type":"Polygon","coordinates":[[[-118.133,35.496],[-118.147,35.488],[-118.155,35.448],[-118.18,35.432],[-118.254,35.455],[-118.27,35.45],[-118.279,35.436],[-118.297,35.435],[-118.29,35.433],[-118.289,35.418],[-118.319,35.424],[-118.336,35.419],[-118.331,35.406],[-118.297,35.391],[-118.289,35.366],[-118.292,35.348],[-118.269,35.316],[-118.272,35.283],[-118.241,35.27],[-118.247,35.246],[-118.236,35.234],[-118.24,35.223],[-118.287,35.224],[-118.294,35.216],[-118.328,35.224],[-118.342,35.216],[-118.36,35.217],[-118.369,35.207],[-118.405,35.212],[-118.424,35.197],[-118.442,35.193],[-118.41,35.153],[-118.409,35.134],[-118.43,35.084],[-118.444,35.077],[-118.458,35.043],[-118.417,35.041],[-118.363,35.081],[-118.34,35.07],[-118.197,35.117],[-118.125,35.084],[-118.104,35.061],[-118.068,35.044],[-118.03,35.033],[-117.999,35.04],[-117.981,35.032],[-117.89,35.096],[-117.847,35.157],[-117.827,35.157],[-117.783,35.199],[-117.791,35.217],[-117.772,35.25],[-117.769,35.29],[-117.754,35.301],[-117.732,35.3],[-117.711,35.326],[-117.681,35.339],[-117.673,35.352],[-117.65,35.351],[-117.64,35.362],[-117.616,35.353],[-117.587,35.353],[-117.589,35.362],[-117.564,35.385],[-117.565,35.403],[-117.54,35.437],[-117.553,35.465],[-117.589,35.472],[-117.668,35.458],[-117.681,35.463],[-117.684,35.48],[-117.71,35.476],[-117.708,35.466],[-117.715,35.463],[-117.734,35.469],[-117.748,35.461],[-117.759,35.465],[-117.771,35.484],[-117.791,35.487],[-117.786,35.495],[-117.819,35.481],[-117.837,35.482],[-117.848,35.472],[-117.869,35.475],[-117.884,35.452],[-117.899,35.444],[-117.914,35.45],[-117.929,35.436],[-117.958,35.426],[-118.005,35.442],[-118.03,35.439],[-118.065,35.46],[-118.088,35.461],[-118.133,35.496]]]},"properties":{"SHAPE.AREA":2353706734.1170101,"SHAPE.LEN":306607.53949693905,"OBJECTID":119,"HRC":"SL","HBPA":"SL","RBU":9625,"HR":9,"RB":6,"HU":25,"HRNAME":"South Lahontan","RBNAME":"Lahontan","HBPANAME":"South Lahontan","HUNAME":"FREMONT","IDNUM":"9625"}},{"type":"Feature","id":131,"geometry":{"type":"Polygon","coordinates":[[[-117.683,35.339],[-117.711,35.326],[-117.738,35.296],[-117.754,35.301],[-117.769,35.29],[-117.772,35.25],[-117.791,35.217],[-117.783,35.199],[-117.827,35.157],[-117.847,35.157],[-117.89,35.096],[-117.981,35.032],[-117.999,35.04],[-118.03,35.033],[-118.068,35.044],[-118.104,35.061],[-118.125,35.084],[-118.196,35.117],[-118.34,35.07],[-118.363,35.081],[-118.417,35.041],[-118.491,35.044],[-118.478,35.014],[-118.5,35.0],[-118.605,34.985],[-118.605,34.961],[-118.586,34.951],[-118.645,34.926],[-118.672,34.902],[-118.696,34.903],[-118.749,34.879],[-118.767,34.85],[-118.791,34.832],[-118.814,34.826],[-118.819,34.804],[-118.765,34.784],[-118.755,34.753],[-118.725,34.744],[-118.717,34.748],[-118.701,34.732],[-118.654,34.713],[-118.626,34.713],[-118.613,34.703],[-118.593,34.71],[-118.547,34.69],[-118.523,34.706],[-118.5,34.704],[-118.47,34.698],[-118.444,34.682],[-118.365,34.666],[-118.327,34.647],[-118.334,34.639],[-118.371,34.647],[-118.38,34.635],[-118.348,34.613],[-118.347,34.603],[-118.315,34.596],[-118.303,34.585],[-118.301,34.569],[-118.259,34.568],[-118.243,34.545],[-118.214,34.548],[-118.203,34.536],[-118.181,34.535],[-118.141,34.502],[-118.083,34.498],[-118.065,34.464],[-118.07,34.455],[-118.066,34.425],[-118.073,34.418],[-118.052,34.388],[-118.018,34.371],[-118.013,34.356],[-117.998,34.345],[-117.986,34.35],[-117.973,34.338],[-117.96,34.343],[-117.923,34.336],[-117.86,34.366],[-117.84,34.345],[-117.813,34.34],[-117.794,34.355],[-117.764,34.359],[-117.748,34.382],[-117.698,34.368],[-117.686,34.383],[-117.667,34.377],[-117.672,34.401],[-117.651,34.45],[-117.645,34.503],[-117.659,34.558],[-117.657,34.608],[-117.694,34.63],[-117.668,34.649],[-117.675,34.692],[-117.67,34.706],[-117.685,34.707],[-117.701,34.719],[-117.697,34.733],[-117.712,34.755],[-117.677,34.762],[-117.673,34.741],[-117.644,34.711],[-117.586,34.719],[-117.594,34.733],[-117.591,34.752],[-117.611,34.778],[-117.61,34.804],[-117.594,34.827],[-117.628,34.833],[-117.63,34.846],[-117.642,34.856],[-117.634,34.881],[-117.653,34.896],[-117.633,34.897],[-117.595,34.916],[-117.586,34.912],[-117.577,34.921],[-117.601,34.967],[-117.592,34.995],[-117.601,35.027],[-117.595,35.036],[-117.614,35.066],[-117.61,35.088],[-117.63,35.092],[-117.64,35.107],[-117.637,35.119],[-117.619,35.118],[-117.603,35.135],[-117.588,35.134],[-117.583,35.158],[-117.527,35.236],[-117.56,35.256],[-117.631,35.271],[-117.682,35.317],[-117.688,35.328],[-117.683,35.339]]]},"properties":{"SHAPE.AREA":6370652145.2052402,"SHAPE.LEN":498189.08980160503,"OBJECTID":131,"HRC":"SL","HBPA":"SL","RBU":9626,"HR":9,"RB":6,"HU":26,"HRNAME":"South Lahontan","RBNAME":"Lahontan","HBPANAME":"South Lahontan","HUNAME":"ANTELOPE","IDNUM":"9626"}},{"type":"Feature","id":49,"geometry":{"type":"Polygon","coordinates":[[[-119.904,38.933],[-119.886,38.916],[-119.879,38.887],[-119.889,38.879],[-119.878,38.868],[-119.906,38.856],[-119.909,38.834],[-119.923,38.83],[-119.921,38.822],[-119.942,38.803],[-119.948,38.782],[-119.967,38.777],[-119.971,38.764],[-119.982,38.761],[-119.986,38.716],[-119.994,38.706],[-119.983,38.682],[-119.985,38.662],[-119.972,38.656],[-119.962,38.663],[-119.951,38.645],[-119.938,38.639],[-119.9,38.698],[-119.91,38.712],[-119.907,38.724],[-119.876,38.73],[-119.86,38.749],[-119.813,38.766],[-119.787,38.79],[-119.763,38.779],[-119.75,38.81],[-119.755,38.831],[-119.904,38.933]]]},"properties":{"SHAPE.AREA":274226565.13242698,"SHAPE.LEN":99858.317183306397,"OBJECTID":49,"HRC":"NL","HBPA":"NL","RBU":8633,"HR":8,"RB":6,"HU":33,"HRNAME":"North Lahontan","RBNAME":"Lahontan","HBPANAME":"North Lahontan","HUNAME":"WEST FORK CARSON RIVER","IDNUM":"8633"}},{"type":"Feature","id":126,"geometry":{"type":"Polygon","coordinates":[[[-117.227,35.398],[-117.219,35.38],[-117.23,35.366],[-117.219,35.351],[-117.223,35.332],[-117.2,35.312],[-117.193,35.274],[-117.185,35.265],[-117.208,35.23],[-117.201,35.221],[-117.204,35.185],[-117.175,35.173],[-117.117,35.171],[-117.101,35.152],[-117.076,35.164],[-117.064,35.183],[-117.052,35.181],[-117.056,35.163],[-117.049,35.159],[-117.012,35.162],[-116.984,35.106],[-116.988,35.062],[-116.96,35.061],[-116.959,35.074],[-116.939,35.09],[-116.949,35.098],[-116.945,35.109],[-116.933,35.119],[-116.945,35.141],[-116.947,35.183],[-116.935,35.178],[-116.901,35.196],[-116.862,35.238],[-116.87,35.25],[-116.883,35.251],[-116.89,35.271],[-116.935,35.301],[-116.932,35.309],[-116.957,35.34],[-116.984,35.355],[-116.986,35.366],[-116.966,35.38],[-116.998,35.396],[-117.018,35.391],[-117.031,35.399],[-117.06,35.399],[-117.075,35.409],[-117.078,35.43],[-117.097,35.427],[-117.134,35.441],[-117.143,35.43],[-117.164,35.437],[-117.177,35.42],[-117.196,35.423],[-117.209,35.405],[-117.227,35.398]]]},"properties":{"SHAPE.AREA":745024243.514166,"SHAPE.LEN":155236.49705511198,"OBJECTID":126,"HRC":"SL","HBPA":"SL","RBU":9619,"HR":9,"RB":6,"HU":19,"HRNAME":"South Lahontan","RBNAME":"Lahontan","HBPANAME":"South Lahontan","HUNAME":"SUPERIOR","IDNUM":"9619"}},{"type":"Feature","id":84,"geometry":{"type":"Polygon","coordinates":[[[-117.944,37.432],[-118.038,37.447],[-118.047,37.456],[-118.045,37.465],[-118.064,37.464],[-118.086,37.479],[-118.102,37.512],[-118.117,37.515],[-118.135,37.508],[-118.151,37.518],[-118.179,37.502],[-118.2,37.5],[-118.183,37.479],[-118.189,37.457],[-118.197,37.454],[-118.199,37.427],[-118.187,37.416],[-118.186,37.396],[-118.176,37.391],[-118.176,37.364],[-118.192,37.339],[-118.197,37.31],[-118.182,37.312],[-118.158,37.296],[-118.146,37.297],[-118.14,37.265],[-118.152,37.238],[-118.124,37.216],[-118.124,37.203],[-118.1,37.206],[-118.097,37.213],[-118.048,37.212],[-118.014,37.221],[-118.023,37.235],[-117.998,37.255],[-118.002,37.274],[-117.976,37.316],[-117.983,37.325],[-117.971,37.336],[-117.973,37.359],[-117.95,37.38],[-117.946,37.4],[-117.933,37.411],[-117.944,37.432]]]},"properties":{"SHAPE.AREA":514544581.08012402,"SHAPE.LEN":117048.363814657,"OBJECTID":84,"HRC":"SL","HBPA":"SL","RBU":9605,"HR":9,"RB":6,"HU":5,"HRNAME":"South Lahontan","RBNAME":"Lahontan","HBPANAME":"South Lahontan","HUNAME":"DEEP SPRINGS","IDNUM":"9605"}},{"type":"Feature","id":65,"geometry":{"type":"Polygon","coordinates":[[[-118.924,38.25],[-118.941,38.218],[-118.981,38.192],[-119.022,38.192],[-119.042,38.217],[-119.079,38.225],[-119.069,38.205],[-119.084,38.169],[-119.079,38.152],[-119.121,38.14],[-119.142,38.107],[-119.168,38.112],[-119.177,38.089],[-119.23,38.056],[-119.234,38.044],[-119.308,38.03],[-119.315,37.98],[-119.324,37.97],[-119.315,37.965],[-119.309,37.946],[-119.267,37.928],[-119.265,37.912],[-119.21,37.9],[-119.2,37.885],[-119.21,37.88],[-119.217,37.854],[-119.216,37.847],[-119.202,37.848],[-119.204,37.83],[-119.218,37.819],[-119.205,37.812],[-119.203,37.795],[-119.243,37.77],[-119.255,37.745],[-119.269,37.739],[-119.258,37.725],[-119.243,37.729],[-119.216,37.714],[-119.199,37.736],[-119.184,37.74],[-119.127,37.735],[-119.106,37.719],[-119.094,37.722],[-119.058,37.75],[-119.05,37.77],[-119.018,37.776],[-119.013,37.792],[-119.019,37.8],[-118.981,37.798],[-118.959,37.815],[-118.932,37.805],[-118.917,37.818],[-118.899,37.8],[-118.882,37.817],[-118.867,37.811],[-118.839,37.834],[-118.86,37.854],[-118.862,37.873],[-118.849,37.897],[-118.854,37.91],[-118.837,37.914],[-118.838,37.949],[-118.797,37.986],[-118.799,37.995],[-118.785,38.017],[-118.794,38.034],[-118.789,38.044],[-118.752,38.061],[-118.72,38.062],[-118.702,38.092],[-118.924,38.25]]]},"properties":{"SHAPE.AREA":1746687315.2804899,"SHAPE.LEN":232163.884631767,"OBJECTID":65,"HRC":"SL","HBPA":"SL","RBU":9601,"HR":9,"RB":6,"HU":1,"HRNAME":"South Lahontan","RBNAME":"Lahontan","HBPANAME":"South Lahontan","HUNAME":"MONO","IDNUM":"9601"}},{"type":"Feature","id":122,"geometry":{"type":"Polygon","coordinates":[[[-115.951,35.409],[-115.989,35.397],[-115.996,35.417],[-116.064,35.427],[-116.087,35.397],[-116.161,35.39],[-116.168,35.369],[-116.163,35.346],[-116.154,35.343],[-116.15,35.331],[-116.158,35.324],[-116.151,35.31],[-116.18,35.273],[-116.197,35.282],[-116.221,35.27],[-116.228,35.247],[-116.222,35.245],[-116.237,35.234],[-116.242,35.204],[-116.255,35.193],[-116.268,35.194],[-116.273,35.183],[-116.349,35.226],[-116.369,35.25],[-116.39,35.302],[-116.447,35.328],[-116.517,35.319],[-116.527,35.298],[-116.546,35.3],[-116.556,35.284],[-116.601,35.273],[-116.636,35.251],[-116.666,35.282],[-116.689,35.292],[-116.738,35.273],[-116.754,35.256],[-116.763,35.261],[-116.786,35.243],[-116.788,35.229],[-116.756,35.23],[-116.724,35.182],[-116.699,35.168],[-116.699,35.158],[-116.669,35.153],[-116.65,35.133],[-116.604,35.119],[-116.629,35.09],[-116.63,35.073],[-116.647,35.075],[-116.649,35.06],[-116.673,35.048],[-116.683,35.015],[-116.707,34.996],[-116.711,34.963],[-116.739,34.959],[-116.752,34.965],[-116.769,34.95],[-116.789,34.952],[-116.803,34.942],[-116.825,34.946],[-116.843,34.965],[-116.832,35.001],[-116.841,35.009],[-116.87,34.998],[-116.879,35.008],[-116.895,35.008],[-116.912,35.026],[-116.916,35.044],[-116.944,35.06],[-116.987,35.062],[-116.984,35.106],[-117.012,35.162],[-117.049,35.159],[-117.056,35.163],[-117.052,35.181],[-117.064,35.183],[-117.076,35.164],[-117.101,35.152],[-117.117,35.171],[-117.175,35.173],[-117.203,35.184],[-117.201,35.221],[-117.208,35.23],[-117.185,35.265],[-117.201,35.296],[-117.199,35.31],[-117.223,35.334],[-117.262,35.326],[-117.32,35.339],[-117.32,35.319],[-117.31,35.314],[-117.315,35.299],[-117.29,35.277],[-117.3,35.245],[-117.318,35.215],[-117.333,35.206],[-117.366,35.216],[-117.38,35.213],[-117.432,35.233],[-117.457,35.222],[-117.456,35.194],[-117.473,35.21],[-117.509,35.218],[-117.527,35.236],[-117.583,35.158],[-117.588,35.134],[-117.603,35.135],[-117.619,35.118],[-117.637,35.119],[-117.64,35.107],[-117.63,35.092],[-117.61,35.088],[-117.614,35.066],[-117.595,35.036],[-117.601,35.027],[-117.592,34.995],[-117.601,34.967],[-117.577,34.921],[-117.586,34.912],[-117.595,34.916],[-117.633,34.897],[-117.653,34.896],[-117.634,34.881],[-117.642,34.856],[-117.63,34.846],[-117.628,34.833],[-117.594,34.827],[-117.61,34.804],[-117.611,34.778],[-117.591,34.752],[-117.594,34.733],[-117.586,34.719],[-117.644,34.711],[-117.673,34.741],[-117.677,34.762],[-117.712,34.755],[-117.697,34.733],[-117.701,34.719],[-117.685,34.707],[-117.67,34.706],[-117.675,34.692],[-117.668,34.649],[-117.694,34.63],[-117.658,34.613],[-117.658,34.547],[-117.645,34.505],[-117.651,34.45],[-117.672,34.401],[-117.663,34.381],[-117.686,34.383],[-117.699,34.369],[-117.665,34.344],[-117.629,34.332],[-117.586,34.343],[-117.588,34.368],[-117.577,34.384],[-117.544,34.382],[-117.494,34.358],[-117.473,34.36],[-117.461,34.347],[-117.432,34.349],[-117.424,34.336],[-117.439,34.312],[-117.431,34.299],[-117.406,34.291],[-117.401,34.262],[-117.371,34.261],[-117.349,34.245],[-117.33,34.257],[-117.322,34.236],[-117.29,34.238],[-117.266,34.227],[-117.139,34.235],[-117.128,34.214],[-117.094,34.206],[-117.087,34.193],[-117.049,34.197],[-117.021,34.226],[-117.036,34.244],[-117.029,34.252],[-116.992,34.26],[-116.969,34.293],[-116.9,34.282],[-116.903,34.315],[-116.889,34.32],[-116.906,34.33],[-116.933,34.323],[-117.006,34.338],[-117.03,34.364],[-117.043,34.357],[-117.091,34.358],[-117.097,34.35],[-117.125,34.348],[-117.143,34.362],[-117.151,34.357],[-117.179,34.365],[-117.183,34.38],[-117.193,34.386],[-117.183,34.402],[-117.147,34.406],[-117.122,34.434],[-117.096,34.448],[-117.074,34.488],[-117.083,34.511],[-117.049,34.504],[-117.031,34.522],[-117.041,34.561],[-117.034,34.568],[-117.058,34.594],[-117.045,34.609],[-117.075,34.624],[-117.076,34.663],[-117.09,34.671],[-117.071,34.69],[-116.952,34.653],[-116.923,34.666],[-116.849,34.661],[-116.819,34.683],[-116.761,34.667],[-116.726,34.669],[-116.709,34.698],[-116.676,34.688],[-116.667,34.671],[-116.64,34.659],[-116.636,34.642],[-116.626,34.646],[-116.628,34.66],[-116.602,34.678],[-116.485,34.661],[-116.473,34.651],[-116.442,34.667],[-116.422,34.655],[-116.393,34.687],[-116.397,34.702],[-116.371,34.75],[-116.301,34.791],[-116.317,34.798],[-116.318,34.809],[-116.337,34.827],[-116.339,34.872],[-116.319,34.888],[-116.253,34.893],[-116.223,34.909],[-116.217,34.897],[-116.186,34.899],[-116.154,34.888],[-116.139,34.888],[-116.128,34.906],[-116.081,34.904],[-116.063,34.916],[-116.034,34.823],[-116.007,34.808],[-116.002,34.797],[-115.951,34.774],[-115.944,34.758],[-115.871,34.742],[-115.85,34.72],[-115.832,34.715],[-115.822,34.722],[-115.807,34.707],[-115.792,34.732],[-115.798,34.739],[-115.788,34.75],[-115.795,34.759],[-115.752,34.753],[-115.726,34.773],[-115.719,34.794],[-115.675,34.791],[-115.601,34.813],[-115.588,34.826],[-115.588,34.846],[-115.542,34.892],[-115.547,34.918],[-115.538,34.938],[-115.537,34.979],[-115.514,34.993],[-115.491,35.041],[-115.471,35.051],[-115.469,35.071],[-115.438,35.091],[-115.45,35.117],[-115.431,35.133],[-115.42,35.16],[-115.386,35.168],[-115.383,35.198],[-115.401,35.21],[-115.417,35.207],[-115.42,35.217],[-115.441,35.225],[-115.47,35.232],[-115.498,35.227],[-115.57,35.269],[-115.585,35.289],[-115.644,35.296],[-115.665,35.316],[-115.692,35.308],[-115.72,35.325],[-115.783,35.324],[-115.78,35.336],[-115.798,35.344],[-115.778,35.365],[-115.778,35.381],[-115.79,35.387],[-115.788,35.402],[-115.801,35.416],[-115.832,35.433],[-115.833,35.449],[-115.844,35.458],[-115.878,35.458],[-115.89,35.468],[-115.922,35.46],[-115.934,35.443],[-115.923,35.436],[-115.926,35.424],[-115.95,35.416],[-115.951,35.409]]]},"properties":{"SHAPE.AREA":13470668885.0404,"SHAPE.LEN":1054453.9675767301,"OBJECTID":122,"HRC":"SL","HBPA":"SL","RBU":9628,"HR":9,"RB":6,"HU":28,"HRNAME":"South Lahontan","RBNAME":"Lahontan","HBPANAME":"South Lahontan","HUNAME":"MOJAVE","IDNUM":"9628"}},{"type":"Feature","id":134,"geometry":{"type":"Polygon","coordinates":[[[-116.126,34.906],[-116.139,34.888],[-116.154,34.888],[-116.186,34.899],[-116.217,34.897],[-116.227,34.908],[-116.253,34.893],[-116.28,34.895],[-116.322,34.887],[-116.339,34.872],[-116.337,34.827],[-116.318,34.809],[-116.317,34.798],[-116.287,34.786],[-116.289,34.776],[-116.313,34.766],[-116.3,34.72],[-116.308,34.712],[-116.299,34.699],[-116.255,34.696],[-116.217,34.668],[-116.219,34.663],[-116.204,34.648],[-116.178,34.673],[-116.148,34.688],[-116.087,34.678],[-116.062,34.703],[-116.066,34.742],[-116.046,34.755],[-116.043,34.777],[-116.022,34.783],[-116.003,34.8],[-116.034,34.823],[-116.063,34.916],[-116.081,34.904],[-116.126,34.906]]]},"properties":{"SHAPE.AREA":594274067.09274304,"SHAPE.LEN":120338.90776150901,"OBJECTID":134,"HRC":"SL","HBPA":"SL","RBU":9629,"HR":9,"RB":6,"HU":29,"HRNAME":"South Lahontan","RBNAME":"Lahontan","HBPANAME":"South Lahontan","HUNAME":"BROADWELL","IDNUM":"9629"}},{"type":"Feature","id":105,"geometry":{"type":"Polygon","coordinates":[[[-118.105,36.228],[-118.105,36.212],[-118.059,36.17],[-118.06,36.15],[-118.074,36.14],[-118.066,36.12],[-118.068,36.095],[-118.052,36.084],[-118.038,36.014],[-118.004,35.984],[-118.004,35.977],[-118.015,35.973],[-118.017,35.955],[-117.993,35.944],[-117.984,35.927],[-117.991,35.914],[-117.983,35.894],[-117.99,35.881],[-117.981,35.867],[-117.996,35.869],[-118.008,35.862],[-118.006,35.83],[-117.999,35.823],[-118.008,35.817],[-118.001,35.772],[-118.012,35.756],[-117.997,35.738],[-118.003,35.723],[-117.986,35.693],[-118.018,35.676],[-118.036,35.656],[-118.031,35.631],[-118.091,35.635],[-118.089,35.621],[-118.114,35.616],[-118.119,35.607],[-118.115,35.586],[-118.124,35.582],[-118.127,35.563],[-118.145,35.544],[-118.128,35.529],[-118.125,35.511],[-118.134,35.509],[-118.133,35.496],[-118.088,35.461],[-118.065,35.46],[-118.03,35.439],[-118.005,35.442],[-117.958,35.426],[-117.929,35.436],[-117.914,35.45],[-117.899,35.444],[-117.884,35.452],[-117.869,35.475],[-117.848,35.472],[-117.837,35.482],[-117.819,35.481],[-117.79,35.495],[-117.791,35.487],[-117.771,35.484],[-117.759,35.464],[-117.708,35.465],[-117.71,35.476],[-117.686,35.478],[-117.672,35.494],[-117.656,35.536],[-117.59,35.55],[-117.579,35.564],[-117.555,35.573],[-117.572,35.58],[-117.596,35.624],[-117.585,35.637],[-117.601,35.658],[-117.59,35.687],[-117.601,35.695],[-117.594,35.71],[-117.564,35.715],[-117.553,35.706],[-117.53,35.713],[-117.497,35.728],[-117.499,35.739],[-117.458,35.754],[-117.478,35.779],[-117.477,35.789],[-117.461,35.787],[-117.457,35.805],[-117.449,35.804],[-117.475,35.843],[-117.446,35.853],[-117.459,35.86],[-117.459,35.895],[-117.483,35.908],[-117.503,35.908],[-117.511,35.927],[-117.531,35.923],[-117.596,35.935],[-117.68,35.857],[-117.754,35.882],[-117.818,35.928],[-117.815,35.945],[-117.832,35.956],[-117.825,35.978],[-117.832,35.981],[-117.817,35.984],[-117.824,36.001],[-117.812,36.016],[-117.823,36.03],[-117.814,36.052],[-117.819,36.063],[-117.808,36.07],[-117.812,36.079],[-117.834,36.083],[-117.825,36.089],[-117.826,36.111],[-117.842,36.116],[-117.853,36.135],[-117.84,36.143],[-117.839,36.153],[-117.804,36.163],[-117.797,36.186],[-117.785,36.19],[-117.798,36.234],[-117.845,36.227],[-117.863,36.239],[-117.891,36.235],[-117.901,36.241],[-117.92,36.228],[-117.976,36.23],[-118.018,36.209],[-118.034,36.222],[-118.054,36.226],[-118.096,36.213],[-118.105,36.228]]]},"properties":{"SHAPE.AREA":2947010818.06107,"SHAPE.LEN":384543.88435043098,"OBJECTID":105,"HRC":"SL","HBPA":"SL","RBU":9624,"HR":9,"RB":6,"HU":24,"HRNAME":"South Lahontan","RBNAME":"Lahontan","HBPANAME":"South Lahontan","HUNAME":"INDIAN WELLS","IDNUM":"9624"}},{"type":"Feature","id":91,"geometry":{"type":"Polygon","coordinates":[[[-118.045,36.961],[-118.038,36.922],[-118.048,36.881],[-118.018,36.836],[-118.023,36.817],[-118.005,36.804],[-118.002,36.758],[-117.979,36.717],[-117.962,36.707],[-117.955,36.673],[-117.942,36.665],[-117.915,36.626],[-117.884,36.621],[-117.83,36.592],[-117.802,36.544],[-117.778,36.529],[-117.775,36.519],[-117.739,36.507],[-117.716,36.514],[-117.708,36.554],[-117.686,36.581],[-117.639,36.545],[-117.59,36.533],[-117.578,36.521],[-117.519,36.536],[-117.478,36.56],[-117.479,36.592],[-117.496,36.599],[-117.498,36.608],[-117.542,36.619],[-117.561,36.642],[-117.583,36.644],[-117.594,36.733],[-117.579,36.744],[-117.576,36.764],[-117.553,36.773],[-117.549,36.793],[-117.534,36.796],[-117.521,36.812],[-117.526,36.84],[-117.564,36.867],[-117.568,36.891],[-117.561,36.903],[-117.587,36.912],[-117.603,36.94],[-117.594,36.96],[-117.64,36.98],[-117.657,36.973],[-117.669,36.986],[-117.684,36.975],[-117.716,36.978],[-117.725,36.957],[-117.752,36.995],[-117.774,37.001],[-117.776,37.012],[-117.79,37.015],[-117.786,37.029],[-117.795,37.037],[-117.807,37.02],[-117.833,37.005],[-117.851,37.004],[-117.86,37.016],[-117.873,37.016],[-117.871,37.026],[-117.928,37.013],[-117.966,37.04],[-118.008,37.022],[-118.022,36.992],[-118.043,36.986],[-118.033,36.966],[-118.045,36.961]]]},"properties":{"SHAPE.AREA":1913333832.2140801,"SHAPE.LEN":230509.651447034,"OBJECTID":91,"HRC":"SL","HBPA":"SL","RBU":9607,"HR":9,"RB":6,"HU":7,"HRNAME":"South Lahontan","RBNAME":"Lahontan","HBPANAME":"South Lahontan","HUNAME":"SALINE","IDNUM":"9607"}},{"type":"Feature","id":15,"geometry":{"type":"Polygon","coordinates":[[[-120.11,41.064],[-120.122,41.086],[-120.114,41.09],[-120.112,41.119],[-120.164,41.129],[-120.183,41.093],[-120.234,41.057],[-120.201,41.031],[-120.209,41.026],[-120.264,41.03],[-120.297,41.052],[-120.38,41.014],[-120.4,41.038],[-120.394,41.049],[-120.436,41.072],[-120.434,41.081],[-120.446,41.089],[-120.448,41.102],[-120.459,41.088],[-120.475,41.095],[-120.497,41.091],[-120.533,41.076],[-120.565,41.083],[-120.577,41.068],[-120.576,41.047],[-120.591,41.035],[-120.581,41.002],[-120.633,40.98],[-120.66,40.957],[-120.702,40.953],[-120.727,40.979],[-120.745,40.954],[-120.761,40.962],[-120.821,40.948],[-120.812,40.934],[-120.843,40.912],[-120.821,40.889],[-120.85,40.877],[-120.834,40.843],[-120.856,40.824],[-120.841,40.773],[-120.852,40.761],[-120.829,40.746],[-120.814,40.757],[-120.822,40.764],[-120.814,40.788],[-120.793,40.779],[-120.756,40.794],[-120.721,40.767],[-120.692,40.76],[-120.669,40.768],[-120.657,40.751],[-120.61,40.756],[-120.577,40.751],[-120.561,40.755],[-120.546,40.783],[-120.49,40.785],[-120.452,40.773],[-120.438,40.778],[-120.44,40.77],[-120.417,40.73],[-120.407,40.735],[-120.353,40.723],[-120.343,40.716],[-120.34,40.697],[-120.28,40.719],[-120.242,40.746],[-120.176,40.774],[-120.115,40.774],[-120.084,40.754],[-120.067,40.752],[-120.056,40.729],[-120.018,40.729],[-120.018,40.721],[-119.998,40.709],[-120.0,40.911],[-120.025,40.936],[-120.05,40.935],[-120.067,40.973],[-120.101,40.981],[-120.123,41.001],[-120.123,41.02],[-120.135,41.033],[-120.129,41.053],[-120.11,41.064]]]},"properties":{"SHAPE.AREA":2081319976.09235,"SHAPE.LEN":288970.669159565,"OBJECTID":15,"HRC":"NL","HBPA":"NL","RBU":8638,"HR":8,"RB":6,"HU":38,"HRNAME":"North Lahontan","RBNAME":"Lahontan","HBPANAME":"North Lahontan","HUNAME":"MADELINE PLAINS","IDNUM":"8638"}},{"type":"Feature","id":58,"geometry":{"type":"Polygon","coordinates":[[[-118.924,38.25],[-119.256,38.484],[-119.288,38.489],[-119.301,38.482],[-119.301,38.466],[-119.315,38.447],[-119.305,38.437],[-119.303,38.419],[-119.353,38.419],[-119.374,38.38],[-119.363,38.338],[-119.425,38.302],[-119.392,38.282],[-119.393,38.264],[-119.43,38.238],[-119.459,38.198],[-119.51,38.188],[-119.514,38.181],[-119.488,38.132],[-119.469,38.128],[-119.473,38.118],[-119.459,38.108],[-119.464,38.098],[-119.441,38.096],[-119.43,38.118],[-119.421,38.108],[-119.398,38.107],[-119.358,38.082],[-119.349,38.086],[-119.311,38.045],[-119.314,38.034],[-119.308,38.03],[-119.234,38.044],[-119.23,38.056],[-119.177,38.089],[-119.168,38.112],[-119.142,38.107],[-119.121,38.14],[-119.079,38.152],[-119.084,38.169],[-119.069,38.205],[-119.079,38.225],[-119.042,38.217],[-119.022,38.192],[-118.981,38.192],[-118.941,38.218],[-118.924,38.25]]]},"properties":{"SHAPE.AREA":1303483839.3620501,"SHAPE.LEN":195307.679317609,"OBJECTID":58,"HRC":"NL","HBPA":"NL","RBU":8630,"HR":8,"RB":6,"HU":30,"HRNAME":"North Lahontan","RBNAME":"Lahontan","HBPANAME":"North Lahontan","HUNAME":"EAST WALKER RIVER","IDNUM":"8630"}},{"type":"Feature","id":108,"geometry":{"type":"Polygon","coordinates":[[[-117.812,36.079],[-117.783,36.085],[-117.776,36.113],[-117.793,36.148],[-117.786,36.16],[-117.797,36.169],[-117.818,36.155],[-117.839,36.153],[-117.84,36.143],[-117.853,36.136],[-117.842,36.116],[-117.826,36.111],[-117.825,36.089],[-117.834,36.083],[-117.812,36.079]]]},"properties":{"SHAPE.AREA":42028069.6709451,"SHAPE.LEN":33173.190891765204,"OBJECTID":108,"HRC":"SL","HBPA":"SL","RBU":9623,"HR":9,"RB":6,"HU":23,"HRNAME":"South Lahontan","RBNAME":"Lahontan","HBPANAME":"South Lahontan","HUNAME":"UPPER CACTUS","IDNUM":"9623"}},{"type":"Feature","id":112,"geometry":{"type":"Polygon","coordinates":[[[-115.88,35.802],[-115.881,35.777],[-115.894,35.773],[-115.901,35.746],[-115.889,35.745],[-115.874,35.73],[-115.832,35.729],[-115.813,35.712],[-115.795,35.708],[-115.774,35.718],[-115.727,35.704],[-115.723,35.693],[-115.709,35.689],[-115.673,35.695],[-115.671,35.684],[-115.636,35.658],[-115.634,35.625],[-115.597,35.592],[-115.586,35.57],[-115.561,35.573],[-115.569,35.594],[-115.555,35.61],[-115.518,35.613],[-115.501,35.625],[-115.485,35.623],[-115.487,35.647],[-115.459,35.661],[-115.741,35.882],[-115.77,35.857],[-115.806,35.85],[-115.815,35.837],[-115.812,35.827],[-115.832,35.824],[-115.836,35.792],[-115.88,35.802]]]},"properties":{"SHAPE.AREA":534845381.97272998,"SHAPE.LEN":132527.154914913,"OBJECTID":112,"HRC":"SL","HBPA":"SL","RBU":9611,"HR":9,"RB":6,"HU":11,"HRNAME":"South Lahontan","RBNAME":"Lahontan","HBPANAME":"South Lahontan","HUNAME":"MESQUITE","IDNUM":"9611"}},{"type":"Feature","id":117,"geometry":{"type":"Polygon","coordinates":[[[-115.459,35.661],[-115.487,35.647],[-115.485,35.623],[-115.501,35.625],[-115.521,35.612],[-115.545,35.615],[-115.569,35.594],[-115.558,35.57],[-115.556,35.543],[-115.577,35.53],[-115.541,35.485],[-115.548,35.454],[-115.478,35.435],[-115.484,35.402],[-115.494,35.389],[-115.509,35.389],[-115.502,35.374],[-115.524,35.32],[-115.585,35.289],[-115.57,35.269],[-115.498,35.227],[-115.47,35.232],[-115.441,35.225],[-115.42,35.217],[-115.416,35.207],[-115.372,35.225],[-115.373,35.246],[-115.366,35.258],[-115.313,35.26],[-115.296,35.278],[-115.268,35.281],[-115.263,35.296],[-115.246,35.301],[-115.248,35.306],[-115.226,35.298],[-115.219,35.305],[-115.227,35.318],[-115.218,35.326],[-115.22,35.337],[-115.168,35.361],[-115.16,35.382],[-115.136,35.401],[-115.459,35.661]]]},"properties":{"SHAPE.AREA":1127021101.6575799,"SHAPE.LEN":172278.640294768,"OBJECTID":117,"HRC":"SL","HBPA":"SL","RBU":9612,"HR":9,"RB":6,"HU":12,"HRNAME":"South Lahontan","RBNAME":"Lahontan","HBPANAME":"South Lahontan","HUNAME":"IVANPAH","IDNUM":"9612"}},{"type":"Feature","id":114,"geometry":{"type":"Polygon","coordinates":[[[-116.631,35.75],[-116.643,35.755],[-116.645,35.767],[-116.68,35.779],[-116.688,35.792],[-116.707,35.792],[-116.714,35.799],[-116.711,35.824],[-116.734,35.837],[-116.775,35.806],[-116.772,35.793],[-116.782,35.777],[-116.806,35.792],[-116.864,35.781],[-116.883,35.75],[-116.882,35.732],[-116.9,35.715],[-116.923,35.665],[-116.909,35.645],[-116.9,35.644],[-116.902,35.627],[-116.871,35.629],[-116.84,35.61],[-116.806,35.603],[-116.778,35.613],[-116.745,35.606],[-116.764,35.618],[-116.744,35.623],[-116.747,35.642],[-116.711,35.646],[-116.7,35.672],[-116.671,35.668],[-116.641,35.691],[-116.623,35.726],[-116.631,35.75]]]},"properties":{"SHAPE.AREA":412777649.25589401,"SHAPE.LEN":104329.922757163,"OBJECTID":114,"HRC":"SL","HBPA":"SL","RBU":9613,"HR":9,"RB":6,"HU":13,"HRNAME":"South Lahontan","RBNAME":"Lahontan","HBPANAME":"South Lahontan","HUNAME":"OWLSHEAD","IDNUM":"9613"}},{"type":"Feature","id":74,"geometry":{"type":"Polygon","coordinates":[[[-118.354,37.843],[-118.358,37.831],[-118.343,37.784],[-118.323,37.756],[-118.296,37.751],[-118.3,37.741],[-118.281,37.722],[-118.281,37.693],[-118.264,37.667],[-118.267,37.658],[-118.258,37.651],[-118.255,37.634],[-118.235,37.622],[-118.239,37.591],[-118.249,37.576],[-118.234,37.556],[-118.232,37.537],[-118.216,37.525],[-118.211,37.503],[-118.18,37.501],[-118.151,37.518],[-118.135,37.508],[-118.117,37.515],[-118.102,37.512],[-118.086,37.479],[-118.064,37.464],[-118.045,37.465],[-118.047,37.456],[-118.038,37.447],[-117.939,37.431],[-117.917,37.434],[-117.906,37.421],[-117.881,37.413],[-117.868,37.395],[-117.831,37.376],[-117.784,37.388],[-117.727,37.387],[-118.354,37.843]]]},"properties":{"SHAPE.AREA":729542739.20370996,"SHAPE.LEN":180156.61334368202,"OBJECTID":74,"HRC":"SL","HBPA":"SL","RBU":9604,"HR":9,"RB":6,"HU":4,"HRNAME":"South Lahontan","RBNAME":"Lahontan","HBPANAME":"South Lahontan","HUNAME":"FISH LAKE","IDNUM":"9604"}},{"type":"Feature","id":130,"geometry":{"type":"Polygon","coordinates":[[[-116.819,35.241],[-116.863,35.238],[-116.901,35.196],[-116.935,35.178],[-116.947,35.183],[-116.945,35.141],[-116.933,35.119],[-116.949,35.1],[-116.941,35.087],[-116.96,35.071],[-116.958,35.061],[-116.916,35.044],[-116.912,35.026],[-116.895,35.008],[-116.879,35.008],[-116.869,34.998],[-116.856,35.008],[-116.836,35.005],[-116.832,35.001],[-116.843,34.965],[-116.813,34.942],[-116.789,34.952],[-116.769,34.95],[-116.752,34.965],[-116.739,34.959],[-116.711,34.963],[-116.707,34.996],[-116.683,35.015],[-116.673,35.048],[-116.649,35.06],[-116.647,35.075],[-116.63,35.073],[-116.629,35.09],[-116.604,35.119],[-116.65,35.133],[-116.669,35.153],[-116.699,35.158],[-116.699,35.168],[-116.724,35.182],[-116.756,35.23],[-116.787,35.229],[-116.819,35.241]]]},"properties":{"SHAPE.AREA":645646886.27813303,"SHAPE.LEN":122303.92197647,"OBJECTID":130,"HRC":"SL","HBPA":"SL","RBU":9618,"HR":9,"RB":6,"HU":18,"HRNAME":"South Lahontan","RBNAME":"Lahontan","HBPANAME":"South Lahontan","HUNAME":"COYOTE","IDNUM":"9618"}},{"type":"Feature","id":53,"geometry":{"type":"Polygon","coordinates":[[[-119.256,38.484],[-119.584,38.711],[-119.579,38.706],[-119.599,38.671],[-119.614,38.666],[-119.621,38.613],[-119.619,38.604],[-119.596,38.59],[-119.584,38.552],[-119.556,38.515],[-119.559,38.505],[-119.543,38.5],[-119.542,38.481],[-119.556,38.47],[-119.556,38.447],[-119.57,38.435],[-119.562,38.409],[-119.584,38.397],[-119.602,38.406],[-119.619,38.397],[-119.619,38.383],[-119.607,38.367],[-119.636,38.354],[-119.628,38.348],[-119.645,38.321],[-119.642,38.294],[-119.651,38.286],[-119.613,38.262],[-119.622,38.252],[-119.605,38.236],[-119.625,38.229],[-119.629,38.196],[-119.587,38.185],[-119.577,38.158],[-119.547,38.154],[-119.547,38.144],[-119.507,38.137],[-119.501,38.163],[-119.514,38.184],[-119.459,38.198],[-119.43,38.238],[-119.392,38.266],[-119.396,38.286],[-119.425,38.301],[-119.363,38.338],[-119.374,38.38],[-119.36,38.412],[-119.336,38.423],[-119.303,38.419],[-119.305,38.437],[-119.315,38.442],[-119.301,38.466],[-119.301,38.482],[-119.286,38.489],[-119.256,38.484]]]},"properties":{"SHAPE.AREA":1054337733.0779099,"SHAPE.LEN":201067.337632818,"OBJECTID":53,"HRC":"NL","HBPA":"NL","RBU":8631,"HR":8,"RB":6,"HU":31,"HRNAME":"North Lahontan","RBNAME":"Lahontan","HBPANAME":"North Lahontan","HUNAME":"WEST WALKER RIVER","IDNUM":"8631"}}]}