{"type":"FeatureCollection","features":[{"type":"Feature","id":81,"geometry":{"type":"Polygon","coordinates":[[[-122.275,37.457],[-122.286,37.446],[-122.304,37.456],[-122.327,37.451],[-122.332,37.447],[-122.311,37.428],[-122.319,37.418],[-122.266,37.388],[-122.242,37.353],[-122.212,37.327],[-122.183,37.31],[-122.171,37.312],[-122.162,37.304],[-122.167,37.295],[-122.153,37.289],[-122.146,37.269],[-122.122,37.26],[-122.092,37.223],[-122.078,37.223],[-122.067,37.209],[-122.042,37.202],[-122.025,37.17],[-122.003,37.16],[-121.992,37.145],[-121.847,37.097],[-121.848,37.106],[-121.836,37.113],[-121.814,37.152],[-121.793,37.16],[-121.766,37.155],[-121.753,37.161],[-121.736,37.154],[-121.732,37.163],[-121.709,37.138],[-121.666,37.143],[-121.624,37.162],[-121.57,37.128],[-121.532,37.071],[-121.498,37.06],[-121.473,37.029],[-121.414,37.018],[-121.407,37.031],[-121.39,37.029],[-121.379,37.04],[-121.385,37.048],[-121.377,37.048],[-121.379,37.055],[-121.393,37.061],[-121.396,37.08],[-121.41,37.085],[-121.42,37.107],[-121.41,37.12],[-121.461,37.161],[-121.46,37.172],[-121.437,37.192],[-121.426,37.193],[-121.423,37.203],[-121.456,37.252],[-121.459,37.29],[-121.497,37.318],[-121.504,37.297],[-121.531,37.29],[-121.526,37.258],[-121.558,37.283],[-121.567,37.271],[-121.6,37.274],[-121.606,37.262],[-121.626,37.273],[-121.63,37.3],[-121.657,37.307],[-121.66,37.318],[-121.677,37.324],[-121.692,37.368],[-121.701,37.379],[-121.716,37.382],[-121.717,37.395],[-121.735,37.401],[-121.734,37.421],[-121.741,37.426],[-121.762,37.417],[-121.83,37.439],[-121.881,37.513],[-121.873,37.524],[-121.878,37.532],[-121.938,37.582],[-122.012,37.557],[-122.093,37.551],[-122.075,37.534],[-122.093,37.53],[-122.158,37.468],[-122.193,37.445],[-122.194,37.432],[-122.209,37.42],[-122.248,37.424],[-122.275,37.457]]]},"properties":{"SHAPE.AREA":2174254691.3239198,"SHAPE.LEN":313002.41456524102,"OBJECTID":81,"HRC":"SF","HBPA":"SF","RBU":2205,"HR":2,"RB":2,"HU":5,"HRNAME":"San Francisco Bay","RBNAME":"San Francisco Bay","HBPANAME":"San Francisco Bay","HUNAME":"SANTA CLARA","IDNUM":"2205"}},{"type":"Feature","id":73,"geometry":{"type":"Polygon","coordinates":[[[-122.145,37.869],[-122.146,37.86],[-122.159,37.863],[-122.158,37.858],[-122.175,37.857],[-122.178,37.849],[-122.198,37.848],[-122.196,37.842],[-122.209,37.829],[-122.242,37.848],[-122.265,37.834],[-122.36,37.815],[-122.392,37.786],[-122.414,37.793],[-122.449,37.789],[-122.444,37.78],[-122.455,37.773],[-122.443,37.765],[-122.457,37.735],[-122.451,37.725],[-122.463,37.707],[-122.457,37.701],[-122.491,37.677],[-122.464,37.639],[-122.47,37.63],[-122.451,37.597],[-122.451,37.583],[-122.38,37.523],[-122.357,37.471],[-122.336,37.448],[-122.304,37.456],[-122.286,37.446],[-122.276,37.458],[-122.248,37.424],[-122.209,37.42],[-122.194,37.432],[-122.193,37.445],[-122.158,37.468],[-122.093,37.53],[-122.075,37.534],[-122.093,37.551],[-122.012,37.557],[-121.938,37.582],[-121.878,37.532],[-121.873,37.524],[-121.881,37.513],[-121.86,37.475],[-121.84,37.461],[-121.833,37.441],[-121.762,37.417],[-121.741,37.426],[-121.734,37.421],[-121.735,37.401],[-121.717,37.395],[-121.716,37.382],[-121.701,37.379],[-121.692,37.368],[-121.677,37.324],[-121.66,37.318],[-121.657,37.307],[-121.637,37.306],[-121.622,37.284],[-121.631,37.279],[-121.611,37.264],[-121.599,37.274],[-121.567,37.271],[-121.558,37.283],[-121.526,37.258],[-121.531,37.29],[-121.504,37.297],[-121.5,37.317],[-121.49,37.317],[-121.456,37.286],[-121.449,37.297],[-121.423,37.299],[-121.407,37.314],[-121.424,37.361],[-121.409,37.38],[-121.411,37.388],[-121.458,37.396],[-121.458,37.408],[-121.474,37.423],[-121.46,37.439],[-121.485,37.474],[-121.469,37.49],[-121.496,37.505],[-121.502,37.525],[-121.546,37.533],[-121.566,37.549],[-121.587,37.586],[-121.62,37.606],[-121.615,37.612],[-121.626,37.622],[-121.608,37.659],[-121.639,37.702],[-121.659,37.709],[-121.659,37.729],[-121.651,37.735],[-121.661,37.753],[-121.652,37.76],[-121.656,37.768],[-121.688,37.761],[-121.708,37.772],[-121.74,37.761],[-121.83,37.835],[-121.876,37.853],[-121.882,37.841],[-121.9,37.844],[-121.908,37.808],[-121.931,37.79],[-121.947,37.794],[-121.956,37.776],[-121.976,37.77],[-121.992,37.736],[-122.012,37.748],[-122.013,37.758],[-121.998,37.763],[-122.004,37.771],[-122.112,37.844],[-122.116,37.873],[-122.135,37.876],[-122.145,37.869]]]},"properties":{"SHAPE.AREA":3159248743.3805199,"SHAPE.LEN":385926.18767501699,"OBJECTID":73,"HRC":"SF","HBPA":"SF","RBU":2204,"HR":2,"RB":2,"HU":4,"HRNAME":"San Francisco Bay","RBNAME":"San Francisco Bay","HBPANAME":"San Francisco Bay","HUNAME":"SOUTH BAY","IDNUM":"2204"}},{"type":"Feature","id":62,"geometry":{"type":"Polygon","coordinates":[[[-122.977,38.27],[-122.967,38.251],[-122.973,38.233],[-122.996,38.239],[-122.968,38.202],[-122.968,38.182],[-122.954,38.176],[-122.949,38.155],[-122.996,38.033],[-123.024,37.995],[-122.964,37.99],[-122.983,37.998],[-122.982,38.009],[-122.965,38.025],[-122.936,38.034],[-122.873,38.023],[-122.801,37.98],[-122.783,37.948],[-122.737,37.926],[-122.726,37.903],[-122.702,37.894],[-122.682,37.906],[-122.698,37.933],[-122.692,37.933],[-122.647,37.902],[-122.68,37.907],[-122.65,37.901],[-122.628,37.881],[-122.602,37.876],[-122.582,37.857],[-122.562,37.852],[-122.53,37.815],[-122.524,37.825],[-122.494,37.834],[-122.492,37.848],[-122.552,37.867],[-122.555,37.891],[-122.582,37.916],[-122.582,37.946],[-122.595,37.95],[-122.606,37.97],[-122.635,37.972],[-122.648,37.981],[-122.65,37.996],[-122.63,37.996],[-122.613,38.022],[-122.625,38.041],[-122.618,38.057],[-122.596,38.067],[-122.629,38.092],[-122.644,38.088],[-122.657,38.098],[-122.675,38.096],[-122.681,38.117],[-122.697,38.117],[-122.69,38.143],[-122.68,38.15],[-122.689,38.164],[-122.706,38.177],[-122.722,38.174],[-122.751,38.185],[-122.756,38.197],[-122.716,38.239],[-122.721,38.25],[-122.732,38.258],[-122.742,38.251],[-122.741,38.239],[-122.759,38.235],[-122.769,38.22],[-122.785,38.22],[-122.8,38.233],[-122.841,38.232],[-122.841,38.238],[-122.88,38.257],[-122.905,38.259],[-122.926,38.246],[-122.94,38.247],[-122.977,38.27]]]},"properties":{"SHAPE.AREA":885597621.37272,"SHAPE.LEN":241748.82447089601,"OBJECTID":62,"HRC":"SF","HBPA":"SF","RBU":2201,"HR":2,"RB":2,"HU":1,"HRNAME":"San Francisco Bay","RBNAME":"San Francisco Bay","HBPANAME":"San Francisco Bay","HUNAME":"MARIN COASTAL","IDNUM":"2201"}},{"type":"Feature","id":54,"geometry":{"type":"Polygon","coordinates":[[[-122.624,38.664],[-122.634,38.637],[-122.628,38.623],[-122.647,38.598],[-122.621,38.56],[-122.588,38.553],[-122.567,38.525],[-122.545,38.521],[-122.549,38.511],[-122.536,38.502],[-122.545,38.496],[-122.529,38.47],[-122.554,38.46],[-122.572,38.465],[-122.581,38.436],[-122.618,38.411],[-122.602,38.4],[-122.588,38.362],[-122.571,38.341],[-122.574,38.329],[-122.598,38.333],[-122.625,38.326],[-122.655,38.335],[-122.681,38.317],[-122.707,38.316],[-122.719,38.306],[-122.725,38.276],[-122.738,38.262],[-122.716,38.239],[-122.755,38.191],[-122.748,38.181],[-122.706,38.177],[-122.689,38.164],[-122.68,38.15],[-122.69,38.143],[-122.697,38.117],[-122.681,38.117],[-122.675,38.096],[-122.657,38.098],[-122.644,38.088],[-122.629,38.092],[-122.605,38.076],[-122.596,38.067],[-122.615,38.061],[-122.623,38.037],[-122.612,38.025],[-122.596,38.029],[-122.582,38.023],[-122.563,37.995],[-122.536,37.988],[-122.464,38.0],[-122.389,37.926],[-122.318,37.949],[-122.247,37.883],[-122.224,37.881],[-122.217,37.869],[-122.221,37.865],[-122.199,37.847],[-122.161,37.856],[-122.159,37.863],[-122.146,37.86],[-122.145,37.869],[-122.166,37.884],[-122.167,37.902],[-122.162,37.914],[-122.136,37.918],[-122.124,37.934],[-122.167,37.961],[-122.175,37.959],[-122.184,37.978],[-122.161,37.983],[-122.182,37.997],[-122.181,38.006],[-122.195,38.017],[-122.192,38.025],[-122.209,38.029],[-122.229,38.048],[-122.225,38.077],[-122.21,38.079],[-122.206,38.096],[-122.178,38.116],[-122.195,38.136],[-122.188,38.144],[-122.199,38.159],[-122.194,38.166],[-122.215,38.179],[-122.193,38.222],[-122.212,38.249],[-122.193,38.256],[-122.213,38.259],[-122.216,38.266],[-122.212,38.273],[-122.188,38.272],[-122.212,38.32],[-122.202,38.331],[-122.22,38.342],[-122.21,38.342],[-122.203,38.359],[-122.225,38.411],[-122.251,38.428],[-122.246,38.435],[-122.274,38.46],[-122.257,38.47],[-122.273,38.483],[-122.276,38.498],[-122.269,38.503],[-122.29,38.542],[-122.321,38.547],[-122.346,38.566],[-122.364,38.565],[-122.373,38.55],[-122.382,38.553],[-122.412,38.567],[-122.436,38.593],[-122.469,38.599],[-122.482,38.613],[-122.518,38.619],[-122.533,38.612],[-122.574,38.642],[-122.57,38.647],[-122.577,38.652],[-122.607,38.652],[-122.618,38.666],[-122.624,38.664]]]},"properties":{"SHAPE.AREA":2638465500.2754502,"SHAPE.LEN":342238.16139857704,"OBJECTID":54,"HRC":"SF","HBPA":"SF","RBU":2206,"HR":2,"RB":2,"HU":6,"HRNAME":"San Francisco Bay","RBNAME":"San Francisco Bay","HBPANAME":"San Francisco Bay","HUNAME":"SAN PABLO","IDNUM":"2206"}},{"type":"Feature","id":69,"geometry":{"type":"Polygon","coordinates":[[[-122.612,38.025],[-122.63,37.996],[-122.65,37.996],[-122.648,37.981],[-122.635,37.972],[-122.607,37.97],[-122.595,37.95],[-122.582,37.946],[-122.582,37.916],[-122.555,37.891],[-122.552,37.867],[-122.49,37.846],[-122.494,37.834],[-122.514,37.825],[-122.499,37.82],[-122.48,37.826],[-122.48,37.801],[-122.487,37.789],[-122.514,37.782],[-122.481,37.776],[-122.459,37.743],[-122.444,37.765],[-122.455,37.773],[-122.444,37.78],[-122.446,37.792],[-122.392,37.786],[-122.36,37.815],[-122.315,37.829],[-122.265,37.834],[-122.242,37.848],[-122.214,37.829],[-122.196,37.842],[-122.221,37.865],[-122.217,37.869],[-122.224,37.881],[-122.247,37.883],[-122.318,37.949],[-122.389,37.926],[-122.464,38.0],[-122.541,37.988],[-122.563,37.996],[-122.583,38.024],[-122.612,38.025]]]},"properties":{"SHAPE.AREA":495703809.35517597,"SHAPE.LEN":146143.54506038301,"OBJECTID":69,"HRC":"SF","HBPA":"SF","RBU":2203,"HR":2,"RB":2,"HU":3,"HRNAME":"San Francisco Bay","RBNAME":"San Francisco Bay","HBPANAME":"San Francisco Bay","HUNAME":"BAY BRIDGES","IDNUM":"2203"}},{"type":"Feature","id":77,"geometry":{"type":"Polygon","coordinates":[[[-122.514,37.782],[-122.494,37.642],[-122.501,37.601],[-122.521,37.594],[-122.514,37.556],[-122.52,37.534],[-122.5,37.496],[-122.479,37.503],[-122.456,37.488],[-122.443,37.433],[-122.401,37.36],[-122.416,37.254],[-122.394,37.233],[-122.373,37.232],[-122.365,37.212],[-122.341,37.195],[-122.284,37.224],[-122.245,37.213],[-122.218,37.216],[-122.203,37.202],[-122.167,37.197],[-122.147,37.235],[-122.152,37.244],[-122.125,37.259],[-122.146,37.269],[-122.153,37.289],[-122.167,37.295],[-122.162,37.304],[-122.171,37.312],[-122.183,37.31],[-122.212,37.327],[-122.242,37.353],[-122.266,37.388],[-122.319,37.418],[-122.311,37.428],[-122.357,37.471],[-122.38,37.522],[-122.45,37.582],[-122.47,37.63],[-122.464,37.639],[-122.492,37.679],[-122.474,37.684],[-122.457,37.701],[-122.463,37.707],[-122.451,37.724],[-122.457,37.735],[-122.453,37.745],[-122.466,37.748],[-122.481,37.776],[-122.514,37.782]]]},"properties":{"SHAPE.AREA":665678697.76599002,"SHAPE.LEN":199473.321777381,"OBJECTID":77,"HRC":"SF","HBPA":"SF","RBU":2202,"HR":2,"RB":2,"HU":2,"HRNAME":"San Francisco Bay","RBNAME":"San Francisco Bay","HBPANAME":"San Francisco Bay","HUNAME":"SAN MATEO","IDNUM":"2202"}},{"type":"Feature","id":60,"geometry":{"type":"Polygon","coordinates":[[[-122.217,38.395],[-122.203,38.358],[-122.21,38.342],[-122.22,38.342],[-122.202,38.331],[-122.212,38.32],[-122.188,38.272],[-122.212,38.273],[-122.216,38.266],[-122.213,38.259],[-122.193,38.256],[-122.212,38.249],[-122.193,38.222],[-122.215,38.179],[-122.194,38.166],[-122.199,38.159],[-122.188,38.144],[-122.195,38.136],[-122.178,38.117],[-122.206,38.096],[-122.21,38.079],[-122.225,38.077],[-122.229,38.048],[-122.209,38.029],[-122.192,38.025],[-122.195,38.017],[-122.181,38.006],[-122.182,37.997],[-122.161,37.983],[-122.184,37.978],[-122.175,37.959],[-122.167,37.961],[-122.124,37.934],[-122.136,37.918],[-122.162,37.914],[-122.165,37.882],[-122.145,37.869],[-122.135,37.876],[-122.116,37.873],[-122.112,37.844],[-122.004,37.771],[-121.998,37.763],[-122.013,37.758],[-122.012,37.748],[-121.992,37.736],[-121.976,37.77],[-121.956,37.776],[-121.947,37.794],[-121.931,37.79],[-121.904,37.816],[-121.898,37.845],[-121.937,37.857],[-121.925,37.867],[-121.925,37.877],[-121.9,37.894],[-121.902,37.901],[-121.869,37.925],[-121.884,37.942],[-121.833,38.033],[-121.846,38.059],[-121.862,38.068],[-121.843,38.077],[-121.839,38.094],[-121.846,38.111],[-121.829,38.116],[-121.83,38.126],[-121.81,38.142],[-121.822,38.154],[-121.834,38.15],[-121.836,38.165],[-121.851,38.182],[-121.848,38.194],[-121.87,38.204],[-121.869,38.228],[-121.88,38.23],[-121.868,38.261],[-121.884,38.268],[-121.884,38.282],[-121.895,38.294],[-121.928,38.294],[-121.965,38.329],[-121.996,38.325],[-121.987,38.31],[-121.999,38.299],[-122.029,38.314],[-122.036,38.326],[-122.062,38.328],[-122.074,38.362],[-122.126,38.427],[-122.171,38.429],[-122.178,38.423],[-122.168,38.409],[-122.176,38.395],[-122.188,38.402],[-122.217,38.395]]]},"properties":{"SHAPE.AREA":1688251614.2892499,"SHAPE.LEN":261789.328534917,"OBJECTID":60,"HRC":"SF","HBPA":"SF","RBU":2207,"HR":2,"RB":2,"HU":7,"HRNAME":"San Francisco Bay","RBNAME":"San Francisco Bay","HBPANAME":"San Francisco Bay","HUNAME":"SUISUN","IDNUM":"2207"}}]}