{"type":"FeatureCollection","features":[{"type":"Feature","id":5,"geometry":{"type":"Polygon","coordinates":[[[-123.351,41.999],[-123.337,41.974],[-123.303,41.962],[-123.304,41.946],[-123.276,41.948],[-123.242,41.924],[-123.203,41.917],[-123.164,41.94],[-123.114,41.937],[-123.074,41.956],[-123.016,41.949],[-123.0,41.931],[-122.979,41.938],[-122.966,41.932],[-122.958,41.954],[-122.9,41.995],[-122.897,42.004],[-123.351,41.999]]]},"properties":{"SHAPE.AREA":236142318.65153599,"SHAPE.LEN":92261.473863675099,"OBJECTID":5,"HRC":"NC","HBPA":"NC","RBU":1102,"HR":1,"RB":1,"HU":2,"HRNAME":"North Coast","RBNAME":"North Coast","HBPANAME":"North Coast","HUNAME":"ROGUE RIVER","IDNUM":"1102"}},{"type":"Feature","id":2,"geometry":{"type":"Polygon","coordinates":[[[-123.788,41.996],[-124.051,41.997],[-124.067,41.976],[-124.093,41.971],[-124.101,41.962],[-124.153,41.968],[-124.162,41.951],[-124.21,41.951],[-124.203,41.936],[-124.213,41.868],[-124.235,41.809],[-124.255,41.785],[-124.248,41.773],[-124.254,41.771],[-124.241,41.772],[-124.195,41.737],[-124.2,41.746],[-124.194,41.75],[-124.181,41.745],[-124.185,41.74],[-124.177,41.746],[-124.161,41.737],[-124.144,41.709],[-124.136,41.657],[-124.12,41.64],[-124.116,41.615],[-124.102,41.604],[-124.103,41.595],[-124.069,41.608],[-124.052,41.624],[-124.077,41.658],[-124.069,41.663],[-124.05,41.661],[-124.035,41.669],[-124.031,41.655],[-124.01,41.648],[-123.97,41.661],[-123.953,41.64],[-123.903,41.517],[-123.879,41.511],[-123.865,41.517],[-123.846,41.541],[-123.843,41.572],[-123.833,41.585],[-123.785,41.574],[-123.777,41.557],[-123.73,41.567],[-123.714,41.579],[-123.719,41.595],[-123.711,41.616],[-123.697,41.634],[-123.681,41.634],[-123.69,41.669],[-123.663,41.694],[-123.67,41.702],[-123.66,41.715],[-123.667,41.732],[-123.679,41.739],[-123.688,41.78],[-123.675,41.786],[-123.672,41.796],[-123.689,41.802],[-123.704,41.829],[-123.671,41.835],[-123.662,41.856],[-123.65,41.86],[-123.647,41.877],[-123.652,41.879],[-123.636,41.899],[-123.649,41.907],[-123.653,41.939],[-123.675,41.939],[-123.706,41.956],[-123.727,41.954],[-123.747,41.971],[-123.772,41.978],[-123.782,41.974],[-123.789,41.979],[-123.788,41.996]]]},"properties":{"SHAPE.AREA":1823024522.26579,"SHAPE.LEN":239751.34631367298,"OBJECTID":2,"HRC":"NC","HBPA":"NC","RBU":1103,"HR":1,"RB":1,"HU":3,"HRNAME":"North Coast","RBNAME":"North Coast","HBPANAME":"North Coast","HUNAME":"SMITH RIVER","IDNUM":"1103"}},{"type":"Feature","id":13,"geometry":{"type":"Polygon","coordinates":[[[-122.724,41.248],[-122.777,41.231],[-122.78,41.219],[-122.802,41.203],[-122.826,41.21],[-122.846,41.2],[-122.886,41.205],[-122.929,41.179],[-122.951,41.185],[-122.962,41.181],[-122.952,41.151],[-122.965,41.138],[-122.959,41.124],[-122.974,41.111],[-122.971,41.091],[-122.953,41.074],[-122.923,41.072],[-122.897,41.029],[-122.918,40.994],[-122.941,40.993],[-122.952,41.007],[-122.981,41.014],[-123.037,41.004],[-123.055,41.046],[-123.097,41.059],[-123.109,41.076],[-123.193,41.077],[-123.203,41.072],[-123.245,41.078],[-123.274,41.123],[-123.284,41.123],[-123.295,41.141],[-123.325,41.142],[-123.33,41.153],[-123.353,41.163],[-123.381,41.152],[-123.407,41.18],[-123.417,41.165],[-123.433,41.163],[-123.429,41.118],[-123.445,41.089],[-123.488,41.109],[-123.48,41.132],[-123.505,41.165],[-123.576,41.183],[-123.6,41.169],[-123.645,41.182],[-123.687,41.175],[-123.709,41.185],[-123.741,41.168],[-123.729,41.157],[-123.738,41.137],[-123.73,41.133],[-123.774,41.107],[-123.757,41.071],[-123.759,41.051],[-123.744,41.028],[-123.746,41.016],[-123.762,41.008],[-123.769,40.992],[-123.754,40.965],[-123.753,40.939],[-123.771,40.931],[-123.779,40.914],[-123.771,40.884],[-123.736,40.872],[-123.721,40.839],[-123.692,40.815],[-123.689,40.791],[-123.679,40.783],[-123.678,40.766],[-123.698,40.762],[-123.691,40.74],[-123.704,40.704],[-123.696,40.696],[-123.7,40.684],[-123.684,40.679],[-123.648,40.633],[-123.633,40.625],[-123.638,40.674],[-123.623,40.683],[-123.604,40.673],[-123.513,40.548],[-123.503,40.512],[-123.472,40.473],[-123.435,40.394],[-123.392,40.359],[-123.342,40.338],[-123.302,40.302],[-123.28,40.27],[-123.226,40.248],[-123.222,40.231],[-123.182,40.223],[-123.175,40.21],[-123.148,40.205],[-123.148,40.185],[-123.134,40.174],[-123.13,40.139],[-123.099,40.138],[-123.079,40.149],[-123.063,40.132],[-123.049,40.132],[-122.987,40.148],[-122.984,40.172],[-122.97,40.186],[-122.98,40.215],[-122.977,40.241],[-123.058,40.274],[-123.069,40.308],[-123.062,40.313],[-123.066,40.345],[-123.044,40.347],[-123.04,40.362],[-123.017,40.372],[-123.013,40.388],[-122.997,40.397],[-122.999,40.418],[-122.954,40.422],[-122.938,40.429],[-122.927,40.447],[-122.901,40.445],[-122.884,40.475],[-122.847,40.491],[-122.852,40.501],[-122.846,40.505],[-122.793,40.515],[-122.782,40.532],[-122.785,40.541],[-122.767,40.555],[-122.744,40.554],[-122.741,40.564],[-122.723,40.575],[-122.701,40.569],[-122.693,40.575],[-122.711,40.613],[-122.71,40.631],[-122.736,40.636],[-122.727,40.65],[-122.752,40.69],[-122.722,40.695],[-122.707,40.725],[-122.72,40.74],[-122.717,40.747],[-122.671,40.773],[-122.658,40.788],[-122.662,40.8],[-122.655,40.808],[-122.666,40.826],[-122.656,40.842],[-122.64,40.845],[-122.625,40.879],[-122.609,40.883],[-122.6,40.9],[-122.613,40.921],[-122.601,40.973],[-122.589,40.985],[-122.569,40.985],[-122.554,41.004],[-122.537,41.003],[-122.528,41.015],[-122.53,41.038],[-122.522,41.054],[-122.54,41.073],[-122.513,41.089],[-122.493,41.086],[-122.457,41.097],[-122.452,41.108],[-122.447,41.158],[-122.474,41.177],[-122.499,41.18],[-122.495,41.192],[-122.523,41.213],[-122.512,41.227],[-122.518,41.239],[-122.508,41.246],[-122.514,41.28],[-122.5,41.292],[-122.503,41.309],[-122.479,41.32],[-122.503,41.333],[-122.505,41.343],[-122.536,41.341],[-122.553,41.362],[-122.573,41.369],[-122.586,41.358],[-122.581,41.337],[-122.589,41.327],[-122.628,41.332],[-122.645,41.325],[-122.653,41.289],[-122.663,41.292],[-122.681,41.278],[-122.712,41.274],[-122.724,41.248]]]},"properties":{"SHAPE.AREA":7692102883.8628798,"SHAPE.LEN":587427.17425599298,"OBJECTID":13,"HRC":"NC","HBPA":"NC","RBU":1106,"HR":1,"RB":1,"HU":6,"HRNAME":"North Coast","RBNAME":"North Coast","HBPANAME":"North Coast","HUNAME":"TRINITY RIVER","IDNUM":"1106"}},{"type":"Feature","id":4,"geometry":{"type":"Polygon","coordinates":[[[-123.518,42.001],[-123.541,41.986],[-123.533,41.955],[-123.554,41.93],[-123.559,41.906],[-123.594,41.906],[-123.607,41.881],[-123.643,41.89],[-123.652,41.879],[-123.647,41.877],[-123.65,41.86],[-123.662,41.856],[-123.671,41.835],[-123.704,41.829],[-123.689,41.802],[-123.672,41.796],[-123.675,41.786],[-123.688,41.78],[-123.679,41.739],[-123.667,41.732],[-123.66,41.715],[-123.67,41.702],[-123.663,41.694],[-123.69,41.669],[-123.681,41.634],[-123.697,41.634],[-123.711,41.615],[-123.719,41.595],[-123.714,41.579],[-123.727,41.568],[-123.777,41.557],[-123.785,41.574],[-123.833,41.585],[-123.843,41.572],[-123.85,41.532],[-123.867,41.516],[-123.891,41.513],[-123.906,41.52],[-123.91,41.544],[-123.935,41.588],[-123.953,41.64],[-123.97,41.661],[-124.01,41.648],[-124.031,41.655],[-124.035,41.669],[-124.077,41.658],[-124.051,41.626],[-124.069,41.608],[-124.105,41.595],[-124.097,41.585],[-124.099,41.564],[-124.081,41.547],[-124.085,41.524],[-124.067,41.452],[-124.041,41.454],[-124.021,41.438],[-124.022,41.427],[-124.008,41.421],[-124.013,41.414],[-123.992,41.395],[-123.99,41.377],[-123.978,41.372],[-123.978,41.355],[-123.963,41.348],[-123.968,41.346],[-123.964,41.335],[-123.947,41.329],[-123.966,41.287],[-123.988,41.267],[-123.98,41.235],[-123.961,41.227],[-123.956,41.209],[-123.926,41.185],[-123.917,41.167],[-123.895,41.162],[-123.859,41.139],[-123.85,41.123],[-123.857,41.112],[-123.841,41.105],[-123.834,41.078],[-123.811,41.077],[-123.805,41.07],[-123.782,41.022],[-123.783,41.002],[-123.793,40.993],[-123.767,40.99],[-123.762,41.008],[-123.746,41.016],[-123.744,41.031],[-123.759,41.051],[-123.757,41.071],[-123.774,41.107],[-123.73,41.133],[-123.738,41.137],[-123.729,41.157],[-123.741,41.168],[-123.708,41.185],[-123.687,41.175],[-123.645,41.182],[-123.6,41.169],[-123.578,41.183],[-123.535,41.177],[-123.505,41.165],[-123.48,41.132],[-123.486,41.106],[-123.473,41.107],[-123.446,41.089],[-123.429,41.118],[-123.433,41.163],[-123.417,41.165],[-123.407,41.18],[-123.381,41.152],[-123.353,41.163],[-123.33,41.153],[-123.325,41.142],[-123.295,41.141],[-123.284,41.123],[-123.274,41.123],[-123.245,41.078],[-123.203,41.072],[-123.193,41.077],[-123.109,41.076],[-123.097,41.059],[-123.055,41.046],[-123.037,41.004],[-122.981,41.014],[-122.952,41.007],[-122.941,40.993],[-122.918,40.994],[-122.897,41.029],[-122.923,41.072],[-122.953,41.074],[-122.971,41.091],[-122.974,41.111],[-122.959,41.124],[-122.965,41.138],[-122.952,41.151],[-122.961,41.181],[-122.929,41.179],[-122.886,41.205],[-122.846,41.2],[-122.826,41.21],[-122.802,41.203],[-122.78,41.219],[-122.777,41.231],[-122.724,41.248],[-122.712,41.274],[-122.681,41.278],[-122.663,41.292],[-122.653,41.289],[-122.645,41.325],[-122.628,41.332],[-122.589,41.327],[-122.581,41.337],[-122.586,41.358],[-122.573,41.369],[-122.553,41.362],[-122.536,41.341],[-122.505,41.343],[-122.503,41.333],[-122.473,41.319],[-122.452,41.338],[-122.434,41.336],[-122.412,41.367],[-122.388,41.385],[-122.378,41.386],[-122.348,41.367],[-122.328,41.38],[-122.255,41.394],[-122.22,41.412],[-122.199,41.402],[-122.19,41.431],[-122.142,41.506],[-122.083,41.498],[-122.06,41.478],[-122.063,41.471],[-122.053,41.446],[-122.046,41.459],[-122.03,41.46],[-122.012,41.474],[-121.977,41.461],[-121.956,41.473],[-121.911,41.475],[-121.887,41.512],[-121.857,41.518],[-121.849,41.53],[-121.819,41.527],[-121.809,41.546],[-121.774,41.543],[-121.765,41.553],[-121.746,41.545],[-121.745,41.56],[-121.73,41.57],[-121.713,41.571],[-121.701,41.581],[-121.685,41.568],[-121.676,41.579],[-121.654,41.58],[-121.604,41.62],[-121.565,41.622],[-121.551,41.609],[-121.506,41.601],[-121.524,41.579],[-121.496,41.572],[-121.474,41.574],[-121.417,41.601],[-121.312,41.604],[-121.29,41.617],[-121.296,41.629],[-121.286,41.63],[-121.277,41.593],[-121.244,41.55],[-121.207,41.537],[-121.193,41.519],[-121.199,41.514],[-121.167,41.515],[-121.131,41.503],[-121.118,41.508],[-121.118,41.523],[-121.033,41.538],[-121.024,41.59],[-121.003,41.586],[-120.962,41.608],[-120.943,41.59],[-120.923,41.586],[-120.911,41.598],[-120.894,41.594],[-120.914,41.557],[-120.929,41.558],[-120.923,41.53],[-120.909,41.537],[-120.898,41.531],[-120.888,41.547],[-120.867,41.529],[-120.864,41.563],[-120.852,41.567],[-120.845,41.592],[-120.809,41.588],[-120.824,41.606],[-120.815,41.613],[-120.826,41.638],[-120.812,41.649],[-120.818,41.672],[-120.811,41.683],[-120.752,41.711],[-120.743,41.732],[-120.706,41.752],[-120.671,41.753],[-120.62,41.781],[-120.621,41.797],[-120.598,41.807],[-120.599,41.824],[-120.58,41.825],[-120.577,41.843],[-120.587,41.876],[-120.57,41.875],[-120.575,41.898],[-120.566,41.915],[-120.565,41.928],[-120.592,41.962],[-120.61,41.965],[-120.614,41.975],[-120.643,41.982],[-120.652,41.977],[-120.701,41.994],[-122.298,42.009],[-122.897,42.004],[-122.9,41.995],[-122.958,41.954],[-122.966,41.932],[-122.979,41.938],[-123.0,41.931],[-123.016,41.949],[-123.074,41.956],[-123.114,41.937],[-123.164,41.94],[-123.203,41.917],[-123.242,41.924],[-123.276,41.948],[-123.304,41.946],[-123.303,41.962],[-123.337,41.974],[-123.351,41.999],[-123.518,42.001]]]},"properties":{"SHAPE.AREA":18232076705.362598,"SHAPE.LEN":1025380.875286,"OBJECTID":4,"HRC":"NC","HBPA":"NC","RBU":1105,"HR":1,"RB":1,"HU":5,"HRNAME":"North Coast","RBNAME":"North Coast","HBPANAME":"North Coast","HUNAME":"KLAMATH RIVER","IDNUM":"1105"}},{"type":"Feature","id":41,"geometry":{"type":"Polygon","coordinates":[[[-123.328,39.345],[-123.361,39.359],[-123.388,39.355],[-123.387,39.336],[-123.369,39.319],[-123.38,39.303],[-123.371,39.278],[-123.383,39.273],[-123.331,39.25],[-123.34,39.233],[-123.333,39.223],[-123.37,39.211],[-123.37,39.194],[-123.338,39.159],[-123.316,39.148],[-123.3,39.113],[-123.295,39.077],[-123.286,39.076],[-123.276,39.062],[-123.267,39.005],[-123.27,38.996],[-123.281,38.999],[-123.288,38.991],[-123.28,38.981],[-123.267,38.98],[-123.248,38.951],[-123.214,38.946],[-123.226,38.935],[-123.227,38.908],[-123.239,38.89],[-123.233,38.882],[-123.198,38.873],[-123.199,38.863],[-123.189,38.856],[-123.198,38.849],[-123.192,38.836],[-123.207,38.835],[-123.224,38.814],[-123.249,38.814],[-123.258,38.829],[-123.274,38.829],[-123.267,38.803],[-123.272,38.798],[-123.245,38.768],[-123.182,38.771],[-123.133,38.753],[-123.158,38.746],[-123.162,38.726],[-123.147,38.721],[-123.134,38.703],[-123.15,38.695],[-123.151,38.686],[-123.109,38.647],[-123.13,38.641],[-123.16,38.607],[-123.167,38.594],[-123.16,38.578],[-123.167,38.555],[-123.167,38.536],[-123.146,38.523],[-123.142,38.507],[-123.12,38.505],[-123.101,38.491],[-123.132,38.453],[-123.097,38.424],[-123.073,38.412],[-123.05,38.412],[-123.041,38.404],[-123.015,38.401],[-122.999,38.423],[-122.986,38.425],[-122.972,38.412],[-122.927,38.407],[-122.901,38.387],[-122.9,38.37],[-122.877,38.363],[-122.865,38.346],[-122.835,38.344],[-122.813,38.324],[-122.781,38.327],[-122.789,38.315],[-122.738,38.299],[-122.73,38.315],[-122.716,38.305],[-122.705,38.317],[-122.681,38.317],[-122.655,38.335],[-122.625,38.326],[-122.598,38.333],[-122.575,38.328],[-122.571,38.341],[-122.588,38.362],[-122.588,38.375],[-122.602,38.401],[-122.618,38.411],[-122.581,38.436],[-122.572,38.465],[-122.554,38.46],[-122.529,38.47],[-122.545,38.496],[-122.536,38.502],[-122.549,38.511],[-122.545,38.521],[-122.567,38.525],[-122.588,38.553],[-122.621,38.56],[-122.647,38.598],[-122.628,38.623],[-122.634,38.637],[-122.623,38.653],[-122.637,38.694],[-122.647,38.707],[-122.696,38.713],[-122.701,38.729],[-122.711,38.732],[-122.709,38.749],[-122.724,38.757],[-122.748,38.788],[-122.748,38.803],[-122.796,38.839],[-122.812,38.838],[-122.829,38.862],[-122.856,38.863],[-122.912,38.902],[-122.954,38.912],[-122.963,38.927],[-122.97,38.926],[-122.964,38.936],[-122.978,38.942],[-122.975,38.98],[-122.993,38.999],[-123.012,38.996],[-123.05,39.015],[-123.064,39.037],[-123.056,39.053],[-123.097,39.083],[-123.096,39.096],[-123.085,39.102],[-123.085,39.126],[-123.077,39.131],[-123.075,39.146],[-123.083,39.155],[-123.064,39.173],[-123.052,39.166],[-123.015,39.21],[-123.026,39.221],[-123.012,39.219],[-123.012,39.23],[-122.994,39.239],[-123.008,39.273],[-123.023,39.283],[-123.017,39.292],[-123.023,39.318],[-123.077,39.345],[-123.088,39.368],[-123.128,39.378],[-123.163,39.399],[-123.172,39.374],[-123.202,39.38],[-123.201,39.372],[-123.215,39.368],[-123.229,39.384],[-123.249,39.385],[-123.254,39.371],[-123.248,39.359],[-123.271,39.349],[-123.271,39.326],[-123.29,39.327],[-123.328,39.345]]]},"properties":{"SHAPE.AREA":3844455546.7604699,"SHAPE.LEN":470001.457724743,"OBJECTID":41,"HRC":"NC","HBPA":"NC","RBU":1114,"HR":1,"RB":1,"HU":14,"HRNAME":"North Coast","RBNAME":"North Coast","HBPANAME":"North Coast","HUNAME":"RUSSIAN RIVER","IDNUM":"1114"}},{"type":"Feature","id":23,"geometry":{"type":"Polygon","coordinates":[[[-123.947,40.724],[-123.974,40.726],[-123.991,40.718],[-123.975,40.685],[-123.976,40.671],[-124.001,40.65],[-124.021,40.65],[-124.022,40.636],[-124.015,40.629],[-124.021,40.623],[-124.067,40.604],[-124.097,40.627],[-124.194,40.631],[-124.244,40.684],[-124.277,40.697],[-124.358,40.559],[-124.335,40.562],[-124.314,40.554],[-124.307,40.539],[-124.268,40.533],[-124.264,40.519],[-124.284,40.512],[-124.282,40.501],[-124.244,40.496],[-124.203,40.457],[-124.143,40.448],[-124.12,40.417],[-124.107,40.424],[-124.084,40.42],[-124.041,40.395],[-124.052,40.375],[-124.051,40.356],[-124.074,40.357],[-124.083,40.345],[-124.07,40.327],[-124.069,40.309],[-124.058,40.3],[-124.057,40.282],[-124.022,40.26],[-123.986,40.255],[-123.994,40.244],[-123.994,40.223],[-123.941,40.215],[-123.932,40.181],[-123.909,40.152],[-123.915,40.143],[-123.932,40.139],[-123.937,40.124],[-123.95,40.121],[-123.952,40.095],[-123.943,40.077],[-123.932,40.072],[-123.936,40.067],[-123.918,40.032],[-123.893,40.016],[-123.916,39.968],[-123.927,39.974],[-123.942,39.965],[-123.965,39.965],[-123.942,39.95],[-123.95,39.94],[-123.901,39.921],[-123.864,39.93],[-123.85,39.91],[-123.818,39.893],[-123.816,39.882],[-123.768,39.855],[-123.779,39.823],[-123.791,39.814],[-123.804,39.817],[-123.786,39.801],[-123.794,39.781],[-123.762,39.745],[-123.745,39.738],[-123.745,39.727],[-123.71,39.712],[-123.705,39.706],[-123.717,39.696],[-123.731,39.697],[-123.723,39.686],[-123.691,39.68],[-123.689,39.657],[-123.66,39.654],[-123.636,39.637],[-123.62,39.637],[-123.581,39.604],[-123.548,39.612],[-123.52,39.607],[-123.517,39.566],[-123.503,39.56],[-123.501,39.548],[-123.507,39.541],[-123.504,39.515],[-123.452,39.503],[-123.43,39.452],[-123.407,39.436],[-123.417,39.404],[-123.443,39.391],[-123.431,39.377],[-123.443,39.362],[-123.376,39.354],[-123.361,39.359],[-123.274,39.326],[-123.271,39.349],[-123.248,39.359],[-123.254,39.371],[-123.249,39.385],[-123.229,39.384],[-123.215,39.368],[-123.201,39.372],[-123.202,39.38],[-123.172,39.374],[-123.163,39.399],[-123.128,39.378],[-123.088,39.368],[-123.077,39.345],[-123.024,39.32],[-123.01,39.321],[-122.978,39.306],[-122.943,39.312],[-122.907,39.279],[-122.859,39.254],[-122.847,39.24],[-122.811,39.26],[-122.774,39.254],[-122.751,39.242],[-122.724,39.245],[-122.713,39.259],[-122.757,39.284],[-122.776,39.313],[-122.766,39.342],[-122.752,39.346],[-122.743,39.367],[-122.801,39.391],[-122.811,39.409],[-122.784,39.443],[-122.776,39.43],[-122.742,39.431],[-122.738,39.458],[-122.744,39.471],[-122.724,39.496],[-122.718,39.516],[-122.7,39.523],[-122.684,39.519],[-122.668,39.54],[-122.707,39.562],[-122.698,39.585],[-122.722,39.59],[-122.728,39.615],[-122.803,39.647],[-122.81,39.675],[-122.779,39.688],[-122.81,39.703],[-122.814,39.714],[-122.806,39.726],[-122.857,39.733],[-122.871,39.747],[-122.895,39.753],[-122.918,39.784],[-122.943,39.801],[-122.946,39.833],[-122.96,39.845],[-122.951,39.868],[-122.951,39.906],[-122.921,39.916],[-122.921,39.929],[-122.91,39.936],[-122.927,39.945],[-122.927,39.971],[-122.952,39.998],[-122.949,40.012],[-122.956,40.02],[-122.949,40.05],[-122.973,40.078],[-122.961,40.09],[-122.973,40.13],[-122.969,40.139],[-122.994,40.145],[-123.062,40.132],[-123.079,40.149],[-123.099,40.138],[-123.123,40.141],[-123.14,40.125],[-123.147,40.1],[-123.173,40.088],[-123.222,40.105],[-123.232,40.121],[-123.262,40.12],[-123.272,40.13],[-123.263,40.153],[-123.287,40.156],[-123.301,40.169],[-123.3,40.18],[-123.331,40.196],[-123.341,40.23],[-123.377,40.264],[-123.38,40.284],[-123.41,40.295],[-123.444,40.348],[-123.466,40.358],[-123.495,40.402],[-123.492,40.415],[-123.526,40.466],[-123.557,40.489],[-123.655,40.512],[-123.663,40.521],[-123.658,40.527],[-123.678,40.534],[-123.7,40.566],[-123.727,40.57],[-123.738,40.579],[-123.731,40.602],[-123.749,40.62],[-123.796,40.62],[-123.815,40.636],[-123.833,40.636],[-123.842,40.649],[-123.857,40.644],[-123.886,40.652],[-123.894,40.66],[-123.876,40.677],[-123.892,40.694],[-123.894,40.713],[-123.919,40.709],[-123.947,40.724]]]},"properties":{"SHAPE.AREA":9537602944.8506203,"SHAPE.LEN":702597.44860073109,"OBJECTID":23,"HRC":"NC","HBPA":"NC","RBU":1111,"HR":1,"RB":1,"HU":11,"HRNAME":"North Coast","RBNAME":"North Coast","HBPANAME":"North Coast","HUNAME":"EEL RIVER","IDNUM":"1111"}},{"type":"Feature","id":17,"geometry":{"type":"Polygon","coordinates":[[[-124.117,40.997],[-124.135,40.933],[-124.093,40.906],[-124.067,40.908],[-124.055,40.899],[-124.058,40.89],[-124.023,40.837],[-123.997,40.824],[-123.984,40.798],[-123.966,40.791],[-123.966,40.776],[-123.952,40.766],[-123.969,40.758],[-123.97,40.749],[-123.948,40.735],[-123.943,40.72],[-123.928,40.72],[-123.919,40.709],[-123.893,40.712],[-123.892,40.694],[-123.876,40.677],[-123.893,40.657],[-123.857,40.644],[-123.842,40.649],[-123.833,40.636],[-123.815,40.636],[-123.796,40.62],[-123.749,40.62],[-123.731,40.602],[-123.738,40.579],[-123.727,40.57],[-123.7,40.566],[-123.678,40.534],[-123.658,40.527],[-123.663,40.521],[-123.655,40.512],[-123.557,40.489],[-123.532,40.471],[-123.5,40.43],[-123.492,40.415],[-123.495,40.402],[-123.466,40.358],[-123.444,40.348],[-123.41,40.295],[-123.38,40.284],[-123.377,40.264],[-123.341,40.23],[-123.331,40.196],[-123.3,40.18],[-123.301,40.169],[-123.287,40.156],[-123.263,40.153],[-123.27,40.126],[-123.232,40.121],[-123.227,40.109],[-123.204,40.104],[-123.185,40.089],[-123.147,40.1],[-123.14,40.125],[-123.127,40.136],[-123.136,40.149],[-123.134,40.174],[-123.148,40.185],[-123.147,40.205],[-123.175,40.21],[-123.181,40.223],[-123.222,40.231],[-123.226,40.248],[-123.28,40.27],[-123.302,40.302],[-123.342,40.338],[-123.392,40.359],[-123.435,40.394],[-123.472,40.473],[-123.503,40.512],[-123.513,40.548],[-123.604,40.673],[-123.623,40.683],[-123.637,40.674],[-123.638,40.642],[-123.631,40.628],[-123.64,40.627],[-123.684,40.679],[-123.722,40.697],[-123.757,40.731],[-123.779,40.777],[-123.826,40.813],[-123.822,40.834],[-123.827,40.847],[-123.865,40.882],[-123.871,40.903],[-123.857,40.925],[-123.864,40.954],[-123.931,40.998],[-123.959,41.004],[-123.986,40.988],[-123.979,40.965],[-123.985,40.957],[-124.013,40.988],[-124.043,40.983],[-124.056,40.997],[-124.094,40.989],[-124.117,40.997]]]},"properties":{"SHAPE.AREA":1303895270.7743499,"SHAPE.LEN":350080.717194258,"OBJECTID":17,"HRC":"NC","HBPA":"NC","RBU":1109,"HR":1,"RB":1,"HU":9,"HRNAME":"North Coast","RBNAME":"North Coast","HBPANAME":"North Coast","HUNAME":"MAD RIVER","IDNUM":"1109"}},{"type":"Feature","id":20,"geometry":{"type":"Polygon","coordinates":[[[-123.947,40.724],[-123.948,40.735],[-123.97,40.749],[-123.969,40.758],[-123.952,40.764],[-123.966,40.776],[-123.966,40.791],[-123.984,40.798],[-123.997,40.824],[-124.023,40.837],[-124.058,40.89],[-124.055,40.899],[-124.067,40.908],[-124.093,40.906],[-124.135,40.933],[-124.172,40.851],[-124.277,40.697],[-124.244,40.684],[-124.194,40.631],[-124.097,40.627],[-124.067,40.604],[-124.021,40.623],[-124.015,40.629],[-124.022,40.636],[-124.021,40.65],[-124.001,40.65],[-123.976,40.671],[-123.975,40.685],[-123.991,40.718],[-123.974,40.726],[-123.947,40.724]]]},"properties":{"SHAPE.AREA":571377667.13267696,"SHAPE.LEN":115162.88562971901,"OBJECTID":20,"HRC":"NC","HBPA":"NC","RBU":1110,"HR":1,"RB":1,"HU":10,"HRNAME":"North Coast","RBNAME":"North Coast","HBPANAME":"North Coast","HUNAME":"EUREKA PLAIN","IDNUM":"1110"}},{"type":"Feature","id":14,"geometry":{"type":"Polygon","coordinates":[[[-123.993,41.12],[-124.016,41.133],[-124.024,41.143],[-124.015,41.149],[-124.024,41.159],[-124.046,41.162],[-124.067,41.177],[-124.062,41.183],[-124.072,41.193],[-124.058,41.2],[-124.061,41.219],[-124.072,41.229],[-124.083,41.282],[-124.092,41.289],[-124.108,41.226],[-124.137,41.157],[-124.147,41.142],[-124.162,41.141],[-124.166,41.13],[-124.159,41.121],[-124.165,41.101],[-124.154,41.087],[-124.16,41.069],[-124.149,41.062],[-124.153,41.054],[-124.135,41.055],[-124.111,41.028],[-124.117,40.997],[-124.094,40.989],[-124.056,40.997],[-124.043,40.983],[-124.013,40.988],[-123.985,40.957],[-123.979,40.966],[-123.987,40.987],[-123.963,41.004],[-123.931,40.998],[-123.9,40.978],[-123.899,40.988],[-123.922,41.014],[-123.932,41.051],[-123.958,41.068],[-123.975,41.106],[-123.993,41.12]]]},"properties":{"SHAPE.AREA":339010262.15558398,"SHAPE.LEN":119831.10229607501,"OBJECTID":14,"HRC":"NC","HBPA":"NC","RBU":1108,"HR":1,"RB":1,"HU":8,"HRNAME":"North Coast","RBNAME":"North Coast","HBPANAME":"North Coast","HUNAME":"TRINIDAD","IDNUM":"1108"}},{"type":"Feature","id":59,"geometry":{"type":"Polygon","coordinates":[[[-122.789,38.315],[-122.78,38.327],[-122.813,38.324],[-122.835,38.344],[-122.865,38.346],[-122.877,38.363],[-122.9,38.37],[-122.901,38.387],[-122.927,38.407],[-122.972,38.412],[-122.986,38.425],[-122.999,38.423],[-123.015,38.401],[-123.041,38.404],[-123.05,38.412],[-123.073,38.412],[-123.097,38.424],[-123.127,38.447],[-123.122,38.43],[-123.102,38.413],[-123.097,38.394],[-123.086,38.391],[-123.069,38.362],[-123.069,38.335],[-123.079,38.323],[-123.065,38.303],[-123.053,38.3],[-123.045,38.313],[-123.025,38.311],[-122.986,38.273],[-122.969,38.274],[-122.965,38.269],[-122.971,38.274],[-122.977,38.27],[-122.941,38.248],[-122.926,38.246],[-122.905,38.259],[-122.88,38.257],[-122.841,38.238],[-122.841,38.232],[-122.8,38.233],[-122.785,38.22],[-122.769,38.22],[-122.759,38.235],[-122.739,38.241],[-122.742,38.251],[-122.733,38.257],[-122.738,38.262],[-122.725,38.276],[-122.719,38.306],[-122.729,38.315],[-122.738,38.299],[-122.789,38.315]]]},"properties":{"SHAPE.AREA":382365475.92106402,"SHAPE.LEN":133049.76266410301,"OBJECTID":59,"HRC":"NC","HBPA":"NC","RBU":1115,"HR":1,"RB":1,"HU":15,"HRNAME":"North Coast","RBNAME":"North Coast","HBPANAME":"North Coast","HUNAME":"BODEGA","IDNUM":"1115"}},{"type":"Feature","id":3,"geometry":{"type":"Polygon","coordinates":[[[-123.518,42.001],[-123.791,41.991],[-123.782,41.974],[-123.772,41.978],[-123.747,41.971],[-123.727,41.954],[-123.706,41.956],[-123.675,41.939],[-123.653,41.939],[-123.649,41.907],[-123.636,41.9],[-123.64,41.89],[-123.607,41.881],[-123.594,41.906],[-123.559,41.906],[-123.554,41.93],[-123.533,41.955],[-123.541,41.986],[-123.518,42.001]]]},"properties":{"SHAPE.AREA":153031538.36468801,"SHAPE.LEN":67965.653116520494,"OBJECTID":3,"HRC":"NC","HBPA":"NC","RBU":1102,"HR":1,"RB":1,"HU":2,"HRNAME":"North Coast","RBNAME":"North Coast","HBPANAME":"North Coast","HUNAME":"ROGUE RIVER","IDNUM":"1102"}},{"type":"Feature","id":27,"geometry":{"type":"Polygon","coordinates":[[[-124.358,40.559],[-124.387,40.51],[-124.384,40.493],[-124.41,40.438],[-124.369,40.384],[-124.362,40.341],[-124.348,40.318],[-124.364,40.276],[-124.362,40.259],[-124.29,40.203],[-124.215,40.161],[-124.188,40.131],[-124.11,40.103],[-124.08,40.066],[-124.081,40.03],[-124.038,40.015],[-123.979,39.96],[-123.927,39.974],[-123.916,39.968],[-123.893,40.018],[-123.922,40.039],[-123.936,40.067],[-123.932,40.072],[-123.943,40.077],[-123.952,40.095],[-123.952,40.108],[-123.95,40.122],[-123.937,40.124],[-123.932,40.139],[-123.915,40.143],[-123.909,40.152],[-123.932,40.181],[-123.941,40.215],[-123.994,40.223],[-123.994,40.244],[-123.986,40.255],[-124.022,40.26],[-124.057,40.282],[-124.058,40.3],[-124.069,40.309],[-124.07,40.327],[-124.083,40.345],[-124.074,40.357],[-124.051,40.356],[-124.052,40.375],[-124.041,40.395],[-124.084,40.42],[-124.107,40.424],[-124.12,40.417],[-124.143,40.448],[-124.203,40.457],[-124.244,40.496],[-124.282,40.501],[-124.284,40.512],[-124.264,40.519],[-124.268,40.533],[-124.307,40.539],[-124.314,40.554],[-124.335,40.562],[-124.358,40.559]]]},"properties":{"SHAPE.AREA":1293633169.4421699,"SHAPE.LEN":209621.79825431999,"OBJECTID":27,"HRC":"NC","HBPA":"NC","RBU":1112,"HR":1,"RB":1,"HU":12,"HRNAME":"North Coast","RBNAME":"North Coast","HBPANAME":"North Coast","HUNAME":"CAPE MENDOCINO","IDNUM":"1112"}},{"type":"Feature","id":1,"geometry":{"type":"Polygon","coordinates":[[[-124.051,41.997],[-124.212,41.999],[-124.205,41.982],[-124.21,41.951],[-124.162,41.951],[-124.153,41.968],[-124.101,41.962],[-124.093,41.971],[-124.067,41.976],[-124.051,41.997]]]},"properties":{"SHAPE.AREA":47102842.039040297,"SHAPE.LEN":37065.001424379101,"OBJECTID":1,"HRC":"NC","HBPA":"NC","RBU":1101,"HR":1,"RB":1,"HU":1,"HRNAME":"North Coast","RBNAME":"North Coast","HBPANAME":"North Coast","HUNAME":"WINCHUCK RIVER","IDNUM":"1101"}},{"type":"Feature","id":11,"geometry":{"type":"Polygon","coordinates":[[[-124.067,41.452],[-124.071,41.381],[-124.092,41.289],[-124.083,41.282],[-124.072,41.229],[-124.061,41.219],[-124.058,41.2],[-124.072,41.193],[-124.062,41.183],[-124.067,41.177],[-124.046,41.162],[-124.024,41.159],[-124.015,41.149],[-124.024,41.143],[-124.016,41.133],[-123.98,41.112],[-123.958,41.068],[-123.932,41.051],[-123.922,41.014],[-123.899,40.988],[-123.9,40.978],[-123.862,40.952],[-123.857,40.925],[-123.871,40.903],[-123.865,40.882],[-123.827,40.847],[-123.822,40.834],[-123.826,40.813],[-123.796,40.795],[-123.798,40.786],[-123.779,40.777],[-123.757,40.731],[-123.7,40.684],[-123.696,40.696],[-123.704,40.704],[-123.691,40.74],[-123.698,40.762],[-123.678,40.766],[-123.679,40.783],[-123.689,40.791],[-123.692,40.815],[-123.721,40.839],[-123.736,40.872],[-123.771,40.884],[-123.779,40.914],[-123.771,40.931],[-123.753,40.939],[-123.754,40.965],[-123.767,40.99],[-123.793,40.993],[-123.783,41.002],[-123.785,41.035],[-123.811,41.077],[-123.835,41.08],[-123.841,41.105],[-123.857,41.112],[-123.85,41.123],[-123.861,41.141],[-123.895,41.162],[-123.917,41.167],[-123.926,41.185],[-123.956,41.209],[-123.961,41.227],[-123.979,41.233],[-123.988,41.267],[-123.966,41.287],[-123.947,41.329],[-123.964,41.335],[-123.968,41.346],[-123.963,41.348],[-123.978,41.355],[-123.978,41.372],[-123.99,41.377],[-123.992,41.395],[-124.013,41.414],[-124.008,41.421],[-124.022,41.427],[-124.021,41.438],[-124.041,41.454],[-124.067,41.452]]]},"properties":{"SHAPE.AREA":760215874.061221,"SHAPE.LEN":230086.94690333199,"OBJECTID":11,"HRC":"NC","HBPA":"NC","RBU":1107,"HR":1,"RB":1,"HU":7,"HRNAME":"North Coast","RBNAME":"North Coast","HBPANAME":"North Coast","HUNAME":"REDWOOD CREEK","IDNUM":"1107"}},{"type":"Feature","id":33,"geometry":{"type":"Polygon","coordinates":[[[-123.964,39.965],[-123.979,39.959],[-123.955,39.923],[-123.929,39.909],[-123.908,39.863],[-123.852,39.833],[-123.831,39.723],[-123.808,39.71],[-123.786,39.66],[-123.782,39.613],[-123.789,39.6],[-123.766,39.553],[-123.788,39.503],[-123.805,39.49],[-123.81,39.462],[-123.803,39.455],[-123.81,39.459],[-123.813,39.442],[-123.821,39.44],[-123.809,39.429],[-123.819,39.424],[-123.813,39.417],[-123.822,39.407],[-123.817,39.377],[-123.826,39.369],[-123.817,39.362],[-123.825,39.361],[-123.821,39.354],[-123.828,39.349],[-123.8,39.319],[-123.811,39.305],[-123.792,39.302],[-123.804,39.28],[-123.799,39.272],[-123.791,39.274],[-123.787,39.253],[-123.773,39.239],[-123.78,39.233],[-123.77,39.228],[-123.778,39.224],[-123.766,39.215],[-123.777,39.214],[-123.772,39.195],[-123.761,39.192],[-123.734,39.158],[-123.736,39.14],[-123.72,39.135],[-123.691,39.051],[-123.69,39.022],[-123.704,38.989],[-123.725,38.959],[-123.742,38.956],[-123.726,38.936],[-123.728,38.919],[-123.711,38.915],[-123.681,38.883],[-123.66,38.873],[-123.647,38.845],[-123.605,38.822],[-123.603,38.807],[-123.574,38.8],[-123.534,38.769],[-123.524,38.749],[-123.456,38.713],[-123.433,38.69],[-123.432,38.679],[-123.41,38.663],[-123.39,38.63],[-123.367,38.613],[-123.372,38.607],[-123.336,38.582],[-123.34,38.572],[-123.334,38.566],[-123.304,38.555],[-123.304,38.548],[-123.268,38.53],[-123.254,38.512],[-123.202,38.494],[-123.132,38.453],[-123.101,38.491],[-123.12,38.505],[-123.142,38.507],[-123.146,38.523],[-123.167,38.536],[-123.167,38.555],[-123.16,38.578],[-123.167,38.594],[-123.16,38.607],[-123.13,38.641],[-123.109,38.647],[-123.151,38.686],[-123.15,38.695],[-123.134,38.703],[-123.147,38.721],[-123.162,38.726],[-123.158,38.746],[-123.133,38.753],[-123.182,38.771],[-123.245,38.768],[-123.272,38.798],[-123.267,38.803],[-123.274,38.829],[-123.258,38.829],[-123.249,38.814],[-123.224,38.814],[-123.207,38.835],[-123.192,38.836],[-123.198,38.849],[-123.189,38.856],[-123.199,38.863],[-123.198,38.873],[-123.233,38.882],[-123.239,38.89],[-123.227,38.908],[-123.226,38.935],[-123.214,38.946],[-123.248,38.951],[-123.267,38.98],[-123.28,38.981],[-123.288,38.991],[-123.281,38.999],[-123.27,38.996],[-123.267,39.005],[-123.276,39.062],[-123.286,39.076],[-123.295,39.077],[-123.3,39.113],[-123.316,39.148],[-123.338,39.159],[-123.37,39.194],[-123.37,39.211],[-123.333,39.223],[-123.34,39.233],[-123.331,39.25],[-123.383,39.273],[-123.371,39.278],[-123.38,39.303],[-123.369,39.319],[-123.387,39.336],[-123.388,39.355],[-123.446,39.366],[-123.431,39.377],[-123.443,39.391],[-123.417,39.404],[-123.407,39.436],[-123.43,39.452],[-123.452,39.503],[-123.504,39.515],[-123.507,39.541],[-123.501,39.548],[-123.503,39.56],[-123.517,39.566],[-123.52,39.607],[-123.548,39.612],[-123.581,39.604],[-123.62,39.637],[-123.636,39.637],[-123.66,39.654],[-123.689,39.657],[-123.691,39.68],[-123.724,39.686],[-123.731,39.697],[-123.717,39.696],[-123.705,39.706],[-123.745,39.727],[-123.745,39.738],[-123.762,39.745],[-123.772,39.763],[-123.789,39.773],[-123.794,39.782],[-123.786,39.801],[-123.805,39.815],[-123.778,39.824],[-123.768,39.855],[-123.816,39.882],[-123.818,39.893],[-123.85,39.91],[-123.864,39.93],[-123.888,39.92],[-123.922,39.926],[-123.949,39.939],[-123.942,39.95],[-123.964,39.965]]]},"properties":{"SHAPE.AREA":4140560974.15518,"SHAPE.LEN":624247.06729898998,"OBJECTID":33,"HRC":"NC","HBPA":"NC","RBU":1113,"HR":1,"RB":1,"HU":13,"HRNAME":"North Coast","RBNAME":"North Coast","HBPANAME":"North Coast","HUNAME":"MENDOCINO COAST","IDNUM":"1113"}}]}