{"type":"FeatureCollection","features":[{"type":"Feature","id":173,"geometry":{"type":"Polygon","coordinates":[[[-117.772,34.005],[-117.785,34.005],[-117.803,33.968],[-117.788,33.963],[-117.787,33.971],[-117.778,33.971],[-117.771,33.982],[-117.772,34.005]]]},"properties":{"SHAPE.AREA":8069082.2166961804,"SHAPE.LEN":14179.6025352829,"OBJECTID":173,"HRC":"SC","HBPA":"SA","RBU":4845,"HR":4,"RB":8,"HU":45,"HRNAME":"South Coast","RBNAME":"Santa Ana","HBPANAME":"Santa Ana","HUNAME":"SAN GABRIEL RIVER","IDNUM":"4845"}},{"type":"Feature","id":170,"geometry":{"type":"Polygon","coordinates":[[[-116.934,33.974],[-116.975,33.949],[-116.973,33.91],[-117.038,33.927],[-117.093,33.956],[-117.159,33.967],[-117.187,33.984],[-117.201,33.984],[-117.216,33.968],[-117.235,33.989],[-117.271,34.0],[-117.291,33.985],[-117.286,33.966],[-117.267,33.949],[-117.265,33.928],[-117.276,33.91],[-117.304,33.905],[-117.311,33.886],[-117.278,33.856],[-117.278,33.831],[-117.295,33.804],[-117.323,33.798],[-117.333,33.783],[-117.297,33.759],[-117.289,33.709],[-117.301,33.699],[-117.295,33.681],[-117.313,33.682],[-117.316,33.67],[-117.331,33.666],[-117.337,33.675],[-117.393,33.702],[-117.455,33.683],[-117.459,33.673],[-117.419,33.665],[-117.366,33.627],[-117.365,33.602],[-117.321,33.598],[-117.293,33.617],[-117.282,33.614],[-117.245,33.643],[-117.224,33.624],[-117.197,33.626],[-117.195,33.61],[-117.174,33.625],[-117.161,33.625],[-117.139,33.655],[-117.101,33.664],[-117.094,33.688],[-117.037,33.69],[-117.003,33.709],[-116.951,33.638],[-116.963,33.632],[-116.96,33.626],[-116.941,33.623],[-116.933,33.61],[-116.925,33.621],[-116.854,33.644],[-116.848,33.631],[-116.835,33.632],[-116.785,33.606],[-116.781,33.582],[-116.735,33.592],[-116.717,33.583],[-116.681,33.62],[-116.574,33.553],[-116.57,33.583],[-116.559,33.593],[-116.559,33.613],[-116.572,33.641],[-116.566,33.651],[-116.573,33.666],[-116.621,33.7],[-116.63,33.726],[-116.647,33.739],[-116.65,33.757],[-116.672,33.756],[-116.674,33.782],[-116.687,33.795],[-116.679,33.814],[-116.739,33.839],[-116.746,33.826],[-116.764,33.829],[-116.774,33.823],[-116.822,33.84],[-116.829,33.853],[-116.858,33.872],[-116.868,33.893],[-116.914,33.888],[-116.939,33.901],[-116.949,33.953],[-116.934,33.974]]]},"properties":{"SHAPE.AREA":1983870825.5490799,"SHAPE.LEN":328363.62646953197,"OBJECTID":170,"HRC":"SC","HBPA":"SA","RBU":4802,"HR":4,"RB":8,"HU":2,"HRNAME":"South Coast","RBNAME":"Santa Ana","HBPANAME":"Santa Ana","HUNAME":"SAN JACINTO VALLEY","IDNUM":"4802"}},{"type":"Feature","id":175,"geometry":{"type":"Polygon","coordinates":[[[-118.097,33.756],[-118.087,33.753],[-118.068,33.774],[-118.047,33.774],[-118.04,33.81],[-118.028,33.81],[-118.025,33.817],[-117.968,33.817],[-117.967,33.825],[-117.934,33.829],[-117.915,33.818],[-117.923,33.826],[-117.92,33.834],[-117.889,33.839],[-117.889,33.845],[-117.877,33.846],[-117.876,33.858],[-117.86,33.859],[-117.853,33.867],[-117.851,33.884],[-117.859,33.895],[-117.845,33.932],[-117.826,33.947],[-117.977,33.946],[-117.977,33.903],[-117.994,33.896],[-118.011,33.873],[-118.029,33.873],[-118.029,33.866],[-118.059,33.846],[-118.063,33.82],[-118.085,33.803],[-118.097,33.78],[-118.097,33.756]]]},"properties":{"SHAPE.AREA":217120410.46720999,"SHAPE.LEN":95152.093349344097,"OBJECTID":175,"HRC":"SC","HBPA":"SA","RBU":4845,"HR":4,"RB":8,"HU":45,"HRNAME":"South Coast","RBNAME":"Santa Ana","HBPANAME":"Santa Ana","HUNAME":"SAN GABRIEL RIVER","IDNUM":"4845"}},{"type":"Feature","id":153,"geometry":{"type":"Polygon","coordinates":[[[-117.634,34.334],[-117.644,34.314],[-117.636,34.303],[-117.646,34.291],[-117.678,34.162],[-117.73,34.022],[-117.768,34.023],[-117.765,34.01],[-117.775,33.999],[-117.771,33.982],[-117.794,33.965],[-117.794,33.954],[-117.783,33.946],[-117.826,33.947],[-117.845,33.932],[-117.859,33.895],[-117.851,33.884],[-117.853,33.867],[-117.86,33.859],[-117.876,33.858],[-117.877,33.846],[-117.889,33.845],[-117.889,33.839],[-117.92,33.834],[-117.923,33.826],[-117.915,33.818],[-117.934,33.829],[-117.967,33.825],[-117.968,33.817],[-118.025,33.817],[-118.028,33.81],[-118.04,33.81],[-118.047,33.774],[-118.068,33.774],[-118.077,33.76],[-118.115,33.742],[-118.091,33.732],[-118.002,33.655],[-117.959,33.63],[-117.954,33.644],[-117.957,33.629],[-117.928,33.606],[-117.872,33.592],[-117.822,33.56],[-117.805,33.606],[-117.777,33.602],[-117.774,33.61],[-117.729,33.605],[-117.693,33.625],[-117.676,33.641],[-117.678,33.652],[-117.628,33.687],[-117.634,33.705],[-117.562,33.685],[-117.525,33.717],[-117.496,33.702],[-117.476,33.702],[-117.455,33.683],[-117.393,33.702],[-117.337,33.675],[-117.331,33.666],[-117.316,33.67],[-117.313,33.682],[-117.295,33.68],[-117.301,33.7],[-117.289,33.709],[-117.297,33.759],[-117.333,33.783],[-117.323,33.798],[-117.295,33.804],[-117.276,33.843],[-117.29,33.872],[-117.311,33.885],[-117.304,33.905],[-117.276,33.91],[-117.264,33.93],[-117.267,33.949],[-117.286,33.966],[-117.291,33.987],[-117.267,34.0],[-117.235,33.989],[-117.216,33.968],[-117.201,33.984],[-117.187,33.984],[-117.159,33.967],[-117.093,33.956],[-117.038,33.927],[-116.972,33.91],[-116.977,33.945],[-116.947,33.971],[-116.931,33.975],[-116.933,34.003],[-116.918,34.008],[-116.903,34.044],[-116.906,34.063],[-116.885,34.06],[-116.846,34.071],[-116.839,34.099],[-116.822,34.112],[-116.801,34.116],[-116.769,34.102],[-116.768,34.13],[-116.741,34.134],[-116.739,34.144],[-116.714,34.145],[-116.711,34.157],[-116.694,34.161],[-116.707,34.174],[-116.71,34.192],[-116.773,34.205],[-116.753,34.237],[-116.772,34.26],[-116.767,34.266],[-116.825,34.309],[-116.84,34.291],[-116.856,34.29],[-116.858,34.313],[-116.886,34.322],[-116.903,34.315],[-116.9,34.282],[-116.969,34.293],[-116.992,34.26],[-117.021,34.256],[-117.033,34.247],[-117.021,34.226],[-117.036,34.217],[-117.036,34.204],[-117.084,34.192],[-117.094,34.206],[-117.128,34.214],[-117.139,34.235],[-117.266,34.227],[-117.29,34.238],[-117.322,34.236],[-117.33,34.257],[-117.349,34.245],[-117.371,34.261],[-117.401,34.262],[-117.406,34.291],[-117.431,34.299],[-117.439,34.312],[-117.424,34.336],[-117.432,34.349],[-117.461,34.347],[-117.473,34.36],[-117.494,34.358],[-117.544,34.382],[-117.577,34.384],[-117.588,34.368],[-117.586,34.343],[-117.634,34.334]]]},"properties":{"SHAPE.AREA":5041022224.5540895,"SHAPE.LEN":517920.36586511799,"OBJECTID":153,"HRC":"SC","HBPA":"SA","RBU":4801,"HR":4,"RB":8,"HU":1,"HRNAME":"South Coast","RBNAME":"Santa Ana","HBPANAME":"Santa Ana","HUNAME":"SANTA ANA RIVER","IDNUM":"4801"}}]}