{
  "type": "FeatureCollection",
  "features": [
    {
      "type": "Feature",
      "geometry": {
        "type": "Polygon",
        "coordinates": [[[-117.63, 34.33], [-117.78, 33.95], [-118.08, 33.8], [-118.0, 33.66], [-117.82, 33.56], [-117.63, 33.71], [-117.33, 33.6], [-117.0, 33.71], [-116.57, 33.55], [-116.68, 33.81], [-116.94, 33.9], [-116.69, 34.16], [-116.81, 34.3], [-117.08, 34.19], [-117.63, 34.33]]]
      },
      "properties": { "RB": 8, "RB_NAME": "Santa Ana (8)" }
    },
    {
      "type": "Feature",
      "geometry": {
        "type": "Polygon",
        "coordinates": [[[-116.85, 33.63], [-117.52, 33.72], [-117.82, 33.56], [-117.34, 33.14], [-117.12, 32.53], [-116.29, 32.6], [-116.6, 33.08], [-116.49, 33.24], [-116.68, 33.5], [-116.57, 33.55], [-116.85, 33.63]]]
      },
      "properties": { "RB": 9, "RB_NAME": "San Diego (9)" }
    },
    {
      "type": "Feature",
      "geometry": {
        "type": "Polygon",
        "coordinates": [[[-120.7, 41.99], [-124.21, 42.0], [-124.06, 41.44], [-124.36, 40.26], [-123.85, 39.83], [-123.73, 38.92], [-123.06, 38.3], [-122.77, 38.22], [-122.53, 38.47], [-123.1, 39.09], [-123.02, 39.32], [-122.71, 39.26], [-122.81, 39.41], [-122.67, 39.54], [-122.94, 39.8], [-123.07, 40.33], [-122.69, 40.57], [-122.75, 40.69], [-122.45, 41.12], [-122.5, 41.31], [-121.6, 41.62], [-120.87, 41.53], [-120.58, 41.82], [-120.7, 41.99]]]
      },
      "properties": { "RB": 1, "RB_NAME": "North Coast (1)" }
    },
    {
      "type": "Feature",
      "geometry": {
        "type": "Polygon",
        "coordinates": [[[-122.62, 38.66], [-122.57, 38.33], [-122.98, 38.27], [-123.02, 37.99], [-122.48, 37.83], [-122.35, 37.2], [-121.39, 37.03], [-121.47, 37.49], [-121.66, 37.77], [-121.94, 37.86], [-121.89, 38.29], [-122.62, 38.66]]]
      },
      "properties": { "RB": 2, "RB_NAME": "San Francisco Bay (2)" }
    },
    {
      "type": "Feature",
      "geometry": {
        "type": "MultiPolygon",
        "coordinates": [
          [[[-122.42, 37.25], [-122.15, 36.98], [-121.87, 36.94], [-121.9, 36.31], [-120.64, 35.14], [-120.64, 34.56], [-119.42, 34.38], [-119.46, 34.62], [-119.15, 34.69], [-119.2, 34.87], [-120.22, 35.62], [-120.25, 35.88], [-120.65, 36.11], [-120.58, 36.33], [-121.02, 36.56], [-120.96, 36.72], [-121.23, 36.93], [-121.24, 37.16], [-121.44, 37.23], [-121.41, 37.02], [-122.42, 37.25]]],
          [[[-119.91, 34.08], [-119.82, 33.96], [-119.52, 34.03], [-119.91, 34.08]]],
          [[[-120.2, 34.01], [-120.12, 33.89], [-119.97, 33.94], [-120.2, 34.01]]],
          [[[-120.38, 34.06], [-120.45, 34.03], [-120.3, 34.02], [-120.38, 34.06]]]
        ]
      },
      "properties": { "RB": 3, "RB_NAME": "Central Coast (3)" }
    },
    {
      "type": "Feature",
      "geometry": {
        "type": "MultiPolygon",
        "coordinates": [
          [[[-118.82, 34.8], [-119.17, 34.81], [-119.17, 34.66], [-119.46, 34.62], [-119.48, 34.37], [-119.13, 34.1], [-118.52, 34.03], [-118.29, 33.7], [-117.78, 33.95], [-117.63, 34.33], [-118.0, 34.34], [-118.33, 34.65], [-118.82, 34.8]]],
          [[[-118.58, 33.45], [-118.47, 33.33], [-118.3, 33.31], [-118.58, 33.45]]],
          [[[-118.56, 33.01], [-118.5, 32.85], [-118.35, 32.82], [-118.56, 33.01]]],
          [[[-119.51, 33.28], [-119.58, 33.28], [-119.42, 33.23], [-119.51, 33.28]]],
          [[[-119.03, 33.48], [-119.05, 33.48], [-119.04, 33.46], [-119.03, 33.48]]],
          [[[-119.42, 34.02], [-119.44, 34.01], [-119.41, 34.01], [-119.42, 34.02]]],
          [[[-119.38, 34.01], [-119.41, 34.01], [-119.39, 34.0], [-119.38, 34.01]]],
          [[[-119.36, 34.02], [-119.37, 34.02], [-119.38, 34.01], [-119.36, 34.02]]],
          [[[-119.05, 33.47], [-119.05, 33.46], [-119.05, 33.46], [-119.05, 33.47]]]
        ]
      },
      "properties": { "RB": 4, "RB_NAME": "Los Angeles (4)" }
    },
    {
      "type": "Feature",
      "geometry": {
        "type": "Polygon",
        "coordinates": [[[-120.7, 41.99], [-120.58, 41.82], [-120.87, 41.53], [-121.6, 41.62], [-122.5, 41.31], [-122.45, 41.12], [-122.75, 40.69], [-122.69, 40.57], [-123.07, 40.33], [-122.94, 39.8], [-122.67, 39.54], [-122.81, 39.41], [-122.71, 39.26], [-123.02, 39.32], [-123.1, 39.08], [-121.89, 38.29], [-121.94, 37.86], [-121.65, 37.76], [-121.41, 37.16], [-121.24, 37.16], [-121.23, 36.93], [-120.96, 36.72], [-121.02, 36.56], [-120.58, 36.33], [-120.67, 36.14], [-120.24, 35.88], [-120.22, 35.62], [-119.35, 34.88], [-118.82, 34.8], [-118.24, 35.22], [-118.34, 35.42], [-118.15, 35.45], [-117.98, 35.93], [-118.44, 37.06], [-118.67, 37.15], [-118.8, 37.49], [-119.26, 37.73], [-119.31, 38.04], [-119.63, 38.2], [-120.46, 39.44], [-120.11, 39.57], [-120.11, 39.93], [-120.58, 40.29], [-121.25, 40.5], [-120.82, 40.95], [-120.45, 41.1], [-120.21, 41.03], [-120.13, 41.2], [-120.3, 41.52], [-120.19, 41.98], [-120.7, 41.99]]]
      },
      "properties": { "RB": 5, "RB_NAME": "Central Valley (5)" }
    },
    {
      "type": "Feature",
      "geometry": {
        "type": "Polygon",
        "coordinates": [[[-120.21, 41.99], [-120.2, 41.03], [-120.57, 41.08], [-121.25, 40.51], [-120.2, 40.06], [-120.11, 39.58], [-120.46, 39.44], [-119.63, 38.2], [-119.31, 38.04], [-119.26, 37.73], [-118.8, 37.49], [-118.67, 37.15], [-118.44, 37.06], [-118.1, 36.35], [-117.99, 35.69], [-118.34, 35.42], [-118.24, 35.22], [-118.82, 34.8], [-118.33, 34.65], [-118.0, 34.34], [-117.56, 34.39], [-117.08, 34.19], [-116.89, 34.32], [-117.19, 34.39], [-117.07, 34.69], [-116.42, 34.66], [-116.3, 34.79], [-116.2, 34.65], [-115.6, 34.81], [-115.14, 35.41], [-120.01, 39.0], [-120.0, 41.99], [-120.21, 41.99]]]
      },
      "properties": { "RB": 6, "RB_NAME": "Lahontan (6)" }
    },
    {
      "type": "Feature",
      "geometry": {
        "type": "Polygon",
        "coordinates": [[[-115.14, 35.41], [-115.81, 34.71], [-117.09, 34.68], [-117.03, 34.52], [-117.19, 34.39], [-116.69, 34.16], [-116.94, 33.9], [-116.57, 33.66], [-116.67, 33.47], [-116.49, 33.23], [-116.6, 33.08], [-116.29, 32.6], [-114.47, 32.84], [-114.71, 33.09], [-114.73, 33.4], [-114.52, 33.55], [-114.53, 33.95], [-114.14, 34.3], [-114.39, 34.46], [-114.63, 35.0], [-115.14, 35.41]]]
      },
      "properties": { "RB": 7, "RB_NAME": "Colorado River (7)" }
    }
  ]
}
